{"type": "FeatureCollection", "features": [{"type": "Feature", "geometry": {"type": "MultiPolygon", "coordinates": [[[[4.454418777665172, 43.82733930989505], [4.455953787600402, 43.82662687455224], [4.455976866261427, 43.82661738151643], [4.456001211412023, 43.82660972401147], [4.45602654551411, 43.82660398933379], [4.456052579755749, 43.82660024285935], [4.456079017343548, 43.82659852729838], [4.459545347586297, 43.82650813513379], [4.45955171575454, 43.82650772646168], [4.459556534657711, 43.82650468489047], [4.460405913916251, 43.825909101271726], [4.460423709848274, 43.825897761869626], [4.460442916778757, 43.82588770125877], [4.460463360041885, 43.82587901092895], [4.460484853729078, 43.825871769908716], [4.46050720237959, 43.825866044046805], [4.460530202757972, 43.825861885413296], [4.460553645702223, 43.825859331826216], [4.46114071642407, 43.8258159819769], [4.4611640423055325, 43.82581505827233], [4.4611873849603905, 43.82581572380447], [4.461210538265882, 43.82581797269645], [4.461233297771217, 43.825821785089886], [4.461255462502878, 43.825827127320174], [4.461276836739245, 43.8258339522138], [4.4626272011697, 43.82632121088582], [4.462645472833146, 43.82632851240754], [4.462662834181929, 43.82633689774088], [4.4626791628569995, 43.826346307788064], [4.463914611518432, 43.827121778263795], [4.463919007967399, 43.82712429270312], [4.46392456277249, 43.8271247785114], [4.4658750212934155, 43.82723077532531], [4.4658986188607805, 43.82723288296218], [4.465921830393194, 43.82723661297475], [4.465944443576203, 43.82724193124483], [4.467412230269916, 43.82764424908877], [4.46743653895271, 43.82765201078814], [4.467459564713122, 43.82766160618181], [4.4674810445809605, 43.827672925684006], [4.467500733240734, 43.827685840018454], [4.467518405833315, 43.82770020169474], [4.468745197670288, 43.828811400904605], [4.468748920566993, 43.828814471924844], [4.468754308450535, 43.82881566980502], [4.4694270346428935, 43.82894124066259], [4.469450246987645, 43.82894646174617], [4.469472644109349, 43.8289532988827], [4.469494011912438, 43.82896168671569], [4.469514146140403, 43.82897154506536], [4.4695328543282695, 43.828982779695245], [4.46954995764236, 43.82899528321277], [4.469565292589775, 43.82900893609595], [4.4695787125812485, 43.82902360783588], [4.469590089332427, 43.829039158184145], [4.469599314090188, 43.82905543849356], [4.4696062986722795, 43.829072293139056], [4.469610976310319, 43.82908956100524], [4.469613302288113, 43.82910707702659], [4.469613254369179, 43.82912467376524], [4.469610833009399, 43.829142183011605], [4.469606061352733, 43.82915943739229], [4.469598985010073, 43.829176271970056], [4.469589671623313, 43.82919252582042], [4.469578210218824, 43.829208043570056], [4.469564710356499, 43.82922267688208], [4.469549301082496, 43.82923628587392], [4.46953212969571, 43.829248740454574], [4.469388587396493, 43.82934313786483], [4.469384872539819, 43.829345833472196], [4.469393787220763, 43.829345177182496], [4.469398652125935, 43.829344643653414], [4.469423098948821, 43.82934372533586], [4.469447552013574, 43.8293445519812], [4.469471774240457, 43.82934711557487], [4.469495530787711, 43.829351391262065], [4.469518591328356, 43.82935733758874], [4.469540732283227, 43.82936489690347], [4.469561738988583, 43.82937399591641], [4.469581407777313, 43.82938454640985], [4.469599547953526, 43.82939644609343], [4.469615983641382, 43.82940957959596], [4.469630555490287, 43.82942381958382], [4.469643122219858, 43.82943902799563], [4.469653561989716, 43.829455057380684], [4.469661773580814, 43.82947175232848], [4.4696676773768615, 43.829488950975566], [4.4696712161362875, 43.829506486574765], [4.46967235554731, 43.829524189111844], [4.469671084560672, 43.82954188695396], [4.469667415496863, 43.82955940851354], [4.469661383926751, 43.82957658391202], [4.46965304832679, 43.82959324662685], [4.469642489512145, 43.829609235105984], [4.4696399553404484, 43.82961263178497], [4.469644447694872, 43.82961533568412], [4.4716522900125995, 43.830707931050604], [4.471657029190916, 43.83071025885499], [4.471660346464033, 43.830706879204584], [4.471810660849404, 43.83053687386721], [4.471824608293512, 43.83052266501688], [4.471840389010369, 43.830509499529406], [4.471857854979678, 43.83049750089366], [4.471876842374217, 43.83048678165368], [4.471897173096504, 43.83047744235304], [4.471918656449294, 43.83046957059182], [4.471941090924255, 43.83046324020492], [4.471964266092018, 43.83045851056957], [4.47198796457591, 43.83045542604842], [4.47201196409084, 43.830454015573395], [4.472036039528209, 43.83045429237432], [4.472059965067305, 43.830456253854905], [4.472578734353657, 43.83051732511383], [4.472584556879727, 43.83051780436337], [4.472589525993377, 43.83051555577535], [4.472749594572961, 43.83043514300377], [4.472771050343823, 43.83042549491009], [4.472793747632887, 43.830417472559986], [4.472817452173998, 43.830411158754565], [4.472841919305113, 43.83040661866048], [4.472866896493479, 43.830403899137416], [4.472892125942041, 43.83040302825435], [4.472917347250156, 43.830404014999964], [4.472942300101206, 43.8304068491897], [4.472966726949315, 43.83041150157109], [4.472990375677496, 43.83041792412555], [4.4730130021997505, 43.83042605056392], [4.473034372980315, 43.83043579701079], [4.473054267444, 43.83044706287007], [4.473072480252795, 43.830459731863236], [4.4730807547771025, 43.830466103785604], [4.4730867160760095, 43.830466235155484], [4.473633804378619, 43.83045884441413], [4.473639254540041, 43.830458576697694], [4.4736355111243675, 43.83045569662757], [4.473229304834625, 43.830172408674336], [4.473212568816066, 43.830159530942055], [4.473197659018677, 43.830145526548336], [4.47318471933729, 43.830130530651275], [4.473173874652613, 43.830114687977975], [4.473165229626042, 43.83009815142769], [4.47315886768961, 43.83008108059633], [4.473154850240853, 43.83006364023591], [4.473153216050326, 43.83004599866481], [4.473153980887507, 43.830028326142966], [4.473157137368692, 43.830010793229], [4.47320474869077, 43.82982001554147], [4.47321041082588, 43.82980242498795], [4.473218479859414, 43.829785333846516], [4.473228874525797, 43.829768914242464], [4.473241490138203, 43.82975333153793], [4.473256199642915, 43.82973874266645], [4.473272854898935, 43.82972529455254], [4.473291288169962, 43.8297131226321], [4.473311313813671, 43.82970234948831], [4.473332730151328, 43.82969308361728], [4.4733553214988735, 43.82968541833539], [4.473378860339048, 43.82967943083944], [4.4734031096126765, 43.82967518142929], [4.473427825106018, 43.82967271290059], [4.473452757910186, 43.82967205011379], [4.473477656927817, 43.82967319974384], [4.474174463893598, 43.82973089845159], [4.474180558131863, 43.82973118089921], [4.47418581014528, 43.82972892526169], [4.474528635552036, 43.82956440143883], [4.474549100785494, 43.829555571475275], [4.474570639544154, 43.82954820016478], [4.474593054036472, 43.829542355198306], [4.474616138429224, 43.82953809025036], [4.474639680737631, 43.82953544448607], [4.474663464771981, 43.829534442201556], [4.474687272122848, 43.82953509260082], [4.474710884166696, 43.82953738971124], [4.474734084073444, 43.82954131243836], [4.474756658797577, 43.829546824759724], [4.474778401034495, 43.82955387605549], [4.474799111124156, 43.82956240157341], [4.474818598884517, 43.82957232302336], [4.474836685357976, 43.82958354929625], [4.474853204454719, 43.82959597730072], [4.4748680044779405, 43.82960949290979], [4.474880949516883, 43.82962397200883], [4.474891920694957, 43.82963928163535], [4.474900817261406, 43.829655281199955], [4.474907557516577, 43.829671823777375], [4.4749120795622135, 43.82968875745565], [4.474926614659562, 43.82976182102536], [4.474927766904682, 43.829766078652426], [4.474933756346154, 43.829765927642576], [4.475759362572922, 43.829714850065756], [4.475782995842956, 43.82971420516629], [4.475806606828498, 43.82971518885956], [4.475829981870489, 43.82971779224402], [4.475852909444895, 43.82972199176127], [4.475875182076771, 43.829727749409294], [4.475896598217674, 43.82973501308636], [4.475916964069474, 43.8297437170624], [4.475936095338023, 43.829753782573874], [4.476110876991261, 43.82985527736199], [4.476128784715568, 43.82986674297315], [4.476145088441108, 43.8298794007348], [4.476159637413243, 43.829893133606085], [4.476172297102501, 43.82990781460501], [4.476182950448531, 43.82992330798255], [4.476191498942548, 43.82993947047781], [4.4761978635382595, 43.829956152642744], [4.476201985382833, 43.829973200223954], [4.476203826361146, 43.82999045558909], [4.476203369448305, 43.83000775918429], [4.476200618867134, 43.830024951009655], [4.47619560004921, 43.830041872098555], [4.476162071349563, 43.830133259347825], [4.476154908174824, 43.83014960206297], [4.476145629333515, 43.830165377176044], [4.4761343190327345, 43.83018044152223], [4.476121079916033, 43.830194658387065], [4.476106032131945, 43.83020789874718], [4.476089312243606, 43.83022004244124], [4.476071071989433, 43.83023097926055], [4.476051476906035, 43.83024060994915], [4.476030704825906, 43.830248847104734], [4.476008944263513, 43.830255615971744], [4.475986392704425, 43.83026085512001], [4.475963254813012, 43.83026451700212], [4.474887775101239, 43.83039622029973], [4.47488197252269, 43.830397149919065], [4.474882882950076, 43.830401401391605], [4.475085364966546, 43.83110983984405], [4.475086905544772, 43.831114135163446], [4.475091102370742, 43.83111736985586], [4.47545659137361, 43.83137224570565], [4.475474289443995, 43.8313859445041], [4.47548992203402, 43.83140090226337], [4.475503319366256, 43.83141695653664], [4.4755143359386365, 43.83143393296845], [4.475522852104715, 43.83145164718813], [4.475528775373164, 43.831469906812224], [4.475532041412349, 43.83148851353369], [4.475532614749111, 43.83150726527572], [4.475532370321728, 43.83151316155731], [4.475536594644488, 43.83151599642061], [4.476032598400901, 43.831818515338306], [4.47603749001705, 43.831821206572265], [4.476042148877401, 43.83182136425632], [4.476066243125988, 43.83182303357643], [4.476089998968489, 43.83182639100116], [4.476113191256795, 43.831831404710236], [4.476135600183791, 43.83183802718583], [4.476157013366536, 43.83184619566283], [4.476177227859106, 43.831855832723754], [4.476196052076006, 43.83186684703243], [4.4762133076079165, 43.83187913419963], [4.4762288309125875, 43.83189257777242], [4.47624247486483, 43.83190705033783], [4.476254110150943, 43.83192241473032], [4.476263626494328, 43.83193852533194], [4.4762709337007065, 43.83195522945223], [4.476275962513, 43.831972368775475], [4.476290725416686, 43.832038342268625], [4.476292078592225, 43.83204287068938], [4.476296854364931, 43.83204595515755], [4.477044324461885, 43.83247998182593], [4.4770492409409375, 43.8324825572385], [4.47705530673211, 43.832482693044874], [4.477291812298957, 43.832479489874885], [4.477297574361341, 43.832479213189615], [4.4773010648602245, 43.83247588295605], [4.477736803273253, 43.83201633644978], [4.477751303961536, 43.832002521188684], [4.477767574934072, 43.83198978090912], [4.477785464972594, 43.83197823401509], [4.477804807812065, 43.83196798781959], [4.477825423685904, 43.83195913754729], [4.477847120996645, 43.831951765449546], [4.47786969809658, 43.831945940040136], [4.477892945161749, 43.83194171545834], [4.477916646141939, 43.83193913096597], [4.47794058076853, 43.83193821058233], [4.477964526601533, 43.83193896286115], [4.477988261096813, 43.83194138081104], [4.478011563674278, 43.83194544196042], [4.478034217767819, 43.83195110856639], [4.478056012837945, 43.83195832796552], [4.478076746328427, 43.83196703306322], [4.478096225548739, 43.83197714295727], [4.47811426946485, 43.8319885636898], [4.479228171492647, 43.832765267926455], [4.479232550751532, 43.832768045938955], [4.479237571165269, 43.832770181180216], [4.480373391156276, 43.83320252945933], [4.48039397711772, 43.83321130397858], [4.480413304724898, 43.83322146818623], [4.480431195540609, 43.83323292824423], [4.480447484392119, 43.8332455783509], [4.480462020896077, 43.8332593017177], [4.480474670846896, 43.83327397164748], [4.480485317455803, 43.83328945270402], [4.480493862429095, 43.83330560196259], [4.480500226875655, 43.83332227032919], [4.480504352035367, 43.833339303917256], [4.480706455684957, 43.834499031584855], [4.480707480776456, 43.83450326722899], [4.480709061338887, 43.83450741237962], [4.480969033380124, 43.835080550031904], [4.480970456914112, 43.83508323367863], [4.480970108344229, 43.83508037009384], [4.480612049159553, 43.83320368845627], [4.480611011550018, 43.83319965021608], [4.4806061654254306, 43.83319751360609], [4.479327279226387, 43.832691275105596], [4.479304812118433, 43.83268122403407], [4.479283944651248, 43.83266950442774], [4.479264912303716, 43.83265624853715], [4.478183817851934, 43.8318187730129], [4.478168164023051, 43.83180539581414], [4.478154382375805, 43.831790979557375], [4.478142603677417, 43.83177566103286], [4.478132939689627, 43.831759585592], [4.477872386424947, 43.83126111668251], [4.477864650100863, 43.8312436843802], [4.477859400431327, 43.831225773277914], [4.477856691745625, 43.83120756874724], [4.477856552074936, 43.831189259196435], [4.477858982862322, 43.83117103412048], [4.477863958947898, 43.83115308213993], [4.477871428829319, 43.83113558904867], [4.477881315194904, 43.831118735891245], [4.477893515723852, 43.83110269708899], [4.477907904145289, 43.831087638634926], [4.478062356995657, 43.83094238311309], [4.47806561211591, 43.830938991430095], [4.478062408839693, 43.83093795413035], [4.47804754362822, 43.8309337684087], [4.478026254768879, 43.83092600025192], [4.478006091589235, 43.83091679169555], [4.477987239492115, 43.83090622741366], [4.477969871824477, 43.83089440454634], [4.477954148283447, 43.830881431806525], [4.477940213447894, 43.83086742848028], [4.477928195449014, 43.83085252332997], [4.477918204792192, 43.83083685341026], [4.477910333340923, 43.83082056280779], [4.477904653472181, 43.83080380131636], [4.477901217410952, 43.83078672305948], [4.4779000567501, 43.830769485073226], [4.4779011821599335, 43.830752245862264], [4.4779045832901785, 43.83073516394233], [4.4779102288652055, 43.83071839638273], [4.477918066971702, 43.8307020973621], [4.477928025536075, 43.83068641675063], [4.477940012987243, 43.83067149873216], [4.477953919098677, 43.830657480478294], [4.477969616001984, 43.8306444908872], [4.4779916013602525, 43.8306279680044], [4.477995452684126, 43.830624778447145], [4.477994012450105, 43.83062067241978], [4.477732623658925, 43.830002428114874], [4.4777306863856134, 43.82999851356561], [4.477725846571575, 43.82999627419042], [4.477421921391684, 43.82986979981237], [4.477416697172032, 43.829867862704056], [4.4774112840228, 43.82986950561302], [4.47693913534198, 43.830032652499135], [4.476916871120353, 43.83003940556561], [4.476893807167892, 43.83004456368686], [4.476870160922344, 43.83004807823412], [4.476846155311236, 43.83004991607362], [4.476822016650152, 43.83005005987888], [4.476797972509048, 43.83004850829417], [4.4767742495667635, 43.83004527594725], [4.476751071473914, 43.83004039331141], [4.476728656744342, 43.83003390641828], [4.476707216695014, 43.83002587642374], [4.476686953453755, 43.83001637903142], [4.476668058053646, 43.83000550377895], [4.476650708632021, 43.829993353193835], [4.476635068751045, 43.829980041826786], [4.476621285855739, 43.82996569517188], [4.476518866607446, 43.82984720143836], [4.476506818486844, 43.82983158701507], [4.476496970604044, 43.82981518402115], [4.476489420206828, 43.829798154439345], [4.476484241854657, 43.82978066643981], [4.4764814866824585, 43.829762892719636], [4.476481181895739, 43.82974500879717], [4.476483330502021, 43.82972719127892], [4.476487911281231, 43.829709616115444], [4.476494878995338, 43.829692456863846], [4.476504164835172, 43.829675882973916], [4.4765156771, 43.829660058114705], [4.476529302103151, 43.82964513855844], [4.476544905294739, 43.82963127163723], [4.4765623325904, 43.829618594288185], [4.476581411892917, 43.8296072317012], [4.476601954791706, 43.82959729608272], [4.47662375842338, 43.82958888554768], [4.476646607475027, 43.829582083150726], [4.477645891031712, 43.82932581182969], [4.477651183252897, 43.82932425116852], [4.477655323729228, 43.82932141279402], [4.478465913954391, 43.82871220369035], [4.478483195611909, 43.82870039997683], [4.478501954777346, 43.82868984444591], [4.478522020118626, 43.82868063350345], [4.47854320837438, 43.828672851274774], [4.478565326027694, 43.82866656883647], [4.478588171073499, 43.82866184356727], [4.478611534863487, 43.82865871862393], [4.478635204011696, 43.82865722254715], [4.478658962343344, 43.82865736900086], [4.478682592869147, 43.82865915664746], [4.478705879767055, 43.82866256916009], [4.479247125869282, 43.82876158656924], [4.479252914949847, 43.82876242891141], [4.479256195452658, 43.82875887453556], [4.4794898999648005, 43.828476537324846], [4.479502768616894, 43.82846252147201], [4.47951738937671, 43.828449437085496], [4.479533634402508, 43.82843739857215], [4.4795513616506195, 43.828426511193875], [4.479570416117433, 43.8284168701473], [4.479590631194727, 43.828408559731315], [4.47961183012642, 43.82840165261015], [4.479633827554079, 43.828396209177896], [4.479656431137604, 43.82839227703052], [4.479679443236966, 43.8283898905497], [4.480354981966938, 43.828343035811024], [4.480360946141195, 43.82834240492006], [4.480366272785909, 43.82833714477998], [4.4803811986033155, 43.82832379173384], [4.480397814810077, 43.82831152961367], [4.4804159700501245, 43.8283004701136], [4.48043549894881, 43.82829071397322], [4.480456223619291, 43.82828235005992], [4.480477955282852, 43.828275454559424], [4.480500495988456, 43.82827009028186], [4.480523640415801, 43.828266306089695], [4.480547177745523, 43.82826413645256], [4.480570893579467, 43.828263601133344], [4.48059457189355, 43.8282647050082], [4.480617997005449, 43.82826743802212], [4.480640955539154, 43.82827177528045], [4.481102248240282, 43.82837617620987], [4.481106424513797, 43.82837696341992], [4.481102853650868, 43.82837520904418], [4.480680806676957, 43.82818873091565], [4.480660384432054, 43.82817866633417], [4.480641442850479, 43.82816718404821], [4.480624168983652, 43.82815439744795], [4.480608733413589, 43.82814043280389], [4.480595288568405, 43.82812542801986], [4.480583967217059, 43.828109531271146], [4.480574881158297, 43.82809289954131], [4.480568120116666, 43.828075697071824], [4.480563750856532, 43.82805809374009], [4.480561816522854, 43.82804026338204], [4.480562336215209, 43.82802238207533], [4.480565304799265, 43.82800462640053], [4.480570692957571, 43.82798717169745], [4.480578447479165, 43.82797019033358], [4.480588491785124, 43.827953850001954], [4.48060072668485, 43.82793831206525], [4.480615031355676, 43.82792372996215], [4.480631264536035, 43.82791024769243], [4.480899474334947, 43.82770865337674], [4.480918308789172, 43.82769589334612], [4.480938868190536, 43.82768461488684], [4.480960931196763, 43.82767493942209], [4.480984260278227, 43.827666971117274], [4.481008604275165, 43.827660795758604], [4.481033701101589, 43.82765647982952], [4.481059280566818, 43.82765406979496], [4.481804590889408, 43.827612159755475], [4.481828307474271, 43.82761164823027], [4.481851983401738, 43.82761277586195], [4.481875403010867, 43.82761553237905], [4.481898352975423, 43.82761989267285], [4.4819206242469845, 43.82762581702597], [4.481942013959087, 43.82763325147427], [4.481962327275084, 43.827642128298265], [4.481981379162841, 43.82765236664005], [4.481998996080157, 43.82766387323977], [4.482015017555537, 43.827676543285065], [4.4820292976499045, 43.827690261365824], [4.482041706285963, 43.82770490252544], [4.482052130433083, 43.82772033339887], [4.482060475136934, 43.82773641342763], [4.482066664384451, 43.82775299613992], [4.482086930718879, 43.82781980934048], [4.482088469195786, 43.82782390997326], [4.4820943359366945, 43.82782403862138], [4.482454807301636, 43.8278191392426], [4.482461028530261, 43.8278188268262], [4.482467036812668, 43.827817617485], [4.4834437423589995, 43.82758198712236], [4.483449204759292, 43.8275804513095], [4.483449380406715, 43.82757621091083], [4.483444937716782, 43.82740502924832], [4.48344455022342, 43.82740087536711], [4.483438807590495, 43.827401097096214], [4.4832151087926855, 43.82741766137209], [4.483189506111693, 43.82741859530046], [4.483163906701278, 43.82741761550926], [4.483138582761363, 43.82741473241673], [4.483113803562704, 43.82740997667887], [4.4830898325836275, 43.82740339886377], [4.483066924708392, 43.82739506891365], [4.4830453235169365, 43.82738507540129], [4.4830252586948305, 43.82737352458809], [4.4830103180751895, 43.8273629317831], [4.483008568996852, 43.82736180247431], [4.483002603373466, 43.82736205180383], [4.4809919996665375, 43.82751806741653], [4.480966592776883, 43.8275190904616], [4.480941174525642, 43.82751822792494], [4.4809160112148945, 43.82751548884316], [4.48089136647568, 43.8275109019131], [4.480867498505921, 43.82750451519116], [4.480844657365254, 43.82749639558973], [4.480823082355165, 43.82748662817628], [4.480581318472355, 43.827364286803615], [4.480562154281074, 43.82735354546591], [4.480544525894139, 43.82734150419503], [4.480528600855947, 43.827328277434844], [4.4805145305214555, 43.82731399089632], [4.480502448617676, 43.827298780362845], [4.480492469972732, 43.82728279039948], [4.480484689424541, 43.827266172979215], [4.48047918091952, 43.82724908603833], [4.480475996809832, 43.82723169197541], [4.4804751673559, 43.82721415610791], [4.4804767004388895, 43.827196645100784], [4.480480581485871, 43.82717932538265], [4.480486773608424, 43.82716236156382], [4.480495217953296, 43.82714591487199], [4.480505834261837, 43.827130141619776], [4.480518521632857, 43.827115191719194], [4.480533159481665, 43.82710120725681], [4.480549608686168, 43.82708832114345], [4.480567712909149, 43.82707665585088], [4.480587300084126, 43.827066322247944], [4.480608184050721, 43.82705741854686], [4.4806301663239205, 43.827050029369694], [4.481002903644744, 43.82694038934707], [4.48100832849252, 43.82693856519163], [4.481011451253981, 43.82693487182712], [4.481162967817819, 43.82673426591147], [4.48117541578543, 43.82671951510936], [4.481189760956697, 43.82670569687743], [4.481205871006131, 43.82669293867918], [4.481223597328778, 43.82668135819994], [4.481242776411004, 43.82667106226136], [4.4812632313388, 43.826662145836096], [4.4812847734296755, 43.826654691171655], [4.481307203973097, 43.82664876703192], [4.481330316063415, 43.8266444280627], [4.481353896508379, 43.82664171428784], [4.481377727795624, 43.82664065073994], [4.4814015900990185, 43.82664124722938], [4.481425263306338, 43.82664349825402], [4.482178586391823, 43.826741969250484], [4.482184033687921, 43.82674248526247], [4.482181724054882, 43.826738876543175], [4.482170909368024, 43.82672392588701], [4.482160665335902, 43.82670789602577], [4.482152640899775, 43.82669121642263], [4.482146913337618, 43.82667404771176], [4.482143537807022, 43.826656555237655], [4.482142546814065, 43.82663890746258], [4.482143949900348, 43.826621274344376], [4.482147733551193, 43.826603825699486], [4.482153861325866, 43.82658672956765], [4.482162274208619, 43.826570150593554], [4.482172891177108, 43.826554248441276], [4.482185609982749, 43.82653917625653], [4.482200308135483, 43.82652507919203], [4.48221684408346, 43.826512093009335], [4.482235058576283, 43.82650034277171], [4.482254776198677, 43.82648994163956], [4.482275807059843, 43.82648098978064], [4.483035247827448, 43.82619305413123], [4.483040243915777, 43.82619093568262], [4.483042377464004, 43.82618703890079], [4.4832097915763445, 43.82583317110682], [4.48321885049246, 43.825816713770074], [4.483230100375986, 43.825800980952216], [4.483243432223585, 43.825786125090524], [4.483258716859796, 43.82577229012523], [4.483275806188664, 43.82575961010489], [4.483294534628702, 43.825748207887536], [4.483314720717224, 43.8257381939504], [4.483336168868563, 43.825729665319464], [4.483358671269101, 43.82572270462934], [4.4833820098907635, 43.825717379322796], [4.483405958603469, 43.82571374099714], [4.483430285366075, 43.8257118249044], [4.48345475447459, 43.825711649609744], [4.483479128845852, 43.825713216811614], [4.4844543061287725, 43.825811131454095], [4.484460311730407, 43.82581151950218], [4.484465331836966, 43.82581113227154], [4.484478529369574, 43.82580963007196], [4.484502232415258, 43.82580859254605], [4.484525964058365, 43.82580919706973], [4.484549507766433, 43.825811438127126], [4.484572648721706, 43.82581529527041], [4.484595175781131, 43.82582073330616], [4.4846168834028175, 43.82582770261663], [4.484637573521404, 43.82583613961236], [4.4846570573552125, 43.82584596731234], [4.484675157128717, 43.825857096046484], [4.484691707694585, 43.82586942427366], [4.484706558040525, 43.82588283950832], [4.484719572667166, 43.82589721934661], [4.484730632824409, 43.82591243258337], [4.48473963759497, 43.825928340409156], [4.48474650481522, 43.82594479767688], [4.484775575941647, 43.82602876242245], [4.484777057877763, 43.826032387846446], [4.484779351781875, 43.82603576949588], [4.485610929588649, 43.827142183312716], [4.485612158493541, 43.82714364090295], [4.485611267488328, 43.827142059762], [4.485410710863863, 43.82683125827865], [4.485401522575589, 43.82681499204156], [4.485394569352835, 43.82679815459573], [4.485389917487611, 43.82678090647415], [4.48538761132999, 43.82676341212524], [4.485387672865342, 43.8267458383448], [4.485390101504796, 43.82672835268579], [4.485394874090941, 43.82671112186088], [4.485401945118693, 43.82669431015292], [4.48541124716923, 43.82667807784863], [4.485422691552856, 43.82666257971041], [4.485612275121315, 43.82643349635835], [4.485625904109672, 43.826418732200956], [4.485641476415239, 43.82640501225194], [4.485658840443155, 43.82639247007245], [4.485677827156809, 43.82638122775816], [4.485698251723389, 43.82637139475077], [4.485719915313195, 43.82636306677258], [4.485742607035172, 43.8263563248947], [4.485766105989879, 43.82635123474788], [4.485790183419838, 43.82634784588361], [4.485814604936393, 43.82634619129169], [4.485839132801377, 43.82634628707924], [4.485863528241373, 43.82634813231379], [4.485887553772051, 43.82635170903237], [4.485910975509973, 43.82635698241643], [4.485933565449334, 43.82636390113072], [4.48595510368149, 43.82637239782302], [4.485975380535695, 43.82638238977983], [4.485994198620161, 43.82639377973148], [4.486011374743611, 43.82640645679907], [4.486026741698616, 43.826420297573776], [4.486040149889328, 43.82643516731825], [4.4860514687878, 43.82645092127817], [4.486060588204703, 43.82646740609144], [4.486067419362038, 43.82648446128102], [4.486162396220598, 43.8267743633762], [4.486163697340684, 43.82677762427747], [4.486164415871618, 43.82677427014851], [4.4861885867827, 43.82660907208718], [4.486192550684082, 43.826590903407585], [4.4861990553350575, 43.82657312251736], [4.486208032793307, 43.826555915134925], [4.486219389288684, 43.826539460988315], [4.486233006202715, 43.826523931937984], [4.486248741307608, 43.82650949018183], [4.486266430251855, 43.82649628656101], [4.486285888276875, 43.826484458984545], [4.4863069121468, 43.82647413098889], [4.486329282271223, 43.82646541044755], [4.486352764998753, 43.82645838844459], [4.486521494952586, 43.82641509841459], [4.486526916509688, 43.82641348605213], [4.486525772591498, 43.82640932433316], [4.486125549043256, 43.825253471860606], [4.486123781555484, 43.82524928119297], [4.486117735472765, 43.82524947764883], [4.483710639687185, 43.825416549188894], [4.483704229991835, 43.825417241281016], [4.483698160279507, 43.82541888531891], [4.478037239281115, 43.82720237037838], [4.478031790479612, 43.82720432230144], [4.478026632110046, 43.82720665138857], [4.47730008852182, 43.82757170938412], [4.477295498457374, 43.82757425621464], [4.47729351402965, 43.827578188747445], [4.477238430650912, 43.82770572784924], [4.477236909361873, 43.82770996908081], [4.477236893864047, 43.82771016179788], [4.47723666073516, 43.82772753381622], [4.477233989580331, 43.827745245632784], [4.4772289125358755, 43.82776267946004], [4.477221479354729, 43.8277796644462], [4.4772117628801835, 43.82779603413796], [4.477199858332082, 43.82781162811184], [4.477185882373735, 43.82782629354624], [4.477169971968668, 43.82783988671915], [4.4771522830384045, 43.82785227441671], [4.477132988934454, 43.8278633352387], [4.477112278739474, 43.82787296078829], [4.477090355414219, 43.82788105673435], [4.477067433808512, 43.827887543735955], [4.4770437385556505, 43.827892358219955], [4.4767517805746, 43.82794053389169], [4.476745471663467, 43.82794183517361], [4.47674047644197, 43.82794491355052], [4.476214777716062, 43.82830567659798], [4.476196230574114, 43.82831720560777], [4.476176209040157, 43.82832736016022], [4.476154906704503, 43.828336042069495], [4.476132529542022, 43.828343167388915], [4.476109293920499, 43.82834866722266], [4.476085424508519, 43.82835248839201], [4.476061152103042, 43.82835459394944], [4.4760367113977475, 43.828354963535986], [4.476012338713676, 43.828353593578065], [4.475988269714145, 43.82835049732201], [4.475964737126014, 43.828345704706024], [4.475941968489355, 43.82833926207065], [4.475920183957278, 43.82833123171075], [4.475899594167196, 43.828321691273054], [4.4758803982041035, 43.828310733005495], [4.475862781675574, 43.82829846286509], [4.475846914917091, 43.82828499949348], [4.47583295134506, 43.82827047306972], [4.475821025973424, 43.8282550240516], [4.475811254108236, 43.82823880181736], [4.4758037302328075, 43.82822196322154], [4.475756141509364, 43.82809434160601], [4.475754318116513, 43.828090267937014], [4.4757484562019965, 43.82809084062739], [4.4755408837744906, 43.82811878164773], [4.475517330104939, 43.82812111515612], [4.475493576247897, 43.82812180927962], [4.475469839415811, 43.828120857671024], [4.475446336665435, 43.82811826903209], [4.475423282912953, 43.82811406703412], [4.475400888968659, 43.82810829010149], [4.475379359609208, 43.82810099106018], [4.475358891705027, 43.828092236654776], [4.475339672420038, 43.82808210693815], [4.475321877500171, 43.828070694539335], [4.475305669666265, 43.82805810381654], [4.4752911971261105, 43.82804444990284], [4.47513079683655, 43.82787712581726], [4.475127589878979, 43.8278741082199], [4.4751274298882295, 43.82787791383673], [4.475129981376407, 43.82797677923837], [4.4751292112508, 43.82799468942152], [4.475125984923547, 43.82801245539981], [4.475120334372699, 43.828029901071574], [4.475112315606063, 43.82804685350995], [4.475102008106126, 43.82806314467695], [4.475089514042267, 43.828078613089275], [4.475074957258086, 43.828093105418795], [4.47505848204388, 43.82810647801262], [4.475040251706418, 43.82811859831688], [4.475020446950215, 43.8281293461908], [4.474999264086322, 43.828138615097565], [4.4749769130864125, 43.82814631316035], [4.474953615501445, 43.82815236407308], [4.4749296022655205, 43.82815670785682], [4.474905111406738, 43.82815930145436], [4.4746537321802915, 43.82817672475998], [4.474628955184008, 43.82817754224757], [4.474604188978689, 43.82817656834775], [4.474579680073074, 43.828173812754166], [4.47455567241482, 43.82816930289443], [4.474532404962316, 43.828163083657124], [4.474510109306166, 43.828155216945], [4.474489007364023, 43.8281457810588], [4.4744693091717105, 43.82813486991787], [4.474451210792617, 43.828122592125325], [4.474434892366196, 43.828109069887056], [4.4744205163149635, 43.82809443779538], [4.4744082257278714, 43.82807884148928], [4.474398142936114, 43.828062436204796], [4.474390368295584, 43.82804538522994], [4.474384979188048, 43.82802785827939], [4.474382029251017, 43.828010029805164], [4.47438154784396, 43.827992077260326], [4.474383539756164, 43.82797417933268], [4.474383642760332, 43.82797361028388], [4.474377612029408, 43.82796780061805], [4.4743642230107366, 43.827953525610326], [4.474352783758772, 43.82793838799128], [4.47434339941387, 43.82792252689576], [4.474336156228818, 43.82790608810826], [4.474331120776136, 43.82788922272283], [4.474328339336246, 43.8278720857544], [4.474327837472157, 43.82785483471394], [4.474329619794586, 43.82783762816083], [4.474333669919659, 43.82782062424525], [4.474339950619569, 43.827803979254874], [4.474348404164819, 43.82778784617821], [4.474358952854901, 43.82777237329851], [4.474371499732513, 43.82775770283082], [4.474385929474772, 43.82774396961495], [4.474402109453213, 43.82773129987611], [4.474419890952834, 43.82771981006472], [4.474439110538988, 43.82770960578622], [4.47445959155954, 43.82770078083029], [4.4744811457685225, 43.827693416309], [4.474854577226965, 43.827581336177865], [4.474877809422593, 43.82757532279287], [4.474901750531302, 43.82757100614731], [4.47492616475298, 43.82756842875651], [4.474950811627883, 43.827567616005645], [4.474952086999321, 43.82756766569659], [4.474954322146972, 43.82756589722553], [4.474972251209916, 43.827554218001765], [4.474991659152205, 43.82754385150843], [4.4750123633057814, 43.82753489531479], [4.47503416880295, 43.82752743371637], [4.478998042359412, 43.82633761939312], [4.479003464825235, 43.82633575723509], [4.47900365157733, 43.82633141435515], [4.479001553906653, 43.82625034424144], [4.479001159237127, 43.826246137497776], [4.47899533790253, 43.82624600951912], [4.478448179738869, 43.82625342863585], [4.478442250147132, 43.82625371634064], [4.4784358153111965, 43.82625544912488], [4.47842650581512, 43.82625833282827], [4.478403679222329, 43.8262635882922], [4.4783802599582625, 43.826267228906026], [4.4783564654424906, 43.82626922087105], [4.47833251657845, 43.82626954569423], [4.478308635702548, 43.82626820035999], [4.478285044519988, 43.826265197358154], [4.478261962046449, 43.82626056456796], [4.478239602574725, 43.826254344999334], [4.478218173685229, 43.82624659639345], [4.478197874318825, 43.82623739068677], [4.478178892929867, 43.82622681334308], [4.47816140573661, 43.82621496256016], [4.478145575085232, 43.826201948358005], [4.478131547942651, 43.82618789155752], [4.478119454532144, 43.826172922658685], [4.478109407124405, 43.82615718062911], [4.478101498995305, 43.82614081161387], [4.478095803559988, 43.82612396757859], [4.478092373691376, 43.826106804898814], [4.477982194555314, 43.82527399669019], [4.4779813679318705, 43.825269855745695], [4.477975804910262, 43.82526872241563], [4.477413641233405, 43.82517502853463], [4.477390021101559, 43.82517019142148], [4.477367175039598, 43.825163691380716], [4.477345325800307, 43.825155591788885], [4.477324686417042, 43.82514597161843], [4.47730545812656, 43.82513492466764], [4.477287828406921, 43.82512255864607], [4.477271969149535, 43.8251089941244], [4.477258034983208, 43.82509436335874], [4.477246161766504, 43.82507880900118], [4.477236465263147, 43.82506248270875], [4.477229040013363, 43.82504554366494], [4.477223958412162, 43.82502815702738], [4.477221270003551, 43.82501049231771], [4.477158074376868, 43.8242532825785], [4.477157824941443, 43.824235153306226], [4.4771600960178315, 43.82421709784881], [4.477164864557939, 43.82419929942382], [4.477172082170798, 43.82418193864044], [4.477181675613703, 43.82416519166665], [4.477193547535523, 43.82414922844171], [4.477207577464641, 43.82413421095168], [4.477223623031486, 43.82412029158566], [4.477241521413273, 43.82410761158954], [4.477261090986256, 43.82409629963264], [4.477282133168761, 43.824086470502145], [4.477304434436265, 43.824078223938336], [4.477327768488098, 43.82407164362246], [4.4773518985437715, 43.824066796327685], [4.4773765797456395, 43.82406373124142], [4.477401561643504, 43.82406247946636], [4.477509158012454, 43.824061021723985], [4.477514912442351, 43.82406073870408], [4.477513953761434, 43.82405662098028], [4.4773126847413725, 43.82339285313523], [4.477311204683162, 43.8233888856294], [4.477305571764605, 43.823389392574526], [4.4767292854086165, 43.82346159598268], [4.476704975695085, 43.82346375517665], [4.47668049049799, 43.82346417191684], [4.476656067499612, 43.82346284215785], [4.476631943778441, 43.82345977880788], [4.476608353507749, 43.82345501160347], [4.476585525682363, 43.823448586820724], [4.4765636818957235, 43.82344056682616], [4.476543034188783, 43.82343102947127], [4.476523782991669, 43.82342006733683], [4.4765061151780365, 43.82340778683403], [4.476490202251061, 43.82339430717175], [4.476476198678635, 43.82337975919905], [4.476464240393942, 43.82336428413529], [4.4764544434759745, 43.823348032199], [4.476446903022796, 43.82333116114986], [4.476307215952438, 43.82295653328634], [4.476305436985019, 43.82295255229517], [4.476299797175058, 43.822954356388415], [4.476276623393051, 43.82296078869635], [4.476252679217853, 43.82296551592207], [4.476228203321375, 43.822968490945236], [4.4762034396757855, 43.822969684111236], [4.47617863512159, 43.82296908352677], [4.47615403690707, 43.82296669517835], [4.476129890223679, 43.82296254287275], [4.4761064357619595, 43.82295666799955], [4.476083907312293, 43.822949129118584], [4.476062529434473, 43.822940001376374], [4.476042515219284, 43.82292937575685], [4.476024064164413, 43.82291735817453], [4.476007360185878, 43.822904068418694], [4.475992569784788, 43.82288963895941], [4.475979840387713, 43.8228742136269], [4.47596929887718, 43.82285794617809], [4.475961050327002, 43.822840998763695], [4.475955176954976, 43.82282354031216], [4.475951737303424, 43.822805744845546], [4.475950765655751, 43.82278778974517], [4.4759522716947915, 43.82276985398333], [4.475956240406395, 43.82275211633934], [4.476214278475809, 43.82187789800118], [4.476215267890782, 43.82187344647943], [4.476212546899226, 43.82186939086118], [4.475575215079439, 43.82103103991911], [4.475572069736963, 43.821027354610216], [4.475566541440949, 43.82102901179178], [4.473721524432059, 43.82166259540689], [4.473699147464976, 43.82166933278338], [4.4736759707099765, 43.82167446047919], [4.4736522144594195, 43.82167792975607], [4.473638816756338, 43.821678917711985], [4.473644133494716, 43.82167952061126], [4.473658123826227, 43.8216821035206], [4.473662284351397, 43.82168271036045], [4.473668042642884, 43.82168145988994], [4.475288914134407, 43.8212657678611], [4.475311722182173, 43.82126079486761], [4.475335082920085, 43.821257425308715], [4.475358781844766, 43.82125569012434], [4.475382601347613, 43.82125560524737], [4.4754063227128915, 43.821257171457155], [4.4754297281259525, 43.82126037437243], [4.475452602673208, 43.821265184583325], [4.475474736315466, 43.82127155792147], [4.475495925816497, 43.82127943586549], [4.475515976609166, 43.8212887460784], [4.475534704581959, 43.82129940307172], [4.475551937769514, 43.82131130899052], [4.475567517931645, 43.821324354511844], [4.475581302006351, 43.82133841984859], [4.475593163423454, 43.82135337584934], [4.475602993266839, 43.8213690851843], [4.475808091635382, 43.82174363476669], [4.475815834151994, 43.82176003935434], [4.475821360880374, 43.82177690717781], [4.475824620541915, 43.821794081738496], [4.475825582891605, 43.82181140369176], [4.475824238998725, 43.8218287123254], [4.475820601329779, 43.82184584705054], [4.475814703632906, 43.821862648891745], [4.475806600624846, 43.82187896196185], [4.475796367483341, 43.821894634908425], [4.475784099149705, 43.82190952231799], [4.475769909448012, 43.82192348606506], [4.475753930029067, 43.821936396593884], [4.475736309148993, 43.82194813412036], [4.475717210293722, 43.821958589743446], [4.475696810662164, 43.82196766645556], [4.475675299522154, 43.82197528004269], [4.475652876454389, 43.821981359865696], [4.473654080977185, 43.822445140377106], [4.473630148694198, 43.82244975511158], [4.473605700953344, 43.82245262273397], [4.473580980431848, 43.822453714779186], [4.47355623251473, 43.82245302040717], [4.473531702858957, 43.822450546510495], [4.473507634954896, 43.82244631764604], [4.473484267709267, 43.82244037579103], [4.47346183307361, 43.82243277992654], [4.473440553741798, 43.822423605451846], [4.47342064093946, 43.82241294343609], [4.473402292327253, 43.82240089971424], [4.473385690038797, 43.82238759383643], [4.473370998872759, 43.82237315788137], [4.473358364657029, 43.82235773514518], [4.4733479128012155, 43.82234147871891], [4.473177327163027, 43.82203741454706], [4.473169337703005, 43.82202091736076], [4.4731635965422445, 43.82200393678753], [4.473160157845944, 43.82198663303721], [4.473159054055697, 43.82196916936866], [4.473160295583486, 43.82195171054937], [4.473163870713529, 43.82193442130093], [4.4731697457128945, 43.821917464744885], [4.473177865149845, 43.821901000863754], [4.4731881524169, 43.821885184991565], [4.473200510453684, 43.82187016634838], [4.473214822662716, 43.821856086632444], [4.473230954009549, 43.82184307868325], [4.473248752296811, 43.82183126522829], [4.4734104111407476, 43.821733992461816], [4.473420054830085, 43.82172760955406], [4.473426406470436, 43.821722988798946], [4.4734444294691285, 43.821712142531396], [4.47346378313536, 43.82170257336302], [4.473484295443349, 43.82169436634944], [4.473505784068971, 43.821687594438664], [4.473528058010321, 43.82168231782278], [4.473550919285404, 43.82167858340296], [4.473570162216079, 43.82167679612235], [4.473555947860899, 43.821674805129575], [4.473532715659258, 43.821669810698936], [4.473510265585761, 43.82166320204507], [4.473488811025555, 43.82165504198254], [4.4734685559013005, 43.821645408071774], [4.473449692734886, 43.821634391882014], [4.473432400817505, 43.821622098120784], [4.473416844505519, 43.821608643638726], [4.473403171658274, 43.82159415631883], [4.473391512232743, 43.821578773861084], [4.47338197704834, 43.821562642473424], [4.47337465673365, 43.82154591548214], [4.473369620865072, 43.82152875187451], [4.473064623490382, 43.82016516630135], [4.473063446999359, 43.82016113380545], [4.473057757106249, 43.82016101440301], [4.472211171081232, 43.82017244747815], [4.472186807096896, 43.82017191093449], [4.4721626328338635, 43.8201696491866], [4.472138880751692, 43.82016568398345], [4.472115779250139, 43.820160053454394], [4.472093550472811, 43.82015281174257], [4.47207240817099, 43.820144028484236], [4.472052555648162, 43.82013378813907], [4.472034183805029, 43.82012218917803], [4.472017469303795, 43.820109343136494], [4.472002572869392, 43.82009537354154], [4.471989637743966, 43.82008041472432], [4.471978788309497, 43.820064610528135], [4.471970128891788, 43.82004811292529], [4.471963742757334, 43.82003108055575], [4.471804961400011, 43.81950722328095], [4.4718034238844675, 43.819503122524445], [4.4717975580206, 43.81950299332348], [4.471374833171505, 43.81950869818694], [4.471369023188122, 43.819508983509635], [4.471368845874058, 43.81951319797306], [4.4713943817553865, 43.8205053185981], [4.471393696722468, 43.82052243826597], [4.471390767316805, 43.820539433274924], [4.471385620063663, 43.820556149726585], [4.471378301572148, 43.82057243624483], [4.471368878113197, 43.82058814534675], [4.471357435019527, 43.82060313477808], [4.471344075912953, 43.820617268801456], [4.471328921766072, 43.820630419425584], [4.471312109806838, 43.820642467564305], [4.471293792275892, 43.820653304115005], [4.471274135047958, 43.820662830946574], [4.471253316129745, 43.82067096178816], [4.4712315240479805, 43.820677623010326], [4.470185288375493, 43.82095574428986], [4.470161917706448, 43.82096102682858], [4.470137942665223, 43.82096461913655], [4.470113595832505, 43.82096648636491], [4.470089113395819, 43.820966610399786], [4.470064732858209, 43.8209649900379], [4.470040690734176, 43.820961640998306], [4.470017220255193, 43.82095659576994], [4.469994549107083, 43.82094990329629], [4.469972897221188, 43.820941628500755], [4.46995247464079, 43.820931851656674], [4.469933479483461, 43.82092066760872], [4.469916096019113, 43.820908184852584], [4.469900492882406, 43.820894524482654], [4.469886821436844, 43.82087981901719], [4.469875214306433, 43.820864211112664], [4.469865784089154, 43.82084785217997], [4.469858622264695, 43.8208309009155], [4.469853798307103, 43.82081352176166], [4.469851359010876, 43.82079588331156], [4.469851328037112, 43.820778156673654], [4.469853705684048, 43.8207605138116], [4.470012510484212, 43.81998145589828], [4.470013077044019, 43.81997725948121], [4.470007364731269, 43.81997643991777], [4.469645768250895, 43.819937798158776], [4.469639582691858, 43.81993737062953], [4.4696353865540015, 43.81994068882247], [4.469278935812408, 43.82025338441963], [4.469275075095298, 43.82025716134267], [4.469273696094827, 43.82026175287306], [4.468858274394284, 43.822110873626855], [4.468853161306532, 43.82212820036064], [4.468845719974505, 43.82214507913928], [4.468836022511554, 43.822161346387276], [4.468824162895866, 43.82217684445541], [4.468810256059744, 43.82219142314868], [4.468794436775837, 43.82220494118177], [4.468776858351065, 43.82221726754836], [4.468757691140909, 43.82222828279077], [4.468737120898467, 43.82223788015769], [4.468715346974266, 43.82224596663865], [4.468692580384293, 43.82225246386556], [4.468669041764949, 43.82225730887217], [4.468644959234769, 43.82226045470428], [4.468027022868941, 43.82231860644963], [4.468002083443666, 43.82232003421985], [4.467977072105984, 43.82231963983562], [4.467952242182112, 43.822317427291445], [4.467927845160777, 43.822313418996956], [4.467904128145947, 43.822307655550034], [4.46788133135399, 43.82230019532544], [4.467859685680601, 43.822291113883715], [4.467839410362146, 43.82228050320574], [4.467820710755095, 43.822268470761145], [4.46780377625609, 43.82225513841974], [4.467788778383633, 43.82224064121714], [4.467775869040911, 43.822225125987124], [4.4677651789772845, 43.82220874987434], [4.467756816464057, 43.8221916787426], [4.467750866197926, 43.82217408549507], [4.4677473884432155, 43.82215614832291], [4.467746418421589, 43.8221380489005], [4.467747965955401, 43.822119970545366], [4.467978540064026, 43.82063881730642], [4.467978898919369, 43.82063477757235], [4.467973407799043, 43.82063553911654], [4.466314374710966, 43.820925994773205], [4.466308823179141, 43.8209271747046], [4.466308651247701, 43.820931361984755], [4.4663318150699345, 43.82183440956094], [4.466331123496086, 43.82185157636677], [4.4663281751553265, 43.82186861729081], [4.466322996891868, 43.82188537716639], [4.4663156358546505, 43.82190170338581], [4.466306159068109, 43.821917447289906], [4.466294652821933, 43.82193246552166], [4.4662812218854, 43.82194662133164], [4.466265988553446, 43.82195978582312], [4.466249091533127, 43.82197183912579], [4.4662306846806334, 43.821982671487305], [4.466210935600344, 43.82199218427264], [4.466190024118694, 43.82200029086224], [4.466168140646724, 43.822006917440724], [4.466145484446261, 43.822012003669144], [4.466122261815464, 43.82201550323431], [4.4660986842103325, 43.82201738427054], [4.46514393677, 43.822060305707076], [4.4651187712647635, 43.822060512745736], [4.465093705821931, 43.822058876388], [4.465068997368708, 43.82205541340695], [4.465044899172963, 43.82205015929904], [4.465021658247102, 43.822043167920214], [4.464999512816061, 43.82203451093388], [4.464978689875401, 43.822024277076316], [4.4649594028645065, 43.82201257124703], [4.464941849478764, 43.82199951343355], [4.464926209643138, 43.821985237481506], [4.464912643667902, 43.82196988972254], [4.4649012906054715, 43.82195362747451], [4.464892266825122, 43.82193661742876], [4.464885664820254, 43.82191903394166], [4.464881552260387, 43.821901057247224], [4.464760497017488, 43.82113216617879], [4.464759918824246, 43.82112960263706], [4.464759641409275, 43.821132192358185], [4.464729075151055, 43.821894240624786], [4.46472717950402, 43.82191180295005], [4.464722921620735, 43.82192914697631], [4.464716342289599, 43.821946106547735], [4.464707504538633, 43.821962519191494], [4.464696493031739, 43.82197822767416], [4.464683413257694, 43.82199308150802], [4.464668390519605, 43.822006938392875], [4.46465156873455, 43.82201966557912], [4.464633109054881, 43.822031141139725], [4.464613188324372, 43.8220412551382], [4.464591997384062, 43.822049910681784], [4.464569739243969, 43.82205702484981], [4.464546627138209, 43.822062529488086], [4.4645228824821634, 43.82206637186171], [4.464498732751258, 43.82206851516048], [4.464474409301666, 43.822068938851466], [4.463458806216845, 43.82205061755749], [4.4634343504291225, 43.82204930016847], [4.463410192936379, 43.82204624449465], [4.463386568853401, 43.822041480275594], [4.463363708103372, 43.8220350538795], [4.463341833180083, 43.822027027851796], [4.4633211569824365, 43.82201748030642], [4.463301880742369, 43.82200650416561], [4.463284192066316, 43.821994206255376], [4.463268263109317, 43.82198070626591], [4.463254248899512, 43.82196613558664], [4.463242285829349, 43.82195063602744], [4.4632324903281715, 43.82193435843835], [4.462978522555659, 43.82144813074009], [4.4629707235923615, 43.82143051045418], [4.4629654644660315, 43.82141240353464], [4.462962800758751, 43.82139400135632], [4.462869665157489, 43.820122753595264], [4.462869009698537, 43.82011821028012], [4.462867094573387, 43.82011385779097], [4.4621781776209035, 43.818786632454554], [4.462170406256309, 43.81876893769816], [4.462165194106553, 43.81875075736194], [4.4621625966447445, 43.81873228494851], [4.4621626415144355, 43.818713717069066], [4.462165328235488, 43.818695251350604], [4.4621706282093045, 43.818677084332656], [4.462264818444926, 43.818420488319184], [4.462265965324518, 43.81841659222992], [4.462261161490847, 43.818418534001644], [4.461964635624411, 43.818552825219314], [4.461959530074588, 43.81855541145055], [4.461959324464952, 43.818559920606795], [4.4619671290109775, 43.81886510357223], [4.461967651981975, 43.81887013868286], [4.46196972120399, 43.8188749606095], [4.462722100068126, 43.82033190984472], [4.46272927175034, 43.82034808682153], [4.462734304710128, 43.82036468135517], [4.462737154095518, 43.82038154556718], [4.462737794512889, 43.82039852917581], [4.462736220253329, 43.82041548083513], [4.462732445343581, 43.820432249483844], [4.462726503421113, 43.820448685691304], [4.462489314957508, 43.820997574099394], [4.462480897190177, 43.821014151497884], [4.462470275773581, 43.82103005167787], [4.462457552996398, 43.82104512151127], [4.462442851384918, 43.82105921586664], [4.4624263125230925, 43.82107219900681], [4.462408095689025, 43.821083945896206], [4.462388376321038, 43.82109434340504], [4.462367344328107, 43.821103291398856], [4.461479307403584, 43.82143979689517], [4.461473925048217, 43.82144209948021], [4.461472604331908, 43.82144652374383], [4.46139707213176, 43.8217825245444], [4.461392110876672, 43.82179942926399], [4.461384933112551, 43.821815911522954], [4.461375605019883, 43.821831819347075], [4.461364212606407, 43.82184700605852], [4.461350860914127, 43.82186133162845], [4.461335673050821, 43.82187466396797], [4.461318789054969, 43.8218868801462], [4.46130036460454, 43.82189786752379], [4.461280569581576, 43.82190752479139], [4.461259586505794, 43.82191576290403], [4.461237608851635, 43.82192250590197], [4.461214839264307, 43.8219276916112], [4.461191487691255, 43.82193127221674], [4.461167769446284, 43.821933214703485], [4.4611439032242055, 43.82193350116064], [4.460124299588201, 43.821910268670834], [4.460118324346488, 43.82191034576964], [4.46011463281963, 43.82191374850135], [4.4592739603368, 43.82277259597339], [4.459270454405732, 43.822776617753206], [4.459269572121786, 43.82278133048996], [4.459174269694784, 43.82362933413648], [4.459170754080511, 43.82364820071858], [4.459164505607819, 43.82366669289755], [4.459155594185883, 43.82368460377139], [4.459144119518859, 43.823701732941934], [4.459130209990432, 43.823717888757066], [4.458731252314296, 43.82413088293399], [4.458715031557166, 43.8241459110035], [4.4586967053262985, 43.82415961193855], [4.45867647942072, 43.82417183187994], [4.4586545809729365, 43.824182433599695], [4.458631255898254, 43.82419129804209], [4.458606766133173, 43.82419832566073], [4.457555595751888, 43.824454202376586], [4.4575330575536745, 43.82445884494402], [4.457510015707489, 43.824461930470875], [4.457486674947927, 43.82446343154119], [4.4574632426656144, 43.82446333481744], [4.456726061822614, 43.82443509926042], [4.456702375200946, 43.824433365417214], [4.456679026292117, 43.82442999905911], [4.456656229247465, 43.82442503106163], [4.456634193156606, 43.824418506990234], [4.456613120129659, 43.82441048668236], [4.456593203443499, 43.82440104369862], [4.45657462576904, 43.82439026464799], [4.4559396273716, 43.82398418344974], [4.455921658663534, 43.82397146545961], [4.455905555177555, 43.82395749907556], [4.455891481460764, 43.82394242700886], [4.455879581319345, 43.82392640326869], [4.455869976349173, 43.82390959158849], [4.455862764693388, 43.82389216375284], [4.4554169437916675, 43.82257611740986], [4.45541214275681, 43.822557957485536], [4.455409940393702, 43.822539536761006], [4.455148186515532, 43.81712019563123], [4.455147769192615, 43.81711633466834], [4.45514644557111, 43.81711259724103], [4.454409, 43.81534800405586], [4.454409, 43.82715576057363], [4.454413618409165, 43.82733731211011], [4.454413986528275, 43.827341304346646], [4.454418777665172, 43.82733930989505]], [[4.479714156109807, 43.82780178059176], [4.479693500011904, 43.82779270825634], [4.479674157883173, 43.827782227197915], [4.479656312400495, 43.82777043640538], [4.479640132105297, 43.827757447237374], [4.479625769811776, 43.82774338237064], [4.479613361163634, 43.827728374641175], [4.479603023353043, 43.827712565789874], [4.4795948540138495, 43.827696105123685], [4.479588930299523, 43.82767914810547], [4.479585308154559, 43.82766185488576], [4.4795625124736, 43.827500428293405], [4.479561224609277, 43.8274826808165], [4.479562360736261, 43.82746492790959], [4.479565909774589, 43.82744734267097], [4.4795718371174695, 43.82743009656398], [4.479580084968795, 43.827413357745144], [4.479590572906764, 43.827397289424496], [4.479603198668079, 43.82738204827437], [4.479617839145134, 43.827367782901725], [4.479634351586391, 43.82735463239923], [4.479652574988301, 43.82734272498902], [4.479672331665165, 43.827332176772586], [4.479693428981632, 43.82732309059875], [4.479715661230957, 43.8273155550608], [4.479738811640678, 43.827309643632795], [4.479762654486194, 43.82730541395316], [4.479786957291604, 43.827302907262684], [4.479811483096364, 43.827302148002424], [4.479835992765674, 43.82730314357543], [4.479860247322054, 43.82730588427451], [4.479884010275394, 43.82731034337698], [4.480071755705841, 43.8273528367972], [4.480095305273608, 43.82735912811752], [4.480117858468512, 43.827367106616066], [4.480139185359229, 43.82737669095177], [4.480159068516351, 43.82738778341184], [4.480177305229076, 43.82740027090804], [4.480193709571838, 43.82741402612961], [4.480208114299838, 43.82742890884114], [4.480220372554154, 43.827444767312265], [4.480230359358995, 43.827461439864514], [4.480237972895927, 43.82747875651971], [4.480243135541967, 43.827496540732746], [4.4802457946610525, 43.82751461119162], [4.480245923140762, 43.82753278366578], [4.480243519668822, 43.82755087288442], [4.4802110477715615, 43.82771029653156], [4.480206439460528, 43.827727241426906], [4.4801996089941705, 43.82774378854851], [4.480190619263189, 43.8277597855361], [4.48017955304024, 43.827775085094785], [4.480166512217866, 43.82778954635116], [4.480151616870336, 43.82780303615062], [4.480135004148083, 43.82781543028331], [4.48011682701489, 43.82782661462778], [4.480097252839452, 43.82783648620198], [4.480076461854304, 43.82784495411131], [4.48005464549627, 43.82785194038575], [4.480032004643751, 43.82785738069764], [4.480008747767055, 43.82786122495417], [4.47998508900882, 43.82786343775846], [4.479961246212198, 43.82786399873565], [4.479937438914963, 43.82786290272041], [4.479913886328011, 43.82786015980455], [4.479890805316873, 43.82785579524405], [4.479868408404821, 43.827849849226595], [4.479735931089873, 43.82780935852006], [4.479714156109807, 43.82780178059176]], [[4.476292722839713, 43.82700610415157], [4.476269665284068, 43.82701088293509], [4.476246078955519, 43.82701403091761], [4.476222183381065, 43.82701551879958], [4.47619820096606, 43.827015332732735], [4.476174354924134, 43.82701347444889], [4.4761508671996095, 43.82700996124379], [4.476127956401714, 43.827004825816196], [4.476105835769851, 43.82699811596355], [4.4760847111888555, 43.826989894137], [4.476064779272697, 43.82698023686018], [4.476046225534502, 43.82696923401706], [4.476029222659896, 43.82695698801514], [4.476013928899745, 43.826943612832395], [4.4760004865972745, 43.8269292329565], [4.475989020863246, 43.82691398222597], [4.475979638411545, 43.82689800258457], [4.475972426566012, 43.82688144276023], [4.475967452447737, 43.826864456880635], [4.475964762350412, 43.826847203038774], [4.4759643813095344, 43.82682984182152], [4.475966312869469, 43.82681253481496], [4.475970539050533, 43.826795443100465], [4.475977020516424, 43.82677872575548], [4.475985696940399, 43.82676253837295], [4.47599648756683, 43.82674703161314], [4.476009291962863, 43.82673234980154], [4.4760239909532435, 43.8267186295854], [4.476213916139735, 43.826557992743915], [4.476231056581293, 43.82654488710989], [4.476249923868751, 43.82653309019928], [4.476270328270193, 43.8265227206427], [4.4762920645967155, 43.82651388271712], [4.476314914265801, 43.82650666529727], [4.476338647499374, 43.82650114096201], [4.4763630256344085, 43.8264973652643], [4.476423995524611, 43.82649021498197], [4.4764488786866385, 43.82648822129337], [4.47647391264377, 43.826488049558925], [4.476498843521289, 43.82648970152027], [4.476523418489802, 43.8264931604245], [4.476547388329167, 43.82649839119414], [4.476570509955817, 43.826505340782816], [4.476592548887871, 43.82651393871326], [4.476613281623013, 43.826524097791896], [4.476632497905053, 43.82653571499324], [4.4766500028561556, 43.82654867250456], [4.476665618953144, 43.82656283892055], [4.476679187827822, 43.82657807057615], [4.476690571873047, 43.82659421300319], [4.476699655638299, 43.82661110249709], [4.476706347000543, 43.82662856777684], [4.47671057809856, 43.8266464317221], [4.476712306021227, 43.8266645131694], [4.476713805119131, 43.82672253928551], [4.476714646382331, 43.826731514959505], [4.476716117094737, 43.82674070461494], [4.476716477136438, 43.826758873707405], [4.476714304792556, 43.826776976482506], [4.47670962220381, 43.82679482841529], [4.476702477098429, 43.82681224753748], [4.47669294230573, 43.82682905629235], [4.476681115013847, 43.82684508334463], [4.476667115779143, 43.82686016532698], [4.476651087297407, 43.826874148505226], [4.476633192949373, 43.82688689034542], [4.476613615135365, 43.826898260966836], [4.476592553416061, 43.82690814446581], [4.476570222478307, 43.82691644009725], [4.476315037017084, 43.826999739045014], [4.476292722839713, 43.82700610415157]], [[4.469984718997784, 43.82951904363194], [4.46996069494088, 43.82951841396894], [4.469936867203358, 43.82951610750156], [4.4699134585765705, 43.82951214579544], [4.469890687933056, 43.829506565892956], [4.469868768179981, 43.82949941996661], [4.469847904268417, 43.829490774831385], [4.469828291276988, 43.82948071132003], [4.469810112587839, 43.82946932352707], [4.469793538172002, 43.82945671792914], [4.469778723000142, 43.82944301238938], [4.469765805593591, 43.82942833505534], [4.469754906729194, 43.82941282316079], [4.469746128310078, 43.82939662174256], [4.4697395524129, 43.82937988228444], [4.469735240520497, 43.829362761300764], [4.469733232947076, 43.829345418873], [4.469733548461366, 43.82932801715292], [4.469736184111193, 43.82931071884663], [4.469741115251173, 43.82929368569304], [4.469748295773216, 43.82927707695184], [4.469757658537708, 43.82926104791431], [4.469769116001342, 43.8292457484513], [4.469782561035691, 43.82923132161216], [4.469797867928906, 43.82921790228708], [4.469814893561153, 43.82920561594594], [4.469833478742791, 43.82919457746524], [4.46985344970281, 43.829184890053966], [4.469874619713555, 43.829176644288694], [4.469999299295492, 43.829133571919265], [4.470020044189214, 43.82912722359024], [4.470041497551065, 43.82912226041928], [4.470063483317816, 43.82911872313801], [4.470085821057013, 43.829116640776114], [4.470108327447734, 43.82911603042305], [4.4701308177850025, 43.82911689708789], [4.471114525443819, 43.829187259772176], [4.471120489706044, 43.82918747383064], [4.471125294931815, 43.82918490720196], [4.471236524342835, 43.82911917617405], [4.471256666976072, 43.829108448133354], [4.471278196385622, 43.829099239231624], [4.4713008947534005, 43.82909164263718], [4.471324532435025, 43.82908573520628], [4.4713488702831485, 43.829081576705526], [4.471373662066881, 43.82907920920732], [4.471398656962915, 43.82907865666405], [4.471423602093067, 43.829079924665905], [4.471448245082635, 43.829083000384294], [4.471472336613643, 43.829087852701555], [4.47149563294718, 43.829094432525906], [4.471517898389284, 43.82910267328792], [4.471538907675465, 43.82911249161418], [4.471558448249708, 43.82912378817069], [4.471576322414932, 43.82913644866777], [4.471592349333112, 43.82915034501646], [4.471606366854882, 43.82916533662423], [4.471617652572052, 43.829180492149455], [4.4716178601684655, 43.82918074203619], [4.471623526981768, 43.8291797545515], [4.4729002838664, 43.828909061950036], [4.472923987905845, 43.82890493783725], [4.472948135930606, 43.828902514278425], [4.472972495737683, 43.828901814578025], [4.472996833087677, 43.82890284546426], [4.473020913957118, 43.8289055970243], [4.473044506788744, 43.82891004279968], [4.473067384718041, 43.82891614004063], [4.473089327754686, 43.82892383011719], [4.473110124897881, 43.82893303908298], [4.473129576165269, 43.82894367838618], [4.473147494515906, 43.828955645721045], [4.473163707648804, 43.82896882601166], [4.473178059659758, 43.82898309251841], [4.473190412540509, 43.82899830805668], [4.473200647505856, 43.829014326316056], [4.473208666135913, 43.829030993267054], [4.473214391322561, 43.8290481486424], [4.473217768010987, 43.829065627478], [4.4732187637291565, 43.82908326169923], [4.47321736890014, 43.82910088173719], [4.473213596934289, 43.82911831815913], [4.4732074841003735, 43.82913540329785], [4.473199089176899, 43.82915197286384], [4.473188492886971, 43.82916786752519], [4.473175797122141, 43.82918293443973], [4.473161123962675, 43.82919702872465], [4.473144614503678, 43.82921001484988], [4.47312642749836, 43.82922176794122], [4.472687117546255, 43.82947878866861], [4.472682590054675, 43.82948172196539], [4.472683592348166, 43.82948606021911], [4.472796052555842, 43.82985701189231], [4.472800107137918, 43.82987442867618], [4.472801784035189, 43.82989204929664], [4.4728010670960305, 43.829909704057634], [4.47279796322275, 43.829927222934046], [4.472792502305209, 43.82994443720937], [4.472784736933038, 43.82996118110033], [4.472774741889255, 43.829977293353615], [4.472762613430131, 43.829992618798805], [4.472699582529562, 43.83006390934347], [4.4726853038088, 43.83007842298454], [4.472669112649519, 43.8300918433921], [4.472651167747331, 43.830104039026594], [4.472631644987423, 43.83011489035301], [4.472610735720629, 43.830124291012346], [4.472588644887895, 43.83013214886435], [4.472565589011555, 43.8301383868904], [4.472541794073026, 43.83014294394862], [4.472517493297829, 43.830145775373055], [4.4724929248695755, 43.83014685341151], [4.472468329595341, 43.83014616749768], [4.472443948545344, 43.830143724354464], [4.472420020690025, 43.83013954792834], [4.472396780557726, 43.83013367915447], [4.472374455935895, 43.83012617555556], [4.471325839419269, 43.829726902915645], [4.471320808128178, 43.82972519103441], [4.471315456712128, 43.829724162123256], [4.470015741561129, 43.82951857492575], [4.470010110835573, 43.82951788009176], [4.470008714747052, 43.829517990603144], [4.469984718997784, 43.82951904363194]]], [[[4.454480866991789, 43.8128992516332], [4.454480966582911, 43.81289511647879], [4.4544760916019355, 43.81289296178121], [4.454409, 43.81286637445135], [4.454409, 43.813702185415366], [4.454480866991789, 43.8128992516332]]]]}, "properties": {"scenario": "t20", "wse_m": 53.94, "source": "ppri+lidar"}}, {"type": "Feature", "geometry": {"type": "Polygon", "coordinates": [[[4.4756238375658945, 43.827735789863404], [4.475811590555999, 43.82799539381312], [4.4758144561927615, 43.827998933182656], [4.475819456273209, 43.82799700239486], [4.476669565016891, 43.82762989264908], [4.47667478729904, 43.82762736689069], [4.476678191445439, 43.827623545940256], [4.476852599926932, 43.82740389615496], [4.476855043588756, 43.827400437080364], [4.476849926940183, 43.82740160904827], [4.475626778249706, 43.82773024432497], [4.475621372639485, 43.827731923382544], [4.4756238375658945, 43.827735789863404]]]}, "properties": {"scenario": "t20", "wse_m": 53.94, "source": "ppri+lidar"}}, {"type": "Feature", "geometry": {"type": "Polygon", "coordinates": [[[4.460034273689417, 43.84045663406791], [4.460032117559645, 43.84045255566935], [4.460026588353449, 43.84045080852913], [4.459412062213639, 43.84028235986365], [4.459406303219144, 43.84028101659443], [4.459402063438286, 43.840284141078754], [4.458901675391942, 43.840692], [4.46014054677374, 43.840692], [4.460034273689417, 43.84045663406791]]]}, "properties": {"scenario": "t20", "wse_m": 53.94, "source": "ppri+lidar"}}, {"type": "Feature", "geometry": {"type": "Polygon", "coordinates": [[[4.472786001873652, 43.8405075541163], [4.472779785765283, 43.84050628725685], [4.4727733331444615, 43.84050647489225], [4.471110477186009, 43.84061822123609], [4.471104129307668, 43.840618892768475], [4.471099549900227, 43.84062214465962], [4.471011001009953, 43.840692], [4.4735375864085185, 43.840692], [4.472786001873652, 43.8405075541163]]]}, "properties": {"scenario": "t20", "wse_m": 53.94, "source": "ppri+lidar"}}, {"type": "Feature", "geometry": {"type": "Polygon", "coordinates": [[[4.475726496068924, 43.81486397026031], [4.476887192155296, 43.81668507761156], [4.476889799649793, 43.816688701786404], [4.476894647331165, 43.81668660937208], [4.477352274278988, 43.81646692651759], [4.477373602618215, 43.81645776270446], [4.4773960859544095, 43.816450183520956], [4.477419500454236, 43.81644426442166], [4.4774436130144, 43.81644006433412], [4.477468183582263, 43.81643762507231], [4.477492967545613, 43.816436970920236], [4.4775177181678405, 43.81643810839036], [4.477542189044257, 43.816441026158564], [4.4775661365551, 43.81644569517706], [4.477589322290831, 43.81645206896342], [4.477611515425558, 43.81646008406348], [4.477632495014975, 43.81646966068288], [4.477652052195939, 43.81648070348153], [4.477669992265783, 43.81649310252271], [4.477686136620675, 43.81650673436757], [4.4777003245337195, 43.816521463303935], [4.477889810140249, 43.816740729808075], [4.4779012860715115, 43.81675551596051], [4.477910788778297, 43.81677101867877], [4.477918233864446, 43.816787100281616], [4.477923555207558, 43.81680361794654], [4.477926705546294, 43.816820424978246], [4.477927656900177, 43.81683737211132], [4.477926400818154, 43.81685430883601], [4.477922948453714, 43.816871084734856], [4.47791733046591, 43.81688755081854], [4.477541816304511, 43.81780092030939], [4.477540435843104, 43.81780501836218], [4.477546261339941, 43.81780504533477], [4.480017927889589, 43.817726746338806], [4.480023760587894, 43.81772635175132], [4.480023731176835, 43.817722110084205], [4.479929655525699, 43.816472126137405], [4.479929054492588, 43.81646791337964], [4.479918160083953, 43.81646457013396], [4.479896178082166, 43.81645688154829], [4.479875343728028, 43.816447668626665], [4.479855857997517, 43.816437020240684], [4.4798379088569495, 43.81642503910896], [4.479821669449762, 43.8164118408062], [4.479807296426311, 43.81639755264836], [4.4797949284327885, 43.816382312464434], [4.479784684773813, 43.81636626726698], [4.479776664261618, 43.81634957183379], [4.479770944262945, 43.81633238721499], [4.479767579952794, 43.81631487917938], [4.4797666037822665, 43.816297216615396], [4.4797680251656145, 43.816279569901965], [4.479771830389512, 43.816262109264954], [4.479777982745424, 43.816245003135066], [4.4797864228837865, 43.816228416523224], [4.479797069386589, 43.81621250942873], [4.47997554910196, 43.81597617038662], [4.479978312900457, 43.81597201141843], [4.4799785242991454, 43.81596739854034], [4.479962454583618, 43.81534663618407], [4.479962060780019, 43.81534241198298], [4.479958327390148, 43.815341469234774], [4.479935618006796, 43.81533480858772], [4.479913924622286, 43.81532656126221], [4.479893458042819, 43.81531680740215], [4.47987441715276, 43.81530564179115], [4.479856986981955, 43.815293172931604], [4.479841336907687, 43.8152795219902], [4.479827619008755, 43.81526482162042], [4.479815966587667, 43.815249214673585], [4.479806492875314, 43.81523285281045], [4.479799289930693, 43.81521589502764], [4.479794427746389, 43.81519850611247], [4.479791953568496, 43.815180855041625], [4.479791891437585, 43.815163113339096], [4.479794241955171, 43.81514545340949], [4.479798982277962, 43.815128046862526], [4.479806066339918, 43.815111062845595], [4.479815425299976, 43.81509466640001], [4.4798269682110865, 43.81507901685722], [4.479828018960221, 43.81507774714614], [4.479830350003994, 43.815074594989845], [4.479826119363532, 43.81507643902892], [4.479249830327666, 43.81535588691695], [4.479228938797906, 43.81536497594857], [4.479206918360521, 43.81537253968368], [4.479183980748164, 43.815378505394726], [4.479160346512626, 43.815382815719566], [4.4791362429041195, 43.81538542921308], [4.479111901686149, 43.81538632074577], [4.479087556906969, 43.81538548174522], [4.4790634426490765, 43.81538292027875], [4.479039790778371, 43.815378660975576], [4.479016828714642, 43.81537274479024], [4.478994777244794, 43.81536522860867], [4.478973848399869, 43.8153561847012], [4.478954243416274, 43.81534570002766], [4.478936150800804, 43.815333875401286], [4.478919744518083, 43.81532082451917], [4.478905182317855, 43.81530667286924], [4.478892604218185, 43.81529155652343], [4.478882131159186, 43.81527562082938], [4.4788738638401915, 43.81525901901289], [4.478841194565392, 43.81518173250776], [4.478839287534699, 43.81517790677829], [4.478834769904178, 43.81518162362397], [4.478817806248428, 43.81519427304587], [4.4787992146430575, 43.81520565980954], [4.478779173526685, 43.81521567462644], [4.478757875250434, 43.815224221375765], [4.478735524231766, 43.81523121802693], [4.478712334992481, 43.81523659742693], [4.4786885300997215, 43.81524030794503], [4.478664338029759, 43.81524231396808], [4.478639990975042, 43.815242596242534], [4.4786157226155865, 43.81524115205915], [4.478591765876082, 43.81523799527903], [4.478568350690243, 43.815233156200556], [4.478545701793879, 43.81522668126862], [4.478524036567853, 43.81521863262876], [4.47850356295165, 43.81520908753082], [4.478484477447568, 43.815198137587316], [4.4784669632346885, 43.815185887894266], [4.4784511884107605, 43.81517245602246], [4.47843730437881, 43.81515797088891], [4.478425444394038, 43.8151425715196], [4.478415722284886, 43.81512640571509], [4.4784082313605795, 43.81510962863195], [4.478336983665732, 43.81491854186436], [4.4783352714494296, 43.8149147040819], [4.478334803103581, 43.81491504654393], [4.47832017488801, 43.8149268420267], [4.478302311946522, 43.81493869017829], [4.47828294102876, 43.81494922290627], [4.4782622461360235, 43.81495834016147], [4.478240423846183, 43.81496595534004], [4.478217681446401, 43.81497199610625], [4.478194234964092, 43.81497640507945], [4.478170307114855, 43.814979140379265], [4.478146125186874, 43.81498017602332], [4.478121918881866, 43.81497950217416], [4.478097918133112, 43.81497712523261], [4.478074350921278, 43.81497306777696], [4.478051441108794, 43.814967368348654], [4.4780294063133494, 43.814960081085935], [4.478008455840728, 43.81495127520974], [4.477988788696585, 43.81494103436619], [4.4779705916961, 43.81492945583182], [4.477954037689426, 43.81491664958982], [4.477939283919804, 43.814902737285024], [4.477926470529952, 43.814887851068576], [4.477915719230884, 43.81487213234259], [4.477907132145851, 43.81485573041691], [4.477900790840337, 43.81483880109087], [4.4777636032915105, 43.814386310328665], [4.47776209526546, 43.81438228093968], [4.477756394763442, 43.8143829049241], [4.47728479740254, 43.814451618862066], [4.477260370073027, 43.814454271416544], [4.477235699775966, 43.81445515519643], [4.477211030162069, 43.81445426147326], [4.477186604875297, 43.81445159907373], [4.477162665146507, 43.81444719429241], [4.47713944741091, 43.81444109063216], [4.4771171809729315, 43.814433348374415], [4.477096085741474, 43.81442404398383], [4.4770763700580085, 43.814413269353025], [4.477058228638909, 43.81440113089509], [4.477041840652375, 43.81438774849258], [4.477027367948929, 43.814373254313395], [4.477014953462952, 43.81435779150556], [4.477004719801077, 43.81434151278338], [4.476887846194225, 43.814128062239334], [4.476885421896138, 43.814124205273835], [4.476878725290132, 43.81412651895854], [4.476871237767781, 43.814129450597775], [4.476848880596433, 43.814136258327935], [4.476825713562375, 43.81414145575471], [4.476801957264807, 43.81414499338754], [4.476777837914113, 43.81414683754065], [4.476753585177821, 43.814146970653766], [4.476729429993605, 43.81414539145937], [4.476705602370205, 43.81414211499473], [4.4766823291972075, 43.81413717245881], [4.476659832084498, 43.81413061091503], [4.476638325252032, 43.81412249284329], [4.476618013489952, 43.81411289554476], [4.476599090208523, 43.81410191040614], [4.476581735596443, 43.81408964202909], [4.4765736837118695, 43.814083365847054], [4.476567996931873, 43.81408441004249], [4.476147237534612, 43.81417765721372], [4.476141562562324, 43.8141791460633], [4.476142119776133, 43.81418349816258], [4.47617862477944, 43.814367025234176], [4.476180884039381, 43.814384151155004], [4.476180874820236, 43.8144013550363], [4.4761785972042, 43.81441847968265], [4.47617407200032, 43.81443536862249], [4.476167340554421, 43.814451867537784], [4.476158464371402, 43.81446782567414], [4.476147524553306, 43.814483097218236], [4.476134621058332, 43.8144975426302], [4.476119871787543, 43.814511029918634], [4.476103411507598, 43.814523435846624], [4.476085390619393, 43.81453464705792], [4.476065973783807, 43.814544561112584], [4.476045338417161, 43.814553087423135], [4.476023673070096, 43.81456014808227], [4.476001175704714, 43.81456567857471], [4.475978051885703, 43.81456962836672], [4.4758470660775185, 43.81458726453043], [4.475841272474399, 43.814588260578454], [4.47583921761801, 43.814592307571516], [4.475725708650899, 43.81485516420149], [4.475724119736878, 43.81485966018666], [4.475726496068924, 43.81486397026031]]]}, "properties": {"scenario": "t20", "wse_m": 53.94, "source": "ppri+lidar"}}, {"type": "Feature", "geometry": {"type": "Polygon", "coordinates": [[[4.475559095625166, 43.82030932104056], [4.476280274236445, 43.82057802125296], [4.476300914472644, 43.82058664131793], [4.476320319974517, 43.820596652660754], [4.47633831243305, 43.820607963291806], [4.476354726522757, 43.82062046928279], [4.476369411420783, 43.82063405572176], [4.4763822321927575, 43.82064859776892], [4.4763930710326765, 43.8206639618037], [4.476401828345407, 43.820680006652495], [4.476718045275869, 43.821351933542886], [4.476724941477116, 43.82136944226125], [4.476729359243553, 43.82138736584828], [4.476731253363928, 43.82140552088422], [4.476730604452467, 43.821423721580565], [4.476727419147354, 43.82144178168139], [4.476721730042904, 43.821459516369366], [4.4767135953561, 43.82147674415711], [4.476703098330923, 43.82149328874435], [4.47669034638656, 43.82150898082227], [4.476675470018195, 43.82152365980597], [4.476658621461644, 43.82153717547801], [4.47663997313549, 43.82154938952554], [4.47661971587665, 43.82156017695583], [4.476598056987449, 43.82156942737543], [4.476401676472148, 43.82164387523178], [4.476396760972732, 43.82164597057105], [4.476401406553642, 43.82164836709099], [4.4767685090663845, 43.82181847058909], [4.476773704772727, 43.82182062553696], [4.476779609273678, 43.82181990485046], [4.479631653931759, 43.82136655231188], [4.479655339683656, 43.821363647449616], [4.479679302106045, 43.82136241155486], [4.479703317398856, 43.82136285617044], [4.479727161268254, 43.82136497714378], [4.479750611021378, 43.8213687546658], [4.479773447646169, 43.8213741534559], [4.479795457856805, 43.821381123091335], [4.479816436085661, 43.82138959847833], [4.479836186403204, 43.821399500459854], [4.4798545243478705, 43.82141073655498], [4.479871278648868, 43.82142320182261], [4.4798862928257694, 43.82143677984148], [4.479899426650008, 43.821451343797555], [4.479910557454581, 43.8214667576684], [4.479919581279764, 43.82148287749354], [4.479926413844099, 43.82149955271895], [4.480473083188261, 43.82311651479401], [4.4804747562132246, 43.823120596051766], [4.480480148433617, 43.82312229382217], [4.4806396117334835, 43.8231659824076], [4.4806611427496295, 43.823172738700976], [4.4806816979118915, 43.823180934804945], [4.480701094050711, 43.823190497683214], [4.480719158324449, 43.82320134212], [4.4807357297595924, 43.82321337147939], [4.480750660685205, 43.82322647856639], [4.480763818048843, 43.82324054658221], [4.48077508460223, 43.82325545016502], [4.480784359946092, 43.82327105650701], [4.480791561424878, 43.82328722653788], [4.480796624863369, 43.82330381616415], [4.4807995051386005, 43.82332067755308], [4.480952135223841, 43.82477505114994], [4.480952837417947, 43.824779135234195], [4.480958499399454, 43.82477876844867], [4.4832792079000106, 43.82454668825589], [4.483303805616161, 43.8245451244012], [4.483328496278037, 43.82454533498256], [4.483353036284155, 43.82454731792233], [4.483377183519386, 43.824551053656585], [4.48340069974362, 43.82455650532803], [4.483423352942223, 43.82456361914974], [4.483444919615071, 43.82457232493572], [4.483465186981595, 43.82458253679343], [4.483483955080071, 43.82459415397107], [4.483501038740463, 43.82460706185179], [4.483516269411333, 43.8246211330843], [4.48352949682282, 43.824636228839374], [4.48354059046925, 43.824652200179614], [4.48354944089678, 43.8246688895288], [4.483555960783348, 43.824686132226475], [4.483560085800277, 43.82470375815269], [4.48356177524703, 43.82472159340624], [4.4835637329226055, 43.824797022366454], [4.483563065687705, 43.824814007152746], [4.483560189067002, 43.82483087069058], [4.483555128698044, 43.82484746267427], [4.4835479296823495, 43.82486363521838], [4.4835386561834865, 43.82487924417583], [4.483527390855228, 43.82489415042275], [4.48351423410491, 43.8249082210984], [4.48349930319853, 43.824921330789536], [4.483482731215581, 43.82493336264813], [4.483464665862913, 43.82494420943292], [4.483445268158222, 43.82495377446532], [4.483424710994877, 43.82496197249104], [4.483403177600885, 43.82496873044006], [4.48270807769682, 43.82515919113375], [4.482703065222759, 43.82516075133401], [4.482699119211203, 43.825163468199264], [4.482524202570084, 43.82529495252945], [4.4825209586373695, 43.82529764032903], [4.48252562420512, 43.82529648687836], [4.486463149427194, 43.82416588837143], [4.486467005504315, 43.82416462086261], [4.486462792965362, 43.824164935458576], [4.485700575170955, 43.82424911300126], [4.485676620902245, 43.824250904103685], [4.485652539657797, 43.824251008718946], [4.4856285574262005, 43.824249425865275], [4.4856048992668445, 43.82424617039684], [4.4855817871978, 43.82424127286436], [4.48555943811226, 43.82423477922832], [4.485538061743067, 43.824226750427734], [4.485517858694454, 43.82421726180822], [4.485499018559469, 43.82420640241489], [4.485481718140729, 43.824194274156696], [4.485466119791226, 43.82418099085008], [4.485452369890761, 43.82416667715085], [4.485350056897152, 43.824048324206366], [4.485346843564845, 43.82404498582009], [4.485344200999096, 43.82404886472643], [4.485332729422967, 43.8240638582873], [4.485319339858552, 43.82407799378885], [4.485304153743022, 43.82409114302707], [4.485287308807901, 43.824103186743024], [4.485268957829923, 43.82411401570433], [4.485249267245394, 43.82412353169599], [4.485228415640674, 43.824131648411125], [4.485206592132446, 43.8241382922338], [4.485183994652455, 43.82414340290671], [4.485160828152308, 43.824146934077696], [4.485137302744578, 43.82414885372019], [4.485113631797106, 43.82414914442362], [4.485090029997767, 43.82414780355141], [4.4850667114072715, 43.82414484326483], [4.485043887517638, 43.82414029041277], [4.485038449437178, 43.82413900101194], [4.48503253126318, 43.82414027971021], [4.48426806814117, 43.82433640659475], [4.484244789524995, 43.824341466104386], [4.48422093973259, 43.82434485560271], [4.484196746749023, 43.82434654268879], [4.484172441840092, 43.8243465112354], [4.484148257341544, 43.82434476154322], [4.484124424438062, 43.824341310337935], [4.484101170953266, 43.824336190610346], [4.484078719171842, 43.824329451301], [4.484057283714626, 43.82432115683234], [4.484037069486956, 43.8243113864929], [4.484018269719914, 43.82430023367927], [4.484001064123177, 43.82428780500336], [4.4837240473670095, 43.82406710356728], [4.483709390928655, 43.82405428244379], [4.483696432937098, 43.82404053595669], [4.483685284192152, 43.82402598164933], [4.483676040022922, 43.82401074397249], [4.483668779472695, 43.823994953220144], [4.483663564623113, 43.82397874441547], [4.483660440063367, 43.82396225615612], [4.48353500247374, 43.82295697493853], [4.483533999502693, 43.822939611912304], [4.483535314094372, 43.82292225979151], [4.483538933990466, 43.82290508035351], [4.483544825439898, 43.822888233765696], [4.483552933513574, 43.822871877092034], [4.483563182616562, 43.822856162828764], [4.483575477192942, 43.82284123748275], [4.48358970261675, 43.822827240205484], [4.483605726260685, 43.82281430149581], [4.4836233987326555, 43.82280254198333], [4.483642555268598, 43.822792071303695], [4.483663017268606, 43.82278298707654], [4.483684593962022, 43.82277537399536], [4.4837070841860145, 43.82276930303792], [4.483730278261, 43.82276483080452], [4.483753959945474, 43.82276199899036], [4.483777908452018, 43.822760833996824], [4.483877691214389, 43.82275947625312], [4.483883501465607, 43.82275919026343], [4.483883677867181, 43.82275497577117], [4.483865228451111, 43.8220442434726], [4.483864782226091, 43.82203965817597], [4.4838624293966545, 43.82203538882167], [4.483510193292798, 43.821481067698485], [4.483500844006211, 43.821464146682345], [4.483493906136625, 43.82144662784488], [4.483489450820924, 43.82142869081975], [4.483487523740377, 43.8214105195284], [4.483488144652319, 43.821392300294264], [4.4834913071876725, 43.821374219932096], [4.483496978916351, 43.82135646383258], [4.483505101679884, 43.8213392140613], [4.483515592187841, 43.82132264749197], [4.483528342871959, 43.821306933992744], [4.483543222989165, 43.82129223468465], [4.483560079962243, 43.82127870028928], [4.483578740944335, 43.821266469583605], [4.483599014591282, 43.821255667976864], [4.483620693023596, 43.821246406224816], [4.484513972613801, 43.82090768191278], [4.484518680832501, 43.820905677523804], [4.4845135540115075, 43.820904313953264], [4.483724390975529, 43.82072571175157], [4.483701410380057, 43.82071959602482], [4.4836793722178285, 43.82071187307916], [4.483658490293666, 43.820702617839494], [4.483638967194772, 43.820691920096344], [4.4836209923252826, 43.820679883634796], [4.483604740068737, 43.820666625227524], [4.483590368096292, 43.82065227350192], [4.4835780158370815, 43.82063696769216], [4.483567803125568, 43.82062085628845], [4.48355982903901, 43.82060409559637], [4.483554170936328, 43.820586848220444], [4.483464500779873, 43.820237861039985], [4.483461244602287, 43.82022055430819], [4.483460320742073, 43.8202031005433], [4.483461737898304, 43.820185664130356], [4.4834654827216385, 43.82016840929082], [4.483471519940135, 43.82015149853588], [4.4834797926915275, 43.820135091135874], [4.483490223058839, 43.820119341620305], [4.483502712804291, 43.820104398322336], [4.483517144294593, 43.82009040198192], [4.483803953940878, 43.81983870610714], [4.483807455386217, 43.819835301651594], [4.483802680512739, 43.81983283891409], [4.483615263203541, 43.819746010169354], [4.483595726707724, 43.819735966408615], [4.483577616536272, 43.819724607379456], [4.483561100958883, 43.81971203862433], [4.483546333428788, 43.81969837692575], [4.4835334511569584, 43.81968374922112], [4.483522573837244, 43.81966829142352], [4.483513802534271, 43.819652147158635], [4.483507218744457, 43.81963546643027], [4.4835028836388515, 43.81961840422668], [4.483500837494827, 43.81960111908044], [4.483501099321927, 43.8195837715954], [4.483503666685308, 43.81956652295448], [4.483508515728448, 43.81954953342208], [4.4835156013948785, 43.81953296085492], [4.483524857846898, 43.81951695923542], [4.483547387309045, 43.81948274162674], [4.4835494603055555, 43.819479147553835], [4.483544501060308, 43.81948065639675], [4.4809192630115495, 43.8203919103495], [4.480896800612653, 43.8203987479904], [4.480873521515508, 43.82040396040876], [4.480849649415058, 43.82040749751702], [4.4808254137047285, 43.8204093253261], [4.480801047272073, 43.820409426272136], [4.480776784260822, 43.820407799385045], [4.480752857820878, 43.82040446029809], [4.480729497867848, 43.82039944109747], [4.480706928873657, 43.820392790014026], [4.4806853677094995, 43.820384570959845], [4.480665021561812, 43.82037486291398], [4.480646085941339, 43.82036375916363], [4.4806287428043925, 43.82035136640757], [4.480613158804397, 43.82033780373087], [4.480599483690474, 43.820323201460624], [4.4802706034442155, 43.819932025828834], [4.480267400394883, 43.81992859436971], [4.4802617569403305, 43.819929270281385], [4.477756416928256, 43.82031862318679], [4.477729264894543, 43.82032171716188], [4.477701807066593, 43.82032262169454], [4.475559778093799, 43.820307324017534], [4.475554681280314, 43.82030747053663], [4.475559095625166, 43.82030932104056]]]}, "properties": {"scenario": "t20", "wse_m": 53.94, "source": "ppri+lidar"}}, {"type": "Feature", "geometry": {"type": "Polygon", "coordinates": [[[4.484159180307895, 43.826044349582695], [4.48442298735615, 43.82628927260644], [4.484437137083719, 43.826303842502234], [4.484449228416884, 43.82631935355916], [4.484459142943668, 43.82633565387768], [4.484466783569274, 43.82635258382889], [4.484472075466985, 43.82636997761776], [4.484474966811022, 43.8263876649067], [4.4844754292841635, 43.826405472483756], [4.484473458355132, 43.8264232259588], [4.4844690733230586, 43.826440751471345], [4.48446231712858, 43.82645787739319], [4.4844532559333965, 43.826474436009235], [4.484441978472426, 43.8264902651598], [4.484428595184886, 43.82650520982887], [4.484359433317629, 43.826574653527416], [4.484356317730739, 43.82657812595782], [4.484361354795101, 43.82658008737894], [4.484726628117044, 43.82670615309877], [4.484731858350128, 43.82670773109526], [4.484731101564351, 43.826703665675275], [4.484525908060435, 43.82590521561092], [4.484524581804603, 43.8259011720509], [4.484519371702396, 43.82590291685607], [4.4841608183115005, 43.82603886728796], [4.484155886680656, 43.82604096438365], [4.484159180307895, 43.826044349582695]]]}, "properties": {"scenario": "t20", "wse_m": 53.94, "source": "ppri+lidar"}}]}