{"type":"FeatureCollection","features":[{"type":"Feature","geometry":{"type":"Polygon","coordinates":[[[4.475725245995622,43.81490464228867],[4.475727581362942,43.814908739233424],[4.476887007368182,43.816684886968915],[4.476889809065466,43.816688672206176],[4.476894911335228,43.81668648263852],[4.477352274278988,43.81646692651759],[4.477373602618215,43.81645776270446],[4.4773960859544095,43.816450183520956],[4.477419500454236,43.81644426442166],[4.4774436130144,43.81644006433412],[4.477468183582263,43.81643762507231],[4.477492967545613,43.816436970920236],[4.4775177181678405,43.81643810839036],[4.477542189044257,43.816441026158564],[4.4775661365551,43.81644569517706],[4.477589322290831,43.81645206896342],[4.477611515425558,43.81646008406348],[4.477632495014975,43.81646966068288],[4.477652052195939,43.81648070348153],[4.477669992265783,43.81649310252271],[4.477686136620675,43.81650673436757],[4.4777003245337195,43.816521463303935],[4.477889810140249,43.816740729808075],[4.4779012860715115,43.81675551596051],[4.477910788778297,43.81677101867877],[4.477918233864446,43.816787100281616],[4.477923555207558,43.81680361794654],[4.477926705546294,43.816820424978246],[4.477927656900177,43.81683737211132],[4.477926400818154,43.81685430883601],[4.477922948453714,43.816871084734856],[4.47791733046591,43.81688755081854],[4.477541747458124,43.81780108776289],[4.4775404086950585,43.817805028797004],[4.4775460128415245,43.81780495520312],[4.480141080020953,43.81768017087453],[4.48014685744993,43.81767968618683],[4.480146769349433,43.81767547537371],[4.479973504956246,43.8157229671215],[4.47997331941178,43.815702212169526],[4.479976435064219,43.81568157976057],[4.480306118713063,43.814261949051975],[4.4803067696785535,43.814257927337685],[4.4803018872632965,43.8142599014045],[4.478858727436662,43.81491384708921],[4.478837440558856,43.8149224703189],[4.478815088921232,43.81492954117634],[4.478791887783785,43.81493499156474],[4.478768060587938,43.814938768993365],[4.478743836804616,43.81494083708315],[4.478719449724246,43.81494117591711],[4.47869513420995,43.81493978223202],[4.478671124435603,43.81493666944999],[4.478133847082643,43.81484711135617],[4.478110934823102,43.814842445293884],[4.478088743974611,43.814836213681936],[4.478067478028469,43.8148284736646],[4.478047331994341,43.814819296218396],[4.478028490611976,43.81480876550108],[4.478011126657118,43.814796978079904],[4.4779953993571295,43.814784042046135],[4.477981452930879,43.81477007602379],[4.477969415266269,43.81475520808187],[4.477665933416594,43.81433552001422],[4.477655294136411,43.81431877121965],[4.477647076833137,43.81430132217353],[4.477641367725096,43.81428335596112],[4.4776382267130215,43.81426506109385],[4.477637686751648,43.81424662953144],[4.477712121562664,43.812452171520306],[4.477711993940545,43.81244768243048],[4.477708877045984,43.81244380092559],[4.477395679837601,43.81209559167007],[4.477392379201146,43.81209228441121],[4.477388865512018,43.81209547449716],[4.476668993183513,43.8128183098426],[4.476665776855753,43.81282189029663],[4.476665211792245,43.812826141973964],[4.47662460558523,43.813439957717705],[4.476622059838916,43.81345843029666],[4.476616899831287,43.81347661471164],[4.4766091804596995,43.81349431748983],[4.476598983852034,43.813511350282575],[4.476586418492973,43.81352753186944],[4.4765716180698725,43.813542690086166],[4.476078149140853,43.81399648400594],[4.476074752802861,43.81399993661103],[4.47607563026269,43.81400412770294],[4.476168960742305,43.814340028105825],[4.47617251908206,43.814356971529946],[4.476173835703336,43.81437408321775],[4.476172898665533,43.814391208007386],[4.476169716463322,43.81440819061811],[4.476164317949691,43.8144248770582],[4.47615675207438,43.81444111602139],[4.476147087440107,43.81445676025885],[4.476135411680545,43.81447166791435],[4.476121830665754,43.814485703810576],[4.476106467542234,43.814498740674985],[4.476089461616299,43.81451066029375],[4.476070967090921,43.81452135458385],[4.476051151667469,43.81453072657294],[4.476030195025058,43.81453869127896],[4.476008287191248,43.81454517648052],[4.475846732148777,43.81458661646146],[4.475841282753518,43.81458823377129],[4.475839496555579,43.81459229746981],[4.475726519137269,43.814900306994865],[4.475725245995622,43.81490464228867]]]},"properties":{"scenario":"t100","wse_m":54.44,"source":"ppri+lidar"}},{"type":"Feature","geometry":{"type":"Polygon","coordinates":[[[4.454413986528275,43.827341304346646],[4.454418777665172,43.82733930989505],[4.455953787600402,43.82662687455224],[4.455976866261427,43.82661738151643],[4.456001211412023,43.82660972401147],[4.45602654551411,43.82660398933379],[4.456052579755749,43.82660024285935],[4.456079017343548,43.82659852729838],[4.459545347586297,43.82650813513379],[4.45955171575454,43.82650772646168],[4.459556534657711,43.82650468489047],[4.460405913916251,43.825909101271726],[4.460423709848274,43.825897761869626],[4.460442916778757,43.82588770125877],[4.460463360041885,43.82587901092895],[4.460484853729078,43.825871769908716],[4.46050720237959,43.825866044046805],[4.460530202757972,43.825861885413296],[4.460553645702223,43.825859331826216],[4.46114071642407,43.8258159819769],[4.4611640423055325,43.82581505827233],[4.4611873849603905,43.82581572380447],[4.461210538265882,43.82581797269645],[4.461233297771217,43.825821785089886],[4.461255462502878,43.825827127320174],[4.461276836739245,43.8258339522138],[4.4626272011697,43.82632121088582],[4.462645472833146,43.82632851240754],[4.462662834181929,43.82633689774088],[4.4626791628569995,43.826346307788064],[4.463914611518432,43.827121778263795],[4.463919007967399,43.82712429270312],[4.46392456277249,43.8271247785114],[4.4658750212934155,43.82723077532531],[4.4658986188607805,43.82723288296218],[4.465921830393192,43.82723661297475],[4.465944443576201,43.82724193124483],[4.467415790557603,43.82764522492679],[4.467438828870931,43.82765252409291],[4.467460730740157,43.82766147090295],[4.467481272055509,43.8276719738094],[4.467500242628649,43.82768392534202],[4.4675174483433935,43.82769720320764],[4.469428406053201,43.8293300625612],[4.469444947294682,43.82934588867751],[4.469458981065012,43.82936293700219],[4.471054727386751,43.83156963206363],[4.471057887254165,43.83157350799096],[4.471063545986971,43.83157537205235],[4.4718037424382,43.83178700647321],[4.471809218791196,43.83178836004784],[4.47181494711137,43.831787766170194],[4.473527088517724,43.83155018853858],[4.473552615244353,43.8315476306439],[4.47357837060016,43.831546999290296],[4.473604077881132,43.8315483012608],[4.473629460899738,43.831551522567594],[4.473654246952082,43.83155662860241],[4.473678169747626,43.83156356450832],[4.47560581612379,43.83220823687571],[4.475627633382019,43.832216505610155],[4.475648213606973,43.83222629621914],[4.475667354886086,43.83223751264729],[4.475684869423929,43.832250044850646],[4.475700585384644,43.83226376987601],[4.475714348577846,43.83227855306746],[4.476377927982357,43.83307361483607],[4.476380820514714,43.833076771427756],[4.476384392892338,43.83307952078789],[4.480597635137004,43.83606111033672],[4.480614042502818,43.8360739043415],[4.4806286603889935,43.836087788743484],[4.480641351276559,43.83610263292531],[4.482358322735519,43.83834728756331],[4.482361465793609,43.83835096332523],[4.482366297854648,43.83835350379217],[4.484998021171271,43.839600517873706],[4.485017101653152,43.83961052430233],[4.485034787948709,43.83962179300868],[4.485050921250369,43.83963422281016],[4.485065356694741,43.83964770209848],[4.48507796466337,43.83966210984191],[4.485088631946616,43.83967731667184],[4.485097262760213,43.839693186044606],[4.485103779605373,43.839709575467225],[4.485108123964705,43.83972633777713],[4.485110256827717,43.83974332246334],[4.4851101590411675,43.839760377018045],[4.485107831481103,43.83977734830589],[4.484977903745202,43.84041537544494],[4.484973442004471,43.840431890373054],[4.484966868773962,43.840448031506085],[4.484958241513377,43.84046365774246],[4.484947635638382,43.84047863248156],[4.484935143861394,43.84049282481796],[4.484920875381155,43.84050611068559],[4.4849049549281785,43.84051837394251],[4.484053751189055,43.84111546032296],[4.484049866689338,43.84111844861093],[4.48404822618427,43.84112237606686],[4.483908613425228,43.84152235881292],[4.483901473601418,43.841539268094586],[4.483892075894752,43.841555588717156],[4.4838805110015265,43.84157116316866],[4.483866890534036,43.841585841138375],[4.483851345943432,43.84159948096753],[4.483834027251117,43.84161195101648],[4.483815101600895,43.84162313093514],[4.483794751645855,43.84163291282461],[4.483773173785558,43.84164120227844],[4.483750576270538,43.84164791929398],[4.483511172096061,43.841709319057095],[4.4835056311322194,43.84171096582313],[4.483502791289793,43.841714783002935],[4.483208797382115,43.84216112750918],[4.483206579469747,43.84216494029554],[4.483206424467497,43.84216906688074],[4.483226051997272,43.842925262510825],[4.48322644709297,43.842929469282765],[4.483232270136409,43.84292959703689],[4.486763011254592,43.8428815327098],[4.486768987466238,43.842881238492346],[4.48677334925498,43.8428782670504],[4.487458102100823,43.84236363261473],[4.487475721462588,43.84235161965157],[4.487494871061199,43.84234090347232],[4.487515369448178,43.842331585615625],[4.487537022395213,43.84232375437068],[4.4875596247345,43.84231748394057],[4.488298508843287,43.8421418366488],[4.488303998852822,43.84214031242583],[4.4883041757351965,43.842136058484186],[4.48830139772579,43.84202939433818],[4.488302166183915,43.84201146360705],[4.488305397035061,43.84199367731424],[4.4883110581791215,43.841976212162834],[4.488319093371678,43.84195924166524],[4.488329422782852,43.84194293441947],[4.488341943790476,43.84192745243415],[4.488356531999686,43.84191294951897],[4.488373042478795,43.8418995697567],[4.488391311199201,43.841887446071766],[4.488411156664981,43.8418766989097],[4.488432381716014,43.84186743504061],[4.488454775486698,43.84185974649845],[4.4884781155008175,43.84185370966668],[4.488502169881741,43.84184938451947],[4.488526699656,43.84184681402591],[4.488551461127362,43.84184602372309],[4.488576208297816,43.841847021462456],[4.489286858012061,43.84190148763216],[4.4892927828553,43.841901729880796],[4.489294669737611,43.84189991823506],[4.489305025178188,43.84188891248785],[4.489321013150678,43.841875116862525],[4.489338825625106,43.84186254653257],[4.489358284315186,43.841851327314494],[4.489379194458,43.84184157150136],[4.489401346763385,43.841833376739054],[4.489424519508685,43.8418268250488],[4.4894484807579325,43.84182198200636],[4.489472990683255,43.84181889608565],[4.4894978039652385,43.84181759817356],[4.489522672248263,43.84181810126088],[4.489547346626224,43.841820400312194],[4.489571580133749,43.841824472316375],[4.489595130218012,43.84183027651682],[4.489617761166365,43.841837754819394],[4.4896392464655435,43.8418468323739],[4.489659371068784,43.84185741832321],[4.4896779335482,43.841869406712604],[4.489694748110853,43.841882677550295],[4.48970964645837,43.8418970980084],[4.489722479471444,43.84191252375234],[4.48973311870243,43.84192880038552],[4.490247529571205,43.84282980139029],[4.490250098905222,43.84283373337976],[4.490256105593191,43.84283386835006],[4.499567144485185,43.84270626955678],[4.499573085800155,43.84270597095816],[4.499573034386343,43.84270166060248],[4.499482102847202,43.84158687137426],[4.499481449076519,43.84158255533947],[4.499475522682556,43.84158188248025],[4.498113186897451,43.84147759321226],[4.498089918776211,43.841475000743046],[4.4980670936604366,43.84147082725176],[4.498044916137476,43.84146511014645],[4.498023584989976,43.84145790067106],[4.498003291414108,43.84144926344599],[4.497984217305794,43.841439275888845],[4.497966533630304,43.84142802752063],[4.4979503988898415,43.84141561916319],[4.497935957702859,43.84140216203565],[4.49792333950781,43.84138777675732],[4.497238922071457,43.840519186303794],[4.497227989262436,43.840503597431294],[4.497219197597849,43.840487314367834],[4.497212630025852,43.84047049074532],[4.4972083485099414,43.84045328529581],[4.497158699552897,43.84017759399777],[4.497156751955419,43.84016033275551],[4.497157105491859,43.84014301593735],[4.497159756886636,43.840125803884696],[4.497164681587692,43.840108855968744],[4.497171833993895,43.840092329114746],[4.497181147877349,43.840076376349195],[4.497192536996672,43.840061145382734],[4.497205895895597,43.84004677724267],[4.497221100879451,43.84003340496696],[4.497238011160513,43.84002115237263],[4.497626277864666,43.839765681278614],[4.497630588229138,43.83976254561265],[4.497631083412543,43.839758136805145],[4.497669258547973,43.83886684081311],[4.497669113096513,43.838862111076104],[4.497666280551992,43.83885784751366],[4.4969904507386484,43.837965537244955],[4.496979948110815,43.83794992818487],[4.49697157215909,43.8379336592625],[4.496965400824624,43.83791688186943],[4.4969614915331775,43.837899752128706],[4.496959880660829,43.83788242944208],[4.496945838579429,43.83734634703123],[4.4969454364404475,43.83734211483303],[4.496939598769824,43.837342490513066],[4.495401532133298,43.83749753766512],[4.495395696818155,43.8374983389539],[4.4953933780813236,43.83750229694346],[4.495020954188735,43.83823633365473],[4.495011703568847,43.83825218099822],[4.4950004048272225,43.838267316636944],[4.494987161198305,43.8382816022773],[4.494972093687142,43.83829490739203],[4.494955339963793,43.83830711041272],[4.494937053105472,43.83831809984079],[4.494917400197899,43.838327775266045],[4.49489656080863,43.838336048284326],[4.494874725346347,43.838342843305185],[4.494137657519132,43.838542573396516],[4.494114831825182,43.83854786577315],[4.494091408199265,43.83855154284072],[4.494067604282277,43.838553570433675],[4.49404364124869,43.83855392971264],[4.494019741751454,43.83855261733933],[4.493996127853153,43.83854964550772],[4.493973018962649,43.83854504183061],[4.493950629796387,43.83853884908314],[4.493929168383308,43.83853112480536],[4.493908834131895,43.83852194076744],[4.493889815977357,43.838511382302976],[4.493872290626086,43.83849954751592],[4.493856420913813,43.83848654636918],[4.493842354292604,43.83847249966277],[4.493830221460835,43.83845753791145],[4.493430893452234,43.837905792288744],[4.493420528819211,43.83788955643681],[4.4934124416116115,43.83787265614411],[4.493406711690044,43.83785525830418],[4.493403395636313,43.83783753472372],[4.493402526194742,43.837819660426035],[4.493404111948909,43.837801811922574],[4.493408137236974,43.83778416546997],[4.49341456230643,43.83776689532931],[4.493423323706753,43.83775017204548],[4.4934343349160555,43.837734160762864],[4.493447487195581,43.83771901959467],[4.4934626506635675,43.83770489806143],[4.493479675577887,43.83769193561465],[4.49349839381479,43.837680260259575],[4.493518620529171,43.8376699872913],[4.493540155979916,43.83766121815614],[4.493562787502352,43.83765403944989],[4.493586291608292,43.837648522062764],[4.4937761600066315,43.83761138805127],[4.493781712987184,43.83761009255571],[4.493784472272112,43.837606371649585],[4.493905258986838,43.83742291562273],[4.493916613259187,43.83740761760912],[4.493929951526075,43.83739318288033],[4.493945149609093,43.83737974582114],[4.493962066015557,43.83736743152815],[4.4939805432558115,43.837356354645095],[4.494000409309431,43.837346618295626],[4.494021479226702,43.837338313123205],[4.494043556850449,43.837331516447314],[4.494066436642192,43.837326291543576],[4.494089905595627,43.83732268705476],[4.494822905802913,43.83723661507628],[4.494828788691604,43.83723570299421],[4.494829721051754,43.83723140075379],[4.494881146923568,43.83687961879157],[4.494881471313446,43.836875386458836],[4.494875631241166,43.836875699033826],[4.493945280548491,43.8369594997206],[4.493921250239424,43.83696081229363],[4.493897157251808,43.83696043484454],[4.493873227902202,43.83695837091892],[4.493849686970001,43.836954639904114],[4.493826755585912,43.836949276847314],[4.49380464915472,43.836942332126185],[4.4937835753318485,43.836933870975656],[4.493763732072719,43.836923972875155],[4.493745305773236,43.836912730801984],[4.493728469518876,43.83690025035792],[4.493713381458818,43.83688664877723],[4.493700183320389,43.83687205382546],[4.493688999077779,43.83685660259914],[4.4936799337875515,43.83684044023807],[4.493673072601834,43.83682371856193],[4.493668479968528,43.83680659464407],[4.49363259670877,43.836626544279184],[4.493631501038038,43.836622453206694],[4.493625746437848,43.8366223311281],[4.493389545797169,43.83662556532443],[4.493383328352814,43.83662588282482],[4.49337994901906,43.83662967381509],[4.492594974308627,43.83761857966607],[4.492581587937648,43.83763365290533],[4.492566197212982,43.837647687940446],[4.492548954691365,43.83766054565127],[4.492530031285536,43.83767209858765],[4.492509614570089,43.837682232232716],[4.49248790692218,43.83769084613807],[4.4924651235154585,43.83769785491952],[4.4924414901871685,43.837703189103344],[4.492417241199515,43.83770679581515],[4.492392616917515,43.83770863930381],[4.492367861426353,43.837708701295966],[4.492343220111841,43.83770698117712],[4.492318937227996,43.837703495997765],[4.492295253475841,43.83769828030432],[4.492272403617413,43.83769138579669],[4.491858262373284,43.8375485159443],[4.491852801141578,43.83754685964806],[4.491830348164162,43.83753907176456],[4.49180908374462,43.83752969758558],[4.491789221090606,43.83751883110163],[4.491770959354616,43.83750658126579],[4.491754481637157,43.83749307090125],[4.491739953150903,43.837478435469855],[4.491727519564202,43.83746282171382],[4.491717305540583,43.83744638618438],[4.4917094134888504,43.837429293672194],[4.491703922536374,43.837411715554936],[4.491700887735775,43.83739382807906],[4.491700339513047,43.83737581059261],[4.491702283362571,43.837357843746986],[4.491706699792121,43.837340107685684],[4.4917135445184,43.837322780238125],[4.4917227489111315,43.837306035136535],[4.491734220681251,43.837290040274176],[4.49174784480631,43.83727495602199],[4.491763484683798,43.83726093362064],[4.4917809835008145,43.837248113664124],[4.4918001658063655,43.83723662469018],[4.49182083927052,43.83722658189152],[4.49184279661277,43.83721808596092],[4.491865817680285,43.83721122208167],[4.491962008342086,43.8371865420669],[4.491967518232012,43.837184903069634],[4.491968675552264,43.83718067330378],[4.4920218985158025,43.836919141924284],[4.4920225130312295,43.836914306982635],[4.492020949024926,43.836909585449185],[4.491692744888345,43.8361130084999],[4.491690768715224,43.836108951524295],[4.491685009001982,43.836107891740234],[4.491300565943023,43.8360515451312],[4.491275985605316,43.836046986187334],[4.491252175170735,43.8360406375775],[4.491229382616993,43.8360325654204],[4.491207845320626,43.836022853784975],[4.491187787584758,43.836011603814704],[4.491169418303028,43.83599893267428],[4.491152928784019,43.83598497232932],[4.491138490758862,43.83596986817194],[4.491126254592737,43.83595377750659],[4.49111634771892,43.83593686791165],[4.491108873311677,43.83591931549425],[4.49110390921181,43.83590130305604],[4.490702127159541,43.833921433169536],[4.490701019264997,43.833917350773596],[4.490695274328454,43.83391722910317],[4.490407135723876,43.83392116683217],[4.49038282871216,43.83392063796402],[4.490358709336935,43.83391839273278],[4.490335008330526,43.83391445261689],[4.490311952422921,43.833908855308614],[4.490289762172762,43.83390165435325],[4.490268649857357,43.83389291863703],[4.490248817441966,43.83388273172807],[4.490230454647703,43.833871191076916],[4.4902137371366155,43.8338584070843],[4.49019882483125,43.83384450204497],[4.490185860384819,43.83382960897779],[4.4901749678165634,43.83381387035318],[4.49016625132541,43.833797436730315],[4.490159794293228,43.83378046531667],[4.489494337353339,43.831624461690886],[4.489490131284509,43.831606693669016],[4.489488401645061,43.83158871018515],[4.489489165784875,43.83157069165454],[4.489492416035554,43.83155281884377],[4.489498119787449,43.83153527105747],[4.489506219816898,43.83151822433926],[4.489516634860399,43.83150184970583],[4.489529260429938,43.831486311431206],[4.489543969861297,43.831471765398696],[4.489560615584839,43.831458357537166],[4.489579030605983,43.83144622235694],[4.489599030180557,43.83143548160053],[4.490847091650976,43.83083291641231],[4.490868835788546,43.83082353911846],[4.49089178423848,43.830815810806826],[4.490915699169742,43.83080981157122],[4.490940332735245,43.830805603585794],[4.4909654296404,43.830803230460766],[4.490990729788855,43.83080271679046],[4.491015970977961,43.83080406789836],[4.491040891616092,43.83080726978203],[4.4910652334336145,43.830812289258176],[4.491088744159448,43.83081907430655],[4.491111180135449,43.830827554609044],[4.491132308841567,43.830837642278496],[4.493130535683317,43.83190111146545],[4.493135368989702,43.831903429423136],[4.4931390637796165,43.8319001950747],[4.493556336015359,43.83149628824172],[4.493559550675203,43.83149284833891],[4.493557572250509,43.831488949975814],[4.493301917923173,43.83105050572201],[4.493299436093684,43.83104677507987],[4.493295270129113,43.83104961242116],[4.49324785696395,43.8310852588793],[4.493230283796419,43.8310972470174],[4.493211187044208,43.83110794453451],[4.493190746841608,43.831117250523505],[4.493169155995651,43.83112507720309],[4.493146618167391,43.83113135074601],[4.49312334595078,43.83113601197535],[4.493099558867274,43.83113901692274],[4.493075481295084,43.83114033724317],[4.493051340352621,43.831139960482375],[4.493027363756062,43.83113789019421],[4.49300377767131,43.831134145907285],[4.492980804580549,43.83112876294062],[4.49295866118357,43.83112179207058],[4.492937556353649,43.83111329905176],[4.492917689167244,43.831103363996895],[4.49289924702614,43.83109208062102],[4.492882403889701,43.83107955535753],[4.492867318633966,43.831065906354155],[4.492854133553015,43.8310512623585],[4.492842973016771,43.83103576150359],[4.492833942297894,43.83101955000486],[4.492827126578816,43.8310027807809],[4.492800300204505,43.83092258146135],[4.492798613488885,43.830918444901705],[4.492792769331423,43.830917606218506],[4.492430942805946,43.83087902423778],[4.492425069957811,43.83087861297639],[4.492424055397237,43.83088282065776],[4.492402335997341,43.831010008238465],[4.492398278066247,43.831027021529444],[4.492391986930831,43.83104367506904],[4.4923835204809235,43.83105981560946],[4.492372956624037,43.83107529462343],[4.492360392568502,43.83108996967104],[4.492345943929001,43.83110370571043],[4.492329743662699,43.831116376340574],[4.492311940845785,43.83112786496438],[4.49229269930166,43.8311380658617],[4.492272196093414,43.83114688516222],[4.492250619894448,43.83115424170919],[4.492228169252255,43.83116006780644],[4.492205050761311,43.83116430984116],[4.492181477161919,43.831166928777414],[4.49215766538249,43.83116790051523],[4.492133834543268,43.83116721611258],[4.492110203939893,43.831164881867394],[4.49208699102535,43.83116091925984],[4.49206440940887,43.831155364754544],[4.49204266689021,43.83114826946506],[4.492021963547402,43.83113969868345],[4.492002489895568,43.83112973127952],[4.491117399318264,43.83062892795024],[4.491112695504747,43.83062651743988],[4.491107094451516,43.830627499849555],[4.490438887847432,43.83076928937222],[4.4904328708990775,43.83077081569035],[4.490428216161584,43.83077396972352],[4.489746650130377,43.83128634786712],[4.4897284155972255,43.83129874262103],[4.489708552930465,43.831309748286166],[4.489687263177646,43.83131925346397],[4.4896647618315155,43.83132716194365],[4.489641276648796,43.83133339367606],[4.489617045344796,43.831337885584],[4.48959231318722,43.8313405922006],[4.489567330513534,43.83134148612962],[4.489542350196975,43.831340558322765],[4.489517625086923,43.831337818171264],[4.489493405449501,43.831333293410744],[4.488602844928952,43.831131822673676],[4.488579092468815,43.83112547109389],[4.488556355640195,43.831117403497394],[4.488534870287488,43.83110770356794],[4.488514859273445,43.83109647192101],[4.48849653016744,43.831083825060325],[4.48848007309238,43.831069894169204],[4.4884656587526015,43.8310548237499],[4.487372511707071,43.829777473445496],[4.487360945148009,43.82976238701236],[4.4873514273119275,43.82974656808534],[4.4873440456735905,43.82973016205302],[4.48733886807422,43.82971331969977],[4.48733594209803,43.82969619582],[4.487335294634973,43.82967894779539],[4.487336931633675,43.82966173414847],[4.487340838046827,43.82964471308571],[4.4873469779695645,43.82962804104335],[4.4873552949695314,43.82961187124982],[4.487365712605598,43.829596352317324],[4.488014259186324,43.82873754846545],[4.488017023016941,43.828733389260385],[4.4880172338141335,43.828728776329974],[4.487984680720644,43.8274783227703],[4.4879842743725105,43.82747406251954],[4.487978405937873,43.827474494359315],[4.487396571039489,43.827538756027636],[4.487372491304167,43.8275405523846],[4.487348284399404,43.82754064477003],[4.487324179841735,43.82753903230797],[4.487300406177266,43.82753573028691],[4.487277188814669,43.8275307700148],[4.487254747887926,43.82752419852219],[4.487233296169088,43.827516078116325],[4.487213037050854,43.82750648579039],[4.487194162618076,43.8274955124934],[4.4871768518265105,43.82748326226792],[4.487161268806051,43.82746985126355],[4.487147561304549,43.82745540663567],[4.487135859286988,43.82744006533973],[4.487126273703255,43.82742397283277],[4.487118895436237,43.82740728169419],[4.487113794440182,43.82739015017922],[4.487111019077502,43.82737274071819],[4.487110595660307,43.82735521837669],[4.487110780601846,43.827350930214855],[4.487104984207513,43.8273508030962],[4.486557592451347,43.82735826595572],[4.486551890323955,43.82735853545282],[4.4865467229215525,43.82736028071666],[4.486156503637375,43.827508243224045],[4.4861343621749175,43.8275156603872],[4.486111323110598,43.82752147066467],[4.48608760832493,43.827525618099756],[4.486063446206229,43.82752806275001],[4.486039069451029,43.82752878107192],[4.486014712823012,43.82752776614752],[4.485990610892017,43.82752502775126],[4.485966995774918,43.8275205922556],[4.485944094900129,43.8275145023772],[4.485922128817281,43.827506816765464],[4.485901309073131,43.82749760943766],[4.485881836174203,43.82748696906614],[4.485863897655768,43.8274749981243],[4.485847666275743,43.82746181189968],[4.4858332983509355,43.82744753738364],[4.4858209322516425,43.82743231204836],[4.48573533199219,43.827313989236146],[4.485725067363,43.8272979247983],[4.4857170319621,43.82728120811337],[4.4857113035029155,43.827264000859],[4.485707937386827,43.82724646945718],[4.485706966167421,43.82722878346483],[4.485708399235724,43.82721111393386],[4.485712222729467,43.82719363175676],[4.4857183996672365,43.8271765060139],[4.485726870306232,43.827159902338146],[4.48573755272014,43.82714398131307],[4.485750343591566,43.8271288969198],[4.485765119211329,43.82711479504778],[4.485781736674961,43.82710181208382],[4.485800035264859,43.827090073593155],[4.485819838004668,43.82707969310489],[4.485840953370928,43.827070771014164],[4.485863177145384,43.827063393611155],[4.4858862943900615,43.82705763224649],[4.4859100815259945,43.827053542641266],[4.487031247557339,43.82690250612078],[4.487036982228631,43.8269015206352],[4.487037920933215,43.82689730803529],[4.487184243622447,43.82594574635352],[4.487187955993947,43.82592890598878],[4.487193853248821,43.82591239559818],[4.487201882439646,43.82589636341203],[4.487211971478632,43.82588095336716],[4.487224029784901,43.82586630381472],[4.48723794909776,43.825852546278085],[4.487253604448703,43.82583980427203],[4.487270855283399,43.82582819219382],[4.487289546723613,43.82581781429621],[4.487744102337787,43.825589351620756],[4.487748633089658,43.82558683492646],[4.487746829746274,43.825582912072406],[4.486248340696408,43.82277643230294],[4.486245828719186,43.822772348492286],[4.486241758975353,43.82276898649831],[4.48457140066519,43.82152112982644],[4.484555733126557,43.82150824886582],[4.484541831536614,43.821494345892226],[4.484529822326136,43.821479547350386],[4.484519814714835,43.821463987829944],[4.484511899718074,43.82144780884131],[4.484506149319144,43.82143115752875],[4.484502615814671,43.821414185332046],[4.4845013313390325,43.82139704660919],[4.4845023075721935,43.82137989723261],[4.484505535633539,43.8213628931714],[4.484510986162725,43.821346189072955],[4.48470294857339,43.820862293494784],[4.4847043024393605,43.82085813150048],[4.48470175441708,43.82085427409849],[4.48361267655367,43.81939175904224],[4.483609702888637,43.81938819085272],[4.48360446026165,43.819389910880886],[4.480922045623521,43.820385966044014],[4.480899430883229,43.820393355545775],[4.480875911378529,43.820399075915844],[4.480851721429228,43.820403070163295],[4.480827102034814,43.82040529849425],[4.480802298473383,43.82040573870829],[4.480777557857887,43.82040438641964],[4.480753126674156,43.820401255100876],[4.480729248325115,43.82039637594871],[4.480706160705766,43.8203897975732],[4.480684093833015,43.82038158551336],[4.480663267554024,43.82037182158424],[4.48064388935588,43.82036060306179],[4.48062615229842,43.82034804171376],[4.480610233090821,43.820334262686046],[4.4805962903310865,43.82031940325594],[4.4802706034442155,43.819932025828834],[4.480267400394883,43.81992859436971],[4.4802617569403305,43.819929270281385],[4.477756416928256,43.82031862318679],[4.477729264894543,43.82032171716188],[4.477701807066593,43.82032262169454],[4.475559778093799,43.820307324017534],[4.475554681280314,43.82030747053663],[4.475559095625166,43.82030932104056],[4.476280274236445,43.82057802125296],[4.476300914472644,43.82058664131793],[4.476320319974517,43.820596652660754],[4.47633831243305,43.820607963291806],[4.476354726522757,43.82062046928279],[4.476369411420783,43.82063405572176],[4.4763822321927575,43.82064859776892],[4.4763930710326765,43.8206639618037],[4.476401828345407,43.820680006652495],[4.476718045275869,43.821351933542886],[4.476724941477116,43.82136944226125],[4.476729359243553,43.82138736584828],[4.476731253363928,43.82140552088422],[4.476730604452467,43.821423721580565],[4.476727419147354,43.82144178168139],[4.476721730042904,43.821459516369366],[4.4767135953561,43.82147674415711],[4.476703098330923,43.82149328874435],[4.47669034638656,43.82150898082227],[4.476675470018195,43.82152365980597],[4.476658621461644,43.82153717547801],[4.47663997313549,43.82154938952554],[4.47661971587665,43.82156017695583],[4.476598056987449,43.82156942737543],[4.476401676472148,43.82164387523178],[4.476396378818828,43.821646133472505],[4.476392574260789,43.82164860432398],[4.476373285122108,43.82165992534068],[4.476352532266872,43.82166979655886],[4.476330522768317,43.82167811948259],[4.476307476238897,43.821684811064884],[4.476283622638919,43.82168980453642],[4.476259199981948,43.821693050071794],[4.47623445195981,43.82169451528673],[4.476209625510955,43.821694185561086],[4.4761849683563995,43.82169206418495],[4.476160726527883,43.82168817232563],[4.476137141912855,43.82168254881653],[4.476114449840848,43.82167524976965],[4.476092876735266,43.82166634801562],[4.476072637854081,43.82165593237701],[4.476053935141931,43.821644106782095],[4.476036955215079,43.82163098922768],[4.47602186749935,43.821616710601816],[4.476008822539596,43.821601413377685],[4.475575215079439,43.82103103991911],[4.475572069736963,43.821027354610216],[4.475566541440949,43.82102901179178],[4.473721524432059,43.82166259540689],[4.473699147464976,43.82166933278338],[4.4736759707099765,43.82167446047919],[4.4736522144594195,43.82167792975607],[4.473638816756338,43.821678917711985],[4.473644133494716,43.82167952061126],[4.473658123826227,43.8216821035206],[4.473662284351397,43.82168271036045],[4.473668042642884,43.82168145988994],[4.475288914134407,43.8212657678611],[4.475311722182173,43.82126079486761],[4.475335082920085,43.821257425308715],[4.475358781844766,43.82125569012434],[4.475382601347613,43.82125560524737],[4.4754063227128915,43.821257171457155],[4.4754297281259525,43.82126037437243],[4.475452602673208,43.821265184583325],[4.475474736315466,43.82127155792147],[4.475495925816497,43.82127943586549],[4.475515976609166,43.8212887460784],[4.475534704581959,43.82129940307172],[4.475551937769514,43.82131130899052],[4.475567517931645,43.821324354511844],[4.475581302006351,43.82133841984859],[4.475593163423454,43.82135337584934],[4.475602993266839,43.8213690851843],[4.475808091635382,43.82174363476669],[4.475815834151994,43.82176003935434],[4.475821360880374,43.82177690717781],[4.475824620541915,43.821794081738496],[4.475825582891605,43.82181140369176],[4.475824238998725,43.8218287123254],[4.475820601329779,43.82184584705054],[4.475814703632906,43.821862648891745],[4.475806600624846,43.82187896196185],[4.475796367483341,43.821894634908425],[4.475784099149705,43.82190952231799],[4.475769909448012,43.82192348606506],[4.475753930029067,43.821936396593884],[4.475736309148993,43.82194813412036],[4.475717210293722,43.821958589743446],[4.475696810662164,43.82196766645556],[4.475675299522154,43.82197528004269],[4.475652876454389,43.821981359865696],[4.473654080977185,43.822445140377106],[4.473630148694198,43.82244975511158],[4.473605700953344,43.82245262273397],[4.473580980431848,43.822453714779186],[4.47355623251473,43.82245302040717],[4.473531702858957,43.822450546510495],[4.473507634954896,43.82244631764604],[4.473484267709267,43.82244037579103],[4.47346183307361,43.82243277992654],[4.473440553741798,43.822423605451846],[4.47342064093946,43.82241294343609],[4.473402292327253,43.82240089971424],[4.473385690038797,43.82238759383643],[4.473370998872759,43.82237315788137],[4.473358364657029,43.82235773514518],[4.4733479128012155,43.82234147871891],[4.473177327163027,43.82203741454706],[4.473169337703005,43.82202091736076],[4.4731635965422445,43.82200393678753],[4.473160157845944,43.82198663303721],[4.473159054055697,43.82196916936866],[4.473160295583486,43.82195171054937],[4.473163870713529,43.82193442130093],[4.4731697457128945,43.821917464744885],[4.473177865149845,43.821901000863754],[4.4731881524169,43.821885184991565],[4.473200510453684,43.82187016634838],[4.473214822662716,43.821856086632444],[4.473230954009549,43.82184307868325],[4.473248752296811,43.82183126522829],[4.4734104111407476,43.821733992461816],[4.473420054830085,43.82172760955406],[4.473426406470436,43.821722988798946],[4.4734444294691285,43.821712142531396],[4.47346378313536,43.82170257336302],[4.473484295443349,43.82169436634944],[4.473505784068971,43.821687594438664],[4.473528058010321,43.82168231782278],[4.473550919285404,43.82167858340296],[4.473570162216079,43.82167679612235],[4.473555947860899,43.821674805129575],[4.473532715659258,43.821669810698936],[4.473510265585761,43.82166320204507],[4.473488811025555,43.82165504198254],[4.4734685559013005,43.821645408071774],[4.473449692734886,43.821634391882014],[4.473432400817505,43.821622098120784],[4.473416844505519,43.821608643638726],[4.473403171658274,43.82159415631883],[4.473391512232743,43.821578773861084],[4.47338197704834,43.821562642473424],[4.47337465673365,43.82154591548214],[4.473369620865072,43.82152875187451],[4.473064623490382,43.82016516630135],[4.473063446999359,43.82016113380545],[4.473057757106249,43.82016101440301],[4.472211171081232,43.82017244747815],[4.472186807096896,43.82017191093449],[4.4721626328338635,43.8201696491866],[4.472138880751692,43.82016568398345],[4.472115779250139,43.820160053454394],[4.472093550472811,43.82015281174257],[4.47207240817099,43.820144028484236],[4.472052555648162,43.82013378813907],[4.472034183805029,43.82012218917803],[4.472017469303795,43.820109343136494],[4.472002572869392,43.82009537354154],[4.471989637743966,43.82008041472432],[4.471978788309497,43.820064610528135],[4.471970128891788,43.82004811292529],[4.471963742757334,43.82003108055575],[4.471804961400011,43.81950722328095],[4.4718034238844675,43.819503122524445],[4.4717975580206,43.81950299332348],[4.471374778193984,43.81950869892878],[4.4713690412021565,43.81950897882184],[4.471369346554782,43.8195131362698],[4.471498849208012,43.82043125664776],[4.471500130412736,43.82044838855972],[4.47149915276691,43.82046553095988],[4.4714959251527855,43.82048252806807],[4.471490476899084,43.82049922542429],[4.4714828575145305,43.82051547129245],[4.471473136238026,43.82053111803913],[4.471461401409498,43.82054602347526],[4.471447759667165,43.820560052148345],[4.4714323349785134,43.82057307657327],[4.471415267513773,43.820584978391],[4.47139671237215,43.820595649443916],[4.471376838172362,43.8206049927591],[4.471355825520331,43.82061292342925],[4.471333865367893,43.8206193693844],[4.471311157277512,43.82062427204704],[4.470165734371469,43.82082907271999],[4.470159800893449,43.820830366552556],[4.470152894587641,43.820834544087916],[4.470133531201301,43.820845138862715],[4.470112833078914,43.820854315885875],[4.470090997542491,43.82086198766952],[4.470068232757691,43.8208680810757],[4.470044755749272,43.82087253801379],[4.470020790332053,43.82087531599409],[4.469996564977168,43.82087638853311],[4.4699723106339055,43.82087574540593],[4.469948258527912,43.82087339274371],[4.469924637956783,43.82086935297525],[4.469901674104017,43.82086366461319],[4.469879585892202,43.82085638188677],[4.46985858389591,43.820847574224906],[4.469838868334159,43.820837325594205],[4.469820627161647,43.82082573369853],[4.469804034276889,43.82081290904746],[4.469789247864379,43.82079897390287],[4.4697764088865926,43.82078406111317],[4.4697656397401575,43.82076831284693],[4.469757043089058,43.82075187923742],[4.469750700885961,43.82073491695146],[4.469746673590994,43.82071758769567],[4.469744999595439,43.82070005667498],[4.469745694855808,43.8206824910177],[4.469748752741819,43.820665058182094],[4.469754144099679,43.8206479243601],[4.470011741761095,43.81998137956151],[4.470013000855669,43.81997736492731],[4.470007414912981,43.819978133289965],[4.469462122416506,43.82007361544565],[4.46945668444323,43.82007476308191],[4.469453308799951,43.820078056422346],[4.4690366671351756,43.820526547093216],[4.469033463525069,43.82053040324263],[4.469032615589901,43.820534861189564],[4.468845787876909,43.822098877376696],[4.4688425580792375,43.82211613563481],[4.468837039516317,43.822133087072466],[4.468829283860879,43.82214957295965],[4.468819363733531,43.82216543892566],[4.468807372022801,43.82218053640436],[4.468793421015412,43.8221947240256],[4.4687776413448885,43.822207868938776],[4.468760180768359,43.82221984805696],[4.468741202783004,43.822230549209536],[4.468720885095093,43.82223987219239],[4.468699417955969,43.82224772970646],[4.468677002380541,43.82225404817503],[4.468653848264967,43.822258768432754],[4.468630172421194,43.8222618462798],[4.468027022868941,43.82231860644963],[4.468002083443666,43.82232003421985],[4.467977072105984,43.82231963983562],[4.467952242182112,43.822317427291445],[4.467927845160777,43.822313418996956],[4.467904128145947,43.822307655550034],[4.46788133135399,43.82230019532544],[4.467859685680601,43.822291113883715],[4.467839410362146,43.82228050320574],[4.467820710755095,43.822268470761145],[4.46780377625609,43.82225513841974],[4.467788778383633,43.82224064121714],[4.467775869040911,43.822225125987124],[4.4677651789772845,43.82220874987434],[4.467756816464057,43.8221916787426],[4.467750866197926,43.82217408549507],[4.4677473884432155,43.82215614832291],[4.467746418421589,43.8221380489005],[4.467747965955401,43.822119970545366],[4.467978540064026,43.82063881730642],[4.467978898919369,43.82063477757235],[4.467973407799043,43.82063553911654],[4.466314374710966,43.820925994773205],[4.466308823179141,43.8209271747046],[4.466308651247701,43.820931361984755],[4.4663318150699345,43.82183440956094],[4.466331123496086,43.82185157636677],[4.4663281751553265,43.82186861729081],[4.466322996891868,43.82188537716639],[4.4663156358546505,43.82190170338581],[4.466306159068109,43.821917447289906],[4.466294652821933,43.82193246552166],[4.4662812218854,43.82194662133164],[4.466265988553446,43.82195978582312],[4.466249091533127,43.82197183912579],[4.4662306846806334,43.821982671487305],[4.466210935600344,43.82199218427264],[4.466190024118694,43.82200029086224],[4.466168140646724,43.822006917440724],[4.466145484446261,43.822012003669144],[4.466122261815464,43.82201550323431],[4.4660986842103325,43.82201738427054],[4.46514393677,43.822060305707076],[4.4651187712647635,43.822060512745736],[4.465093705821931,43.822058876388],[4.465068997368708,43.82205541340695],[4.465044899172963,43.82205015929904],[4.465021658247102,43.822043167920214],[4.464999512816061,43.82203451093388],[4.464978689875401,43.822024277076316],[4.4649594028645065,43.82201257124703],[4.464941849478764,43.82199951343355],[4.464926209643138,43.821985237481506],[4.464912643667902,43.82196988972254],[4.4649012906054715,43.82195362747451],[4.464892266825122,43.82193661742876],[4.464885664820254,43.82191903394166],[4.464881552260387,43.821901057247224],[4.464760497017488,43.82113216617879],[4.464759918824246,43.82112960263706],[4.464759641409275,43.821132192358185],[4.464729075151055,43.821894240624786],[4.46472717950402,43.82191180295005],[4.464722921620735,43.82192914697631],[4.4647163422896,43.821946106547735],[4.464707504538633,43.821962519191494],[4.464696493031739,43.82197822767416],[4.464683413257694,43.82199308150802],[4.464668390519605,43.822006938392875],[4.464651568734552,43.82201966557912],[4.464633109054881,43.822031141139725],[4.464613188324372,43.8220412551382],[4.464591997384064,43.822049910681784],[4.464569739243971,43.82205702484981],[4.464546627138211,43.822062529488086],[4.464522882482165,43.82206637186171],[4.464498732751259,43.82206851516048],[4.464474409301667,43.822068938851466],[4.4634845992251435,43.82205108297583],[4.463459432799735,43.822049700913816],[4.4634345896501655,43.822046478345165],[4.463410325875772,43.82204144849021],[4.463386891603158,43.8220346632],[4.463364528407646,43.82202619242173],[4.463343466822933,43.822016123477646],[4.463323923964541,43.82200456016492],[4.463306101291648,43.82199162168547],[4.463290182530301,43.82197744141733],[4.463276331779476,43.82196216553949],[4.463264691819468,43.821945951525066],[4.463255382640072,43.82192896651793],[4.463248500203723,43.821911385609596],[4.46214350649592,43.81842211858724],[4.462142122530973,43.818418557972585],[4.462140506395896,43.81842206693265],[4.461969020546882,43.81886563683081],[4.461967614341315,43.81887018192257],[4.46196954756309,43.81887462435236],[4.462722100068126,43.82033190984472],[4.46272927175034,43.82034808682153],[4.462734304710128,43.82036468135517],[4.462737154095518,43.82038154556718],[4.462737794512889,43.82039852917581],[4.462736220253329,43.82041548083513],[4.462732445343581,43.820432249483844],[4.462726503421113,43.820448685691304],[4.462489314957508,43.820997574099394],[4.462480897190177,43.821014151497884],[4.462470275773581,43.82103005167787],[4.462457552996398,43.82104512151127],[4.462442851384918,43.82105921586664],[4.4624263125230925,43.82107219900681],[4.462408095689025,43.821083945896206],[4.462388376321038,43.82109434340504],[4.462367344328107,43.821103291398856],[4.461479307403584,43.82143979689517],[4.461473925048217,43.82144209948021],[4.461472604331908,43.82144652374383],[4.46139707213176,43.8217825245444],[4.461392110876672,43.82179942926399],[4.461384933112551,43.821815911522954],[4.461375605019883,43.821831819347075],[4.461364212606407,43.82184700605852],[4.461350860914127,43.82186133162845],[4.461335673050821,43.82187466396797],[4.461318789054969,43.8218868801462],[4.46130036460454,43.82189786752379],[4.461280569581576,43.82190752479139],[4.461259586505794,43.82191576290403],[4.461237608851635,43.82192250590197],[4.461214839264307,43.8219276916112],[4.461191487691255,43.82193127221674],[4.461167769446284,43.821933214703485],[4.4611439032242055,43.82193350116064],[4.460124299588201,43.821910268670834],[4.460118324346488,43.82191034576964],[4.46011463281963,43.82191374850135],[4.4592739603368,43.82277259597339],[4.459270454405732,43.822776617753206],[4.459269572121786,43.82278133048996],[4.459174269694784,43.82362933413648],[4.459170754080511,43.82364820071858],[4.459164505607819,43.82366669289755],[4.459155594185883,43.82368460377139],[4.459144119518859,43.823701732941934],[4.459130209990433,43.823717888757066],[4.458739982571533,43.82412184559905],[4.458725859031149,43.82413510668019],[4.458710094265784,43.82414735999516],[4.458692824747849,43.82415849946869],[4.45867419997645,43.824168428667754],[4.458654381183212,43.82417706163655],[4.458633539936499,43.82418432364049],[4.458611856656148,43.824190151813255],[4.458589519051573,43.824194495701015],[4.456927692846317,43.82445831592402],[4.456903635633846,43.82446124764267],[4.456879297355357,43.82446245804344],[4.456854912403963,43.824461935469415],[4.456830715622283,43.82445968495334],[4.456806940040689,43.82445572816909],[4.456783814633015,43.824450103223036],[4.456761562111341,43.824442864286986],[4.456740396781079,43.82443408107647],[4.456149247362104,43.82416001939283],[4.456128892124771,43.824149500998416],[4.456110099573938,43.82413755514862],[4.456093059895557,43.82412430273945],[4.45607794553556,43.824109877889775],[4.456064909454672,43.82409442658376],[4.456054083580431,43.824078105193564],[4.4560455774720955,43.82406107889673],[4.455420404662456,43.8225807453715],[4.455414974825746,43.82256554603098],[4.455411395122494,43.822550061916374],[4.455409692789291,43.822534410846906],[4.455148186515532,43.81712019563123],[4.455147769192615,43.81711633466834],[4.45514644557111,43.81711259724103],[4.454297651661059,43.8150815644357],[4.454292053657476,43.81506555178217],[4.454288506598246,43.815049234934726],[4.454287040358243,43.815032751329106],[4.454258563222629,43.8139132333217],[4.454259207716392,43.81389654988759],[4.454261983664534,43.813879981419426],[4.454266867193574,43.81386367039694],[4.45481456743128,43.812372055645376],[4.454822569789273,43.812354107239734],[4.454833122038054,43.812336863821464],[4.454846108292286,43.812320514754944],[4.454861385937122,43.812305239582805],[4.454878787194454,43.81229120605419],[4.454898120965469,43.812278568282665],[4.454919174929272,43.81226746505372],[4.455761907428811,43.81187022593649],[4.4557818588235865,43.811861751303184],[4.45580281177373,43.811854656512075],[4.455824584800039,43.81184900301298],[4.455846989320598,43.811844839772235],[4.455869831284115,43.811842202848716],[4.455892912850598,43.81184111508145],[4.456747394633064,43.811829701641024],[4.456753319674743,43.811829411248816],[4.456756273731034,43.81182568061347],[4.457230304318649,43.81115241706295],[4.457232957406983,43.81114809888098],[4.457234299465733,43.81114347358096],[4.4580655447645805,43.807271167674614],[4.458066146367504,43.807267064516445],[4.458060451337638,43.807266940893996],[4.4570165880020625,43.80728089667275],[4.45701063534578,43.807281189533846],[4.457007694599217,43.80728494910538],[4.456413614886576,43.80814031407489],[4.456411283590339,43.80814409599695],[4.456409958636338,43.80814810683774],[4.4557476339050295,43.81065484339838],[4.455741866850648,43.810672040023775],[4.455733795560411,43.81068874337901],[4.455723498065742,43.81070479197568],[4.455711073921296,43.810720030655425],[4.455696643242511,43.81073431209015],[4.455680345544389,43.81074749820625],[4.455662338392681,43.810759461519666],[4.455506184184,43.81085339649417],[4.455486190501471,43.810864241804374],[4.4554647943902355,43.81087357887069],[4.455442212013708,43.81088131336109],[4.455418671520391,43.810887367134235],[4.455394410738872,43.810891679029055],[4.455369674774975,43.8108942054826],[4.455344713535411,43.81089492097014],[4.455319779202914,43.810893818263146],[4.453998779684387,43.810786923907834],[4.453992902228009,43.81078666278403],[4.4539927161765425,43.810790924891315],[4.454413618409165,43.82733731211011],[4.454413986528275,43.827341304346646]],[[4.4925702184161285,43.83834690248449],[4.4925456172495695,43.83834635723682],[4.492521211077038,43.83834405420189],[4.492497239030642,43.83834001594491],[4.492473935988789,43.83833428203277],[4.492451530274799,43.838326908646465],[4.492430241419727,43.83831796803055],[4.49241027801136,43.83830754778526],[4.492391835650444,43.8382957500082],[4.4923750950341805,43.838282690293994],[4.492360220185741,43.83826849660163],[4.492347356847207,43.83825330800069],[4.49233663105161,43.838237273308714],[4.492328147888113,43.83822054963318],[4.492321990472405,43.838203300831964],[4.492318219132422,43.83818569590798],[4.492316870817315,43.83816790735329],[4.492317958735521,43.83815010945891],[4.492321472225443,43.83813247660729],[4.492327376859984,43.838115181563566],[4.492335614783952,43.838098393782964],[4.492346105281006,43.83808227775037],[4.492358745564571,43.83806699136886],[4.492373411784992,43.83805268441256],[4.492389960243043,43.83803949705917],[4.4924082287979115,43.83802755851658],[4.492535875860724,43.83795209520183],[4.492555736198989,43.837941498060154],[4.4925769497129435,43.83793237779878],[4.492599307526995,43.83792482421868],[4.4926225894986995,43.83791891169475],[4.492646566386296,43.837914698443505],[4.49267100210586,43.837912225949914],[4.4926956560557905,43.837911518558876],[4.492720285485782,43.83791258323557],[4.492744647886953,43.83791540949689],[4.492768503379596,43.837919969514616],[4.492791617075047,43.837926218389406],[4.492813761388404,43.83793409459292],[4.492834718279357,43.83794352057361],[4.492854281399053,43.83795440352031],[4.492872258121829,43.83796663627601],[4.492888471441876,43.837980098393004],[4.492902761716095,43.8379946573188],[4.492914988236017,43.838010169701235],[4.4929250306133115,43.838026482799954],[4.492932789965213,43.83804343599036],[4.4929381898882275,43.8380608623451],[4.492941177210508,43.83807859027776],[4.492941722515468,43.83809644523226],[4.492939820431541,43.838114251401656],[4.4929354896851414,43.838131833459244],[4.492927333021817,43.83815750272932],[4.492926224843387,43.83816205130454],[4.492926019309777,43.83816412802364],[4.492925686272713,43.83817754924136],[4.492922816841085,43.83819523189677],[4.492917547781598,43.838212622824535],[4.492909930653806,43.83822955184128],[4.492900039995053,43.838245853283645],[4.492887972591155,43.838261367629514],[4.492873846529324,43.838275943058875],[4.4928578000426596,43.83828943693971],[4.492839990157451,43.838301717223615],[4.492820591156588,43.83831266373821],[4.492799792874061,43.83832216936298],[4.492777798837277,43.83833014107766],[4.492754824275359,43.83833650087252],[4.492731094012918,43.83834118651173],[4.492706840269908,43.83834415214244],[4.492682300389117,43.83834536874351],[4.4925702184161285,43.83834690248449]],[[4.48337385547729,43.82706130873184],[4.483374668456287,43.82704299780879],[4.483378048454394,43.8270248415837],[4.483383960447389,43.82700702818196],[4.483392343175968,43.82698974217673],[4.483403109780578,43.826973162676325],[4.483416148701491,43.826957461468524],[4.4834313248347915,43.826942801240556],[4.483448480932305,43.826929333893425],[4.483467439230955,43.826917198968125],[4.483488003294659,43.82690652219977],[4.483509960049697,43.82689741421478],[4.483533081992428,43.82688996938474],[4.483768404779334,43.826824368495004],[4.483792246714465,43.82681870448014],[4.483816755866361,43.82681480931588],[4.483841682538698,43.826812722685695],[4.483866772781634,43.82681246584787],[4.483891770978936,43.82681404141906],[4.483916422452087,43.82681743334754],[4.483940476054864,43.82682260707677],[4.483963686731898,43.826829509897465],[4.483985818015223,43.8268380714845],[4.48400664443333,43.82684820461346],[4.484025953808207,43.82685980604914],[4.484043549416966,43.826872757597386],[4.48405925199604,43.8268869273091],[4.484072901567508,43.826902170824546],[4.484084359068962,43.8269183328441],[4.484164145364467,43.827046408622834],[4.484173254788363,43.827063239424135],[4.484179986227366,43.82708064687322],[4.484184271774458,43.827098455368734],[4.484186068195935,43.82711648526355],[4.484185357367622,43.827134554676924],[4.484182146457807,43.82715248132928],[4.484176467855017,43.82717008438105],[4.484168378841386,43.82718718625684],[4.484157961014898,43.827203614436876],[4.484145319466312,43.827219203197274],[4.484130581719111,43.82723379528195],[4.48411389644311,43.82724724348893],[4.484095431954751,43.82725941215532],[4.484075374519186,43.82727017852592],[4.48405392647126,43.82727943399157],[4.484031304174391,43.827287085184764],[4.484007735837912,43.8272930549216],[4.48398345921488,43.82729728298036],[4.483958719203622,43.82729972670908],[4.483645733808009,43.82731911533516],[4.483621815177516,43.82731975978423],[4.483597921799759,43.82731873600424],[4.48357427515689,43.82731605348523],[4.483551094443871,43.827311737093126],[4.483528594536556,43.82730582683915],[4.48350698399983,43.82729837750902],[4.483486463154262,43.82728945815503],[4.483467222219167,43.827279151455976],[4.4834494395493465,43.82726755295075],[4.483433279981783,43.82725477015267],[4.4834188933076895,43.82724092155289],[4.483406412884016,43.827226135522],[4.483395954397318,43.82721054912007],[4.483387614791431,43.82719430682612],[4.483381471368894,43.82717755919892],[4.483377581074464,43.827160461481284],[4.483375979967316,43.827143172161016],[4.48337385547729,43.82706130873184]],[[4.47621567801125,43.82187341694518],[4.476217510926279,43.82186160755031],[4.476222655870955,43.82184420248451],[4.476230150131314,43.821827250478655],[4.476239920408279,43.821810917330474],[4.476251871142605,43.82179536278492],[4.476265885449549,43.8217807389717],[4.476281826262101,43.821767188917455],[4.476299537671588,43.821754845147],[4.476318846452555,43.82174382838712],[4.476339563756974,43.821734246385816],[4.47636148696125,43.82172619285863],[4.476384401647926,43.821719746571986],[4.476408083702741,43.82171497057288],[4.4764323015064855,43.821711911572294],[4.4764568182002895,43.82171059948834],[4.476481394002103,43.82171104715369],[4.476505788551798,43.82171325018999],[4.476529763261908,43.821717187050766],[4.4765530836510345,43.82172281923212],[4.476575521637101,43.82173009164929],[4.4765968577680235,43.82173893317544],[4.47676850906637,43.821818470589086],[4.476773704772727,43.82182062553696],[4.476779609273678,43.82181990485046],[4.479631653931759,43.82136655231188],[4.479655339683656,43.821363647449616],[4.479679302106045,43.82136241155486],[4.479703317398856,43.82136285617044],[4.479727161268254,43.82136497714378],[4.479750611021378,43.8213687546658],[4.479773447646169,43.8213741534559],[4.479795457856805,43.821381123091335],[4.479816436085661,43.82138959847833],[4.479836186403204,43.821399500459854],[4.4798545243478705,43.82141073655498],[4.479871278648868,43.82142320182261],[4.4798862928257694,43.82143677984148],[4.479899426650008,43.821451343797555],[4.479910557454581,43.8214667576684],[4.479919581279764,43.82148287749354],[4.479926413844099,43.82149955271895],[4.480473083188261,43.82311651479401],[4.4804747562132246,43.823120596051766],[4.480480148433617,43.82312229382217],[4.4806396117334835,43.8231659824076],[4.4806611427496295,43.823172738700976],[4.4806816979118915,43.823180934804945],[4.480701094050711,43.823190497683214],[4.480719158324449,43.82320134212],[4.4807357297595924,43.82321337147939],[4.480750660685205,43.82322647856639],[4.480763818048843,43.82324054658221],[4.48077508460223,43.82325545016502],[4.480784359946092,43.82327105650701],[4.480791561424878,43.82328722653788],[4.480796624863369,43.82330381616415],[4.4807995051386005,43.82332067755308],[4.480952134482722,43.82477504408817],[4.480952841291243,43.82477915237457],[4.4809585595815955,43.824779170320404],[4.48305348309315,43.82471275179453],[4.483077940338767,43.82471284803709],[4.483102266156483,43.82471468377522],[4.483126225087809,43.824718241240134],[4.483149585225386,43.82472348599783],[4.48317212045764,43.82473036728238],[4.483193612657348,43.82473881848733],[4.483213853792935,43.82474875781028],[4.483232647942057,43.824760089044794],[4.483249813187987,43.8247727025115],[4.483265183380462,43.824786476119755],[4.483278609743922,43.82480127654936],[4.4832899623175955,43.82481696054095],[4.483299131213485,43.824833376282726],[4.483306027680074,43.82485036487985],[4.4833105849614485,43.824867761892385],[4.483312758943534,43.82488539892703],[4.4833125285811795,43.824903105267055],[4.483309896101941,43.82492070952472],[4.483304886984608,43.824938041300186],[4.483297549712671,43.824954932831],[4.483287955305099,43.82497122061588],[4.483276196628992,43.824986746997304],[4.483262387500734,43.82500136168767],[4.483246661584356,43.82501492322394],[4.483229171097782,43.825027300337034],[4.483210085339447,43.82503837322238],[4.483189589049578,43.825048034699684],[4.483167880622003,43.82505619125033],[4.479770989168857,43.82618252018839],[4.47974546498911,43.826189778484284],[4.479718991865809,43.826194957345656],[4.47840857288137,43.826395897671794],[4.478384267942037,43.82639872254024],[4.478359696264614,43.82639979334245],[4.47833509877118,43.82639909957931],[4.478310716636935,43.82639664805311],[4.47828678892546,43.82639246280072],[4.478263550244649,43.82638658485801],[4.478241228446367,43.82637907185743],[4.478220042392336,43.82636999746292],[4.478200199808186,43.82635945064765],[4.478181895246713,43.82634753482159],[4.478165308180305,43.826334366817626],[4.478150601241242,43.826320075745954],[4.4781379186271355,43.82630480172813],[4.478127384687126,43.82628869452328],[4.47811910270271,43.826271912059575],[4.478113153875142,43.82625461888592],[4.478109596529352,43.8262369845584],[4.477982194555314,43.82527399669019],[4.4779813679318705,43.825269855745695],[4.477975804910262,43.82526872241563],[4.477413641233405,43.82517502853463],[4.477390021101559,43.82517019142148],[4.477367175039598,43.825163691380716],[4.477345325800307,43.825155591788885],[4.477324686417042,43.82514597161843],[4.47730545812656,43.82513492466764],[4.477287828406921,43.82512255864607],[4.477271969149535,43.8251089941244],[4.477258034983208,43.82509436335874],[4.477246161766504,43.82507880900118],[4.477236465263147,43.82506248270875],[4.477229040013363,43.82504554366494],[4.477223958412162,43.82502815702738],[4.477221270003551,43.82501049231771],[4.477158074376868,43.8242532825785],[4.477157824941443,43.824235153306226],[4.4771600960178315,43.82421709784881],[4.477164864557939,43.82419929942382],[4.477172082170798,43.82418193864044],[4.477181675613703,43.82416519166665],[4.477193547535523,43.82414922844171],[4.477207577464641,43.82413421095168],[4.477223623031486,43.82412029158566],[4.477241521413273,43.82410761158954],[4.477261090986256,43.82409629963264],[4.477282133168761,43.824086470502145],[4.477304434436265,43.824078223938336],[4.477327768488098,43.82407164362246],[4.4773518985437715,43.824066796327685],[4.4773765797456395,43.82406373124142],[4.477401561643504,43.82406247946636],[4.477509158012454,43.824061021723985],[4.477514912442351,43.82406073870408],[4.477513953761434,43.82405662098028],[4.4773126847413725,43.82339285313523],[4.477311204683162,43.8233888856294],[4.477305571764605,43.823389392574526],[4.4767292854086165,43.82346159598268],[4.476704975695085,43.82346375517665],[4.47668049049799,43.82346417191684],[4.476656067499612,43.82346284215785],[4.476631943778441,43.82345977880788],[4.476608353507749,43.82345501160347],[4.476585525682363,43.823448586820724],[4.4765636818957235,43.82344056682616],[4.476543034188783,43.82343102947127],[4.476523782991669,43.82342006733683],[4.4765061151780365,43.82340778683403],[4.476490202251061,43.82339430717175],[4.476476198678635,43.82337975919905],[4.476464240393942,43.82336428413529],[4.4764544434759745,43.823348032199],[4.476446903022796,43.82333116114986],[4.476307242197067,43.82295660367247],[4.476305383690707,43.82295245615703],[4.476301756485987,43.82295204274291],[4.476286129500791,43.82295086231721],[4.476262797578667,43.8229474423068],[4.476240024479379,43.8229424221368],[4.4762180190471,43.82293584784549],[4.4761969830858055,43.82292777972347],[4.476177109508563,43.82291829176072],[4.476158580568356,43.82290747096801],[4.4761415661866994,43.82289541657904],[4.476126222395345,43.8228822391403],[4.476112689905369,43.82286805949723],[4.476101092816793,43.8228530076861],[4.476091537480536,43.822837221741324],[4.476084111523157,43.82282084642975],[4.476078883043322,43.82280403192285],[4.476075899987352,43.8227869324197],[4.476075189709604,43.822769704732835],[4.476076758721687,43.82275250685012],[4.476215602937852,43.82187341072961],[4.47621567801125,43.82187341694518]]]},"properties":{"scenario":"t100","wse_m":54.44,"source":"ppri+lidar"}},{"type":"Feature","geometry":{"type":"Polygon","coordinates":[[[4.4561212259089915,43.843114912727565],[4.456121050356501,43.84311918163228],[4.456125410969153,43.8432903089719],[4.456125813924428,43.84329457300689],[4.456131719002373,43.84329460302399],[4.461214067639527,43.84313685465196],[4.461219771020331,43.84313647410281],[4.461218152306703,43.843132497676045],[4.4598432531885175,43.84027899648216],[4.45984111713094,43.84027516270208],[4.459835470518344,43.8402757827159],[4.4591660465995915,43.84037316324127],[4.459160051347695,43.84037426569517],[4.459155539758338,43.840377328715384],[4.458554605076856,43.84082866055645],[4.458545631832436,43.840836192401234],[4.456124597100733,43.843111407547454],[4.4561212259089915,43.843114912727565]]]},"properties":{"scenario":"t100","wse_m":54.44,"source":"ppri+lidar"}},{"type":"Feature","geometry":{"type":"Polygon","coordinates":[[[4.469238873335118,43.843028751805825],[4.469244677287597,43.8430289093672],[4.479240948462574,43.842938763393704],[4.479246271063398,43.842938528999746],[4.479242424160821,43.842935856308685],[4.47659637913662,43.841267207443536],[4.476592049529193,43.84126471508132],[4.476586796349533,43.84126348569394],[4.472785235020529,43.8405071147596],[4.4727798038175655,43.84050622256432],[4.472774240767099,43.840506413891646],[4.471110477186009,43.84061822123609],[4.471104129307668,43.840618892768475],[4.471099549900227,43.84062214465962],[4.469889692641367,43.84157658905293],[4.469885488678834,43.84158028585175],[4.469883119851076,43.841584756330576],[4.469240381072229,43.8430246922447],[4.469238873335118,43.843028751805825]]]},"properties":{"scenario":"t100","wse_m":54.44,"source":"ppri+lidar"}}]}