{"type": "FeatureCollection", "features": [{"type": "Feature", "properties": {"nom": "Zone AO Nîmes Métropole", "nb_communes": 42}, "geometry": {"type": "Polygon", "coordinates": [[[4.080572, 43.5906685], [4.0826874, 43.591366], [4.0845918, 43.5919615], [4.0849117, 43.5920241], [4.0851966, 43.5920372], [4.0854504, 43.5920158], [4.0859671, 43.5918658], [4.0868334, 43.59151], [4.0877072, 43.5910652], [4.0885717, 43.5906044], [4.0928098, 43.5882779], [4.0962213, 43.5863401], [4.0963219, 43.5862866], [4.0982375, 43.5852038], [4.098347, 43.5851637], [4.09852, 43.5851384], [4.0988423, 43.5851225], [4.0999441, 43.5851909], [4.1004476, 43.585246], [4.1009592, 43.5853089], [4.1012445, 43.585322], [4.1028412, 43.5851707], [4.1032759, 43.5851354], [4.1036546, 43.5851308], [4.1041794, 43.5853462], [4.1050114, 43.5855089], [4.1083717, 43.5861536], [4.1140817, 43.5872805], [4.1180295, 43.5880696], [4.1214837, 43.5886701], [4.1234047, 43.5889455], [4.1240299, 43.5890127], [4.1251205, 43.5890435], [4.1259376, 43.5889726], [4.1268084, 43.5887443], [4.1277461, 43.5883697], [4.1284023, 43.5880188], [4.1299648, 43.5871698], [4.1305187, 43.5869245], [4.1312167, 43.5867301], [4.1438046, 43.585067], [4.1448038, 43.5850071], [4.1460144, 43.5849987], [4.1473377, 43.5851224], [4.1494204, 43.5853957], [4.1494667, 43.5854012], [4.1498517, 43.5854455], [4.1502375, 43.5854804], [4.1503392, 43.5856474], [4.1506406, 43.5868519], [4.1505361, 43.5882129], [4.1502732, 43.5896234], [4.1498997, 43.5934486], [4.1498709, 43.5941769], [4.1495574, 43.5952852], [4.1493635, 43.5963419], [4.1492999, 43.5973362], [4.14935, 43.5975949], [4.1495068, 43.5978613], [4.1496885, 43.5980328], [4.1499671, 43.5982239], [4.150292, 43.5983649], [4.1515982, 43.5986408], [4.154258, 43.5993019], [4.1553336, 43.5995692], [4.1558093, 43.5997246], [4.1562974, 43.6000121], [4.1613641, 43.6036699], [4.1618127, 43.6039981], [4.1648533, 43.6062226], [4.1679798, 43.6083679], [4.1683942, 43.6087444], [4.1688173, 43.6092667], [4.17106, 43.6121816], [4.1719839, 43.6133333], [4.1743276, 43.6165724], [4.176966, 43.620203], [4.177539, 43.6209914], [4.1781145, 43.6218696], [4.1785003, 43.6223895], [4.1789621, 43.6228599], [4.1792063, 43.6231862], [4.1802953, 43.624995], [4.1810309, 43.6259103], [4.1822132, 43.6272202], [4.1835138, 43.628768], [4.1847059, 43.6303668], [4.185691, 43.6320457], [4.1867342, 43.6333856], [4.1873521, 43.6343261], [4.1878894, 43.6352563], [4.1884291, 43.6361174], [4.1890293, 43.636699], [4.1895846, 43.637515], [4.1898034, 43.6377081], [4.1901898, 43.6380183], [4.190275, 43.638274], [4.1903747, 43.6385332], [4.1910437, 43.6391874], [4.191872, 43.6400066], [4.1925192, 43.6407193], [4.1935687, 43.6417021], [4.1937639, 43.6419247], [4.1937918, 43.6421302], [4.1937741, 43.6422703], [4.1936231, 43.6426963], [4.1934024, 43.6430276], [4.1930021, 43.6433644], [4.1922297, 43.6438463], [4.1921169, 43.6439813], [4.1920191, 43.6443151], [4.1920406, 43.644973], [4.1919573, 43.645331], [4.1917804, 43.6455941], [4.1909399, 43.6465524], [4.1908255, 43.6468305], [4.1907397, 43.6472031], [4.1907319, 43.6475048], [4.1908362, 43.6479368], [4.1911787, 43.6489188], [4.1912949, 43.6491342], [4.1915199, 43.6493717], [4.1929774, 43.6503543], [4.1932368, 43.6505995], [4.1934593, 43.6508985], [4.1937217, 43.6516739], [4.1942156, 43.6526651], [4.1945592, 43.6535552], [4.1946047, 43.6538705], [4.1945323, 43.6540734], [4.1944332, 43.6542418], [4.1942211, 43.6544442], [4.193961, 43.6545663], [4.1934609, 43.6547252], [4.192711, 43.6549055], [4.192231, 43.6550786], [4.1919148, 43.6552288], [4.1912795, 43.6557335], [4.1905089, 43.6565039], [4.1895459, 43.6577686], [4.1892323, 43.6582106], [4.1889587, 43.6586977], [4.1887925, 43.6589567], [4.1884571, 43.659307], [4.1879114, 43.6597542], [4.1874754, 43.6602695], [4.1870826, 43.6608796], [4.1866415, 43.6621667], [4.1865325, 43.6636106], [4.1864777, 43.6639931], [4.1863395, 43.664329], [4.185681, 43.6652981], [4.1846607, 43.666464], [4.1841584, 43.6667397], [4.183723, 43.6668375], [4.1831211, 43.6668935], [4.1826689, 43.6669752], [4.1820304, 43.6672188], [4.1818539, 43.6673057], [4.1812126, 43.6676737], [4.1809577, 43.6680501], [4.1808233, 43.6684271], [4.1807091, 43.6690354], [4.1807871, 43.6702667], [4.1808316, 43.6707042], [4.1807573, 43.6710272], [4.1805419, 43.6712455], [4.18026, 43.6714075], [4.1798932, 43.6715185], [4.179408, 43.6716052], [4.1793707, 43.6716118], [4.1782037, 43.6718203], [4.1778007, 43.6719788], [4.177522, 43.6721467], [4.1774252, 43.6723281], [4.177382, 43.6726097], [4.1774976, 43.6729042], [4.1776275, 43.6730394], [4.1780385, 43.6734633], [4.1788242, 43.6741776], [4.1791847, 43.6746153], [4.1793095, 43.6748724], [4.179351, 43.6750867], [4.1792831, 43.6753479], [4.1791686, 43.6755834], [4.179005, 43.6758132], [4.1785899, 43.6761754], [4.1779858, 43.6764408], [4.1775466, 43.6765638], [4.1770351, 43.6766195], [4.1753203, 43.6766841], [4.1748236, 43.6767802], [4.1742146, 43.6771372], [4.1739624, 43.6773379], [4.1736466, 43.6778022], [4.1734028, 43.678354], [4.1730849, 43.6789575], [4.1724115, 43.6798364], [4.1717142, 43.6806671], [4.170827, 43.681333], [4.1704892, 43.6815114], [4.1698056, 43.6818725], [4.1689883, 43.6824589], [4.1676141, 43.6837238], [4.1669027, 43.6845115], [4.1667125, 43.6846907], [4.1663062, 43.6849071], [4.1657764, 43.6851155], [4.1653785, 43.6853702], [4.1648464, 43.6858143], [4.1645667, 43.6860387], [4.1638024, 43.6864686], [4.1634295, 43.6867079], [4.1632282, 43.6868543], [4.1630277, 43.6871379], [4.1628284, 43.6875835], [4.1628045, 43.6878774], [4.1628161, 43.6882043], [4.1629884, 43.6888453], [4.1632605, 43.6895299], [4.1635966, 43.6901353], [4.1638098, 43.6904573], [4.1643226, 43.6914121], [4.1644662, 43.6921475], [4.1643406, 43.6925725], [4.1641233, 43.6928341], [4.1639443, 43.6931925], [4.163924, 43.6933932], [4.1638098, 43.6938317], [4.1634776, 43.6941757], [4.163655, 43.6948211], [4.1637727, 43.6952404], [4.1650457, 43.6960959], [4.166133, 43.6971331], [4.166648, 43.6985294], [4.1666203, 43.6993335], [4.1662236, 43.6999913], [4.1652747, 43.7007323], [4.1635581, 43.7025007], [4.1635588, 43.7025746], [4.1635071, 43.7049256], [4.1636931, 43.7060801], [4.1636918, 43.7065302], [4.163601, 43.706751], [4.1632127, 43.7071297], [4.1616176, 43.7082126], [4.1613628, 43.7084676], [4.1612381, 43.7088742], [4.161066, 43.7089874], [4.1606986, 43.7091956], [4.1600683, 43.7098892], [4.1585179, 43.7114513], [4.1558349, 43.7132831], [4.1549738, 43.7139208], [4.1542455, 43.7145683], [4.1537445, 43.7149818], [4.1530536, 43.7158067], [4.1514989, 43.7178562], [4.1513926, 43.7185218], [4.1512414, 43.719469], [4.1512567, 43.7199158], [4.1513272, 43.7219813], [4.1497393, 43.7238732], [4.1496006, 43.7239579], [4.1466046, 43.7256818], [4.1460639, 43.726637], [4.1450187, 43.7316572], [4.1449267, 43.732413], [4.144916, 43.7336157], [4.1446753, 43.734479], [4.1445326, 43.7348552], [4.1440904, 43.7355646], [4.1434392, 43.7363631], [4.1427389, 43.7372216], [4.1424571, 43.7374319], [4.1424189, 43.7374604], [4.1417592, 43.7378881], [4.1412036, 43.7382188], [4.139642, 43.7389553], [4.1380838, 43.7394683], [4.1363316, 43.7399479], [4.1350999, 43.7402987], [4.1341027, 43.740442], [4.1324448, 43.7405952], [4.1309286, 43.7406881], [4.1304326, 43.7406956], [4.1294266, 43.7407107], [4.1277631, 43.7405958], [4.1254831, 43.7398034], [4.1242667, 43.7393137], [4.1233278, 43.7384102], [4.1224261, 43.7371517], [4.1219038, 43.7368496], [4.1213079, 43.7367979], [4.1208258, 43.7368465], [4.1201087, 43.7369591], [4.119551, 43.7370187], [4.1187397, 43.7370444], [4.1179502, 43.7369735], [4.1161455, 43.736961], [4.1147289, 43.7373544], [4.1132613, 43.738293], [4.1123857, 43.7391237], [4.1116337, 43.7401253], [4.1129003, 43.7407623], [4.1133683, 43.7406306], [4.1136251, 43.7410932], [4.117727, 43.7438905], [4.1203278, 43.7452598], [4.121924, 43.74651], [4.1200055, 43.7483545], [4.1208305, 43.7491607], [4.1241869, 43.7547378], [4.125347, 43.7571768], [4.1257107, 43.7573784], [4.1264637, 43.7595957], [4.1282939, 43.7595669], [4.1293054, 43.7613342], [4.1335278, 43.763787], [4.1344056, 43.7645892], [4.136161, 43.7661932], [4.1366172, 43.7666101], [4.13817, 43.7668654], [4.1385517, 43.7667142], [4.1399175, 43.767408], [4.140091, 43.7674281], [4.1433776, 43.7678092], [4.1428779, 43.768338], [4.142648, 43.7683748], [4.1417125, 43.7691411], [4.1410779, 43.7694625], [4.1408044, 43.7699959], [4.1408529, 43.7703801], [4.1402676, 43.7704092], [4.1400002, 43.7705479], [4.1395076, 43.7706357], [4.139213, 43.7707846], [4.1391762, 43.7710171], [4.1390023, 43.7712543], [4.1387741, 43.7722516], [4.1386716, 43.7728794], [4.1374923, 43.7727188], [4.1373426, 43.7727899], [4.1367699, 43.7727558], [4.1365799, 43.7733547], [4.1365762, 43.7738821], [4.1364274, 43.7739996], [4.1364556, 43.7745234], [4.1364107, 43.7749261], [4.1371515, 43.7747718], [4.1371296, 43.7757869], [4.1370594, 43.7764277], [4.1374905, 43.7767119], [4.1374772, 43.7772162], [4.1375976, 43.77753], [4.1373487, 43.7779172], [4.1373145, 43.7780436], [4.1370979, 43.778073], [4.137144, 43.7784665], [4.1371146, 43.7793291], [4.1372159, 43.7795967], [4.1376308, 43.7797551], [4.137087, 43.7800424], [4.1378823, 43.7826214], [4.138057, 43.7829049], [4.137996, 43.7830647], [4.1384419, 43.783886], [4.1386128, 43.7839639], [4.1390207, 43.7847094], [4.1395566, 43.7847272], [4.1404018, 43.7855944], [4.1421288, 43.7875703], [4.1428032, 43.7883628], [4.1453622, 43.7909804], [4.1463496, 43.7918593], [4.1470347, 43.7933743], [4.1471154, 43.793841], [4.1471605, 43.794102], [4.1471894, 43.7942694], [4.147145, 43.7943354], [4.1436588, 43.7995258], [4.1442824, 43.8000972], [4.1444009, 43.8002058], [4.1444499, 43.8006139], [4.1442045, 43.8010825], [4.1439714, 43.8014855], [4.1438692, 43.801895], [4.144013, 43.8022224], [4.1444583, 43.8024869], [4.144742, 43.8029324], [4.1446883, 43.8037201], [4.1447221, 43.8040485], [4.1454177, 43.8051674], [4.1457289, 43.8054786], [4.1465778, 43.8061222], [4.1476494, 43.8060417], [4.1481134, 43.8058477], [4.1489788, 43.8057792], [4.1492923, 43.8056265], [4.1505125, 43.8053651], [4.1513271, 43.8049677], [4.151519, 43.8065615], [4.1514909, 43.8067804], [4.151122, 43.8096596], [4.15096, 43.8138062], [4.1533598, 43.8156112], [4.1573716, 43.8159986], [4.1577855, 43.8205597], [4.1578028, 43.82075], [4.158115, 43.824152], [4.1583572, 43.8294391], [4.1604008, 43.8321588], [4.1609843, 43.8328119], [4.1660478, 43.8362057], [4.1771649, 43.8436564], [4.1799545, 43.8459485], [4.1812263, 43.8471422], [4.1825138, 43.8483506], [4.1841471, 43.8518794], [4.1864669, 43.8581913], [4.1951217, 43.8583751], [4.1942889, 43.8561623], [4.195816, 43.8538321], [4.2001915, 43.8496822], [4.2005566, 43.8489877], [4.2080981, 43.8525031], [4.2087523, 43.8523956], [4.210067, 43.8530282], [4.2103854, 43.8536431], [4.2104437, 43.8544325], [4.2111263, 43.8555828], [4.21126, 43.8562344], [4.2115077, 43.857442], [4.2115594, 43.8576938], [4.2098332, 43.8590203], [4.2098947, 43.8594213], [4.2104521, 43.8599591], [4.2110992, 43.8605835], [4.2117976, 43.8607218], [4.2125268, 43.8611267], [4.213429, 43.8609989], [4.2210782, 43.8599155], [4.2274097, 43.8599176], [4.2276919, 43.8598511], [4.2358251, 43.8579333], [4.2378581, 43.8572412], [4.2397285, 43.8569403], [4.2373059, 43.8582625], [4.2378664, 43.8602186], [4.2356708, 43.8651106], [4.2368941, 43.8680642], [4.2359677, 43.8688331], [4.2362454, 43.8744072], [4.237118, 43.8748261], [4.2412087, 43.8767908], [4.241736, 43.8788706], [4.2424234, 43.8815819], [4.247306, 43.8863333], [4.2482229, 43.8880877], [4.2490124, 43.8901047], [4.2480278, 43.8918902], [4.2484604, 43.8940696], [4.2488528, 43.8941537], [4.2562862, 43.8957467], [4.2582015, 43.8969277], [4.2601586, 43.8998648], [4.2659325, 43.9002143], [4.2671215, 43.9007822], [4.2678413, 43.9014255], [4.2679235, 43.9017651], [4.2677396, 43.9023446], [4.2682646, 43.9031173], [4.2684543, 43.9039641], [4.2688957, 43.90466], [4.2686745, 43.9054507], [4.2699702, 43.9082975], [4.2738344, 43.9067588], [4.2747846, 43.9065835], [4.2767068, 43.9065195], [4.2775759, 43.9059889], [4.2798858, 43.9058993], [4.2821968, 43.9051441], [4.283969, 43.9047934], [4.2849195, 43.9048017], [4.284465, 43.906201], [4.2846399, 43.9073876], [4.2845376, 43.9083341], [4.2890383, 43.90501], [4.3002577, 43.901225], [4.3045736, 43.8995099], [4.3087226, 43.8986399], [4.3101139, 43.8983909], [4.3131574, 43.8974781], [4.3229205, 43.8953066], [4.3289692, 43.8952743], [4.3301962, 43.8959667], [4.3310933, 43.896026], [4.3321045, 43.8966629], [4.3337849, 43.8966429], [4.3345424, 43.8971382], [4.3354979, 43.8975737], [4.3394742, 43.896817], [4.3396888, 43.8974136], [4.3402294, 43.8979992], [4.3403924, 43.8987312], [4.3408106, 43.8991387], [4.3412043, 43.8992724], [4.3425995, 43.9006168], [4.342712, 43.9020507], [4.3421126, 43.9039006], [4.341102, 43.9045387], [4.3413811, 43.9066497], [4.3448327, 43.9083973], [4.346905, 43.9076162], [4.3518039, 43.9071133], [4.354196, 43.9072228], [4.3549251, 43.9064605], [4.355783, 43.9057601], [4.35622, 43.9058156], [4.3567556, 43.9065953], [4.3568191, 43.9075915], [4.3589946, 43.9073656], [4.3601897, 43.9073145], [4.361256, 43.907016], [4.3627799, 43.9065199], [4.3643177, 43.9064339], [4.3653932, 43.9060242], [4.3685144, 43.9058432], [4.3703607, 43.9053277], [4.3733565, 43.9051587], [4.3769095, 43.9051441], [4.378818, 43.9045685], [4.3791876, 43.9037822], [4.3817519, 43.9035778], [4.3845416, 43.9035643], [4.3881522, 43.9027203], [4.3911897, 43.9030796], [4.3937108, 43.9028231], [4.3960109, 43.9028528], [4.3943737, 43.9041713], [4.3931089, 43.9046421], [4.3913061, 43.9078617], [4.3912963, 43.9085185], [4.3902473, 43.9099295], [4.3830943, 43.9139997], [4.3761242, 43.9171095], [4.37619, 43.9179882], [4.3804192, 43.9177261], [4.3866425, 43.9177014], [4.3878808, 43.9191281], [4.389708, 43.9204764], [4.3911238, 43.9230177], [4.3938701, 43.9228967], [4.3936234, 43.9214753], [4.3943838, 43.9206108], [4.3966399, 43.9205732], [4.3980414, 43.9214583], [4.3980807, 43.9220106], [4.398639, 43.922437], [4.3981318, 43.9242114], [4.3983253, 43.9250036], [4.3992589, 43.9258016], [4.4007901, 43.9258321], [4.4019456, 43.9266405], [4.4021498, 43.9275927], [4.4020771, 43.9286899], [4.4034288, 43.9287672], [4.4038729, 43.9282208], [4.4071703, 43.9286702], [4.4070623, 43.929618], [4.4076027, 43.9301029], [4.4086823, 43.9302442], [4.4082252, 43.931212], [4.4086394, 43.9321212], [4.4082328, 43.9325878], [4.4085808, 43.9329369], [4.4133213, 43.9318468], [4.4139845, 43.9317643], [4.4140489, 43.9296172], [4.4155487, 43.9299], [4.4173624, 43.9305217], [4.4175756, 43.930285], [4.418641, 43.9302364], [4.4191098, 43.9313337], [4.4193906, 43.9315178], [4.4214716, 43.9311451], [4.4237138, 43.9313514], [4.4338223, 43.930802], [4.4378448, 43.9295347], [4.4440705, 43.9295453], [4.4480563, 43.9297724], [4.4532104, 43.9292554], [4.4553205, 43.9293521], [4.4577574, 43.9301767], [4.4646831, 43.929232], [4.4703985, 43.9289255], [4.4717627, 43.9273733], [4.4740948, 43.9247196], [4.4774735, 43.9205577], [4.4785472, 43.9201059], [4.4802967, 43.9193696], [4.4840692, 43.9185615], [4.4851674, 43.9183263], [4.4878396, 43.9184619], [4.4889839, 43.9217231], [4.4891087, 43.9251737], [4.4891376, 43.9253833], [4.4892571, 43.9262516], [4.4905785, 43.9274919], [4.4906061, 43.9282558], [4.4926235, 43.9315916], [4.493307, 43.9343463], [4.4931054, 43.9348246], [4.4936329, 43.9352891], [4.4936749, 43.936448], [4.4938581, 43.9365915], [4.4942006, 43.9368598], [4.494227, 43.9370494], [4.4942993, 43.9375697], [4.4934866, 43.9382967], [4.4943346, 43.9385443], [4.4942875, 43.9392569], [4.4936176, 43.9409038], [4.4948993, 43.9410377], [4.4954729, 43.9417649], [4.4959777, 43.94191], [4.496247, 43.9419874], [4.4962766, 43.9421255], [4.4964666, 43.9430113], [4.4972027, 43.942976], [4.497377, 43.9429676], [4.4985897, 43.9432082], [4.5002533, 43.941806], [4.50328, 43.9407733], [4.5045703, 43.9391408], [4.5063785, 43.938711], [4.50745, 43.9382686], [4.5083191, 43.9379097], [4.5083467, 43.9378925], [4.5086527, 43.9377021], [4.5087981, 43.9376116], [4.5100668, 43.936822], [4.5120966, 43.936467], [4.5133033, 43.9365494], [4.514606, 43.9362609], [4.5213979, 43.9374489], [4.5233543, 43.9360935], [4.5221721, 43.9317141], [4.5223711, 43.9301815], [4.5217986, 43.9275038], [4.5217645, 43.9272989], [4.5213307, 43.9246924], [4.521751, 43.9222329], [4.523031, 43.9213385], [4.5277599, 43.9190335], [4.5286622, 43.9187789], [4.5305431, 43.917372], [4.5270977, 43.9129309], [4.5273818, 43.9129143], [4.5278256, 43.9128885], [4.5280481, 43.9128755], [4.5318277, 43.9126553], [4.5416177, 43.9117382], [4.5449726, 43.9170443], [4.5492839, 43.9196814], [4.5529503, 43.921924], [4.5548556, 43.9239777], [4.5567672, 43.9257549], [4.5587889, 43.9282509], [4.5589444, 43.9306107], [4.5593164, 43.9316892], [4.5589108, 43.9328506], [4.5584887, 43.9331232], [4.5582897, 43.9335837], [4.5575272, 43.9340912], [4.5575362, 43.9343313], [4.558785, 43.9339345], [4.559734, 43.9326303], [4.5602131, 43.9325488], [4.5611053, 43.9318375], [4.5620053, 43.93112], [4.5629092, 43.9295043], [4.563237, 43.9293777], [4.5635064, 43.9285794], [4.5644958, 43.9273515], [4.5646208, 43.9271964], [4.5664773, 43.9248925], [4.578592, 43.9243183], [4.5781406, 43.9207224], [4.5794703, 43.9185093], [4.5831461, 43.9024803], [4.5835097, 43.9008942], [4.5756722, 43.8992983], [4.5677773, 43.8997055], [4.5577025, 43.89959], [4.5492511, 43.8991648], [4.548732, 43.8991387], [4.5478916, 43.8990964], [4.547279, 43.8990656], [4.5473484, 43.8989757], [4.5493798, 43.8963419], [4.5504294, 43.8941886], [4.5505991, 43.8938404], [4.5507664, 43.8885388], [4.546506, 43.8886479], [4.5441994, 43.8893517], [4.5380615, 43.8899449], [4.5400264, 43.8819727], [4.5346645, 43.8788868], [4.5303611, 43.87781], [4.5241517, 43.8776121], [4.5225511, 43.8727088], [4.5222307, 43.8717272], [4.5220781, 43.8712598], [4.5217585, 43.8702806], [4.5206373, 43.8667365], [4.5222459, 43.8635153], [4.5236149, 43.8601017], [4.5237701, 43.8601244], [4.5240871, 43.8601349], [4.5284023, 43.8602783], [4.528633, 43.8603631], [4.5329071, 43.8564178], [4.5352711, 43.8557299], [4.5337897, 43.8525578], [4.5340321, 43.8512937], [4.5356843, 43.8426777], [4.5290384, 43.8399069], [4.5272414, 43.8315645], [4.5216651, 43.8274411], [4.5258918, 43.8233482], [4.5267947, 43.8200441], [4.535255, 43.8083181], [4.5376442, 43.8038472], [4.5400676, 43.799359], [4.5274192, 43.7877544], [4.5221997, 43.7861092], [4.5123371, 43.7841947], [4.5046176, 43.783165], [4.4989045, 43.7835044], [4.4970395, 43.78305], [4.4961784, 43.7831559], [4.4824944, 43.7819648], [4.4768164, 43.7807469], [4.4708337, 43.7772338], [4.4680356, 43.7742266], [4.4669581, 43.772951], [4.4634311, 43.7676713], [4.455628, 43.7642515], [4.4559139, 43.7612469], [4.4546589, 43.7544909], [4.453279, 43.7500485], [4.4451179, 43.7472512], [4.4445877, 43.7471825], [4.4416409, 43.7461004], [4.4416044, 43.746087], [4.4459304, 43.7322916], [4.4462693, 43.7261942], [4.446823, 43.722598], [4.4466225, 43.7222677], [4.4470384, 43.7216932], [4.4473307, 43.7214185], [4.4480038, 43.721437], [4.4482226, 43.7212351], [4.4485042, 43.721268], [4.4491347, 43.7210703], [4.4496117, 43.7207141], [4.4502186, 43.7187663], [4.4512091, 43.7167361], [4.4526929, 43.7152521], [4.4556272, 43.7129922], [4.4577912, 43.7114012], [4.4616048, 43.7099071], [4.4638631, 43.7087926], [4.4698827, 43.7063028], [4.4699214, 43.706114], [4.474205, 43.704316], [4.4751367, 43.7042517], [4.4752678, 43.7038179], [4.477941, 43.7027724], [4.4783051, 43.7018132], [4.4797825, 43.7019851], [4.4815013, 43.7013175], [4.481607, 43.7005767], [4.4831145, 43.7006085], [4.482874, 43.6994864], [4.4829652, 43.6994755], [4.4840674, 43.6997216], [4.484773, 43.6999438], [4.4861445, 43.6987222], [4.4855272, 43.6982301], [4.4837202, 43.6966551], [4.4811939, 43.693959], [4.4786037, 43.6908465], [4.4783122, 43.6904156], [4.4778578, 43.6893219], [4.4770539, 43.6876603], [4.4762203, 43.6856655], [4.4760593, 43.685106], [4.4759778, 43.6845589], [4.4759921, 43.6840296], [4.4760273, 43.6835358], [4.4766259, 43.6814833], [4.4774017, 43.6798233], [4.4781663, 43.678408], [4.4783039, 43.6779977], [4.4785363, 43.6768856], [4.4786375, 43.675508], [4.4785109, 43.6745471], [4.4784412, 43.6741058], [4.478279, 43.6736526], [4.4779104, 43.672904], [4.4765637, 43.6716778], [4.4757967, 43.6711679], [4.4735443, 43.6704313], [4.4716141, 43.6699067], [4.4710172, 43.6698166], [4.4699384, 43.6695639], [4.4684695, 43.6693285], [4.4670917, 43.6692134], [4.4651963, 43.6692037], [4.4621459, 43.6688547], [4.4607284, 43.6685948], [4.4593429, 43.6682841], [4.4577683, 43.6678655], [4.4550899, 43.6669257], [4.4541138, 43.6664492], [4.4526275, 43.6654693], [4.4516429, 43.6646245], [4.4509384, 43.6638385], [4.4487331, 43.6606327], [4.4466738, 43.6581154], [4.4436154, 43.6529399], [4.4433537, 43.6525682], [4.4423409, 43.6514506], [4.441174, 43.6498279], [4.4395305, 43.6468461], [4.438492, 43.6454115], [4.4378761, 43.6443277], [4.4374707, 43.6435065], [4.4365205, 43.6395431], [4.4355053, 43.636308], [4.4336559, 43.6325613], [4.4331644, 43.6318067], [4.4320747, 43.6304751], [4.4312058, 43.6296728], [4.4279317, 43.6271584], [4.4270895, 43.626274], [4.4266201, 43.6255405], [4.4262285, 43.6245821], [4.4261112, 43.6238993], [4.4260793, 43.6232487], [4.4261479, 43.6227516], [4.426415, 43.621913], [4.4269726, 43.6210237], [4.4284041, 43.6194182], [4.4303071, 43.6175956], [4.4319169, 43.6162905], [4.4384473, 43.6115561], [4.4394574, 43.6110742], [4.4405306, 43.6107005], [4.4423283, 43.6103405], [4.444097, 43.6101203], [4.4452705, 43.6100658], [4.4464557, 43.6101531], [4.4491545, 43.6105315], [4.4508599, 43.6108265], [4.4539467, 43.6112457], [4.4551173, 43.6116453], [4.457917, 43.6128198], [4.4596767, 43.6136781], [4.4623484, 43.6150779], [4.4635805, 43.6152983], [4.4647505, 43.6154073], [4.4658529, 43.615335], [4.4674975, 43.615039], [4.4680663, 43.6148951], [4.4687041, 43.6146408], [4.4693541, 43.6142857], [4.4710362, 43.6131119], [4.4725951, 43.6119342], [4.4735275, 43.6110616], [4.4741848, 43.6102295], [4.4750334, 43.6089558], [4.4754878, 43.6074041], [4.475508, 43.6070326], [4.4749191, 43.6054659], [4.4744524, 43.6045302], [4.4741829, 43.6041422], [4.4734314, 43.6034154], [4.4724272, 43.6027763], [4.469833, 43.6013767], [4.4687462, 43.6006978], [4.4677048, 43.5999222], [4.4670037, 43.5992371], [4.4666251, 43.5987849], [4.4654819, 43.5969723], [4.4630573, 43.5923026], [4.4622077, 43.5909539], [4.4614967, 43.5900348], [4.4607245, 43.5892532], [4.4603657, 43.5889619], [4.4563388, 43.5862397], [4.4554474, 43.5857161], [4.4546452, 43.5852759], [4.4523479, 43.5843411], [4.450983, 43.5839087], [4.4490318, 43.5834726], [4.4487264, 43.5834011], [4.4456124, 43.5831609], [4.445239, 43.5831987], [4.444586, 43.5833141], [4.4393968, 43.5841275], [4.4341172, 43.585433], [4.433671, 43.5854843], [4.4331739, 43.5855047], [4.4280682, 43.5858463], [4.4279079, 43.585824], [4.4255941, 43.5853312], [4.425402, 43.5852796], [4.4233692, 43.5844198], [4.4227304, 43.5841051], [4.4168798, 43.5808603], [4.4147318, 43.5797374], [4.4102785, 43.5774609], [4.4054035, 43.5748986], [4.4046527, 43.5745167], [4.404183, 43.574239], [4.4028163, 43.5731994], [4.4027917, 43.5731544], [4.4029762, 43.5724934], [4.4030074, 43.5724385], [4.4030887, 43.5723988], [4.4048007, 43.5719981], [4.4049166, 43.5720015], [4.4072477, 43.5724073], [4.4076954, 43.5724702], [4.4119601, 43.5729053], [4.4124793, 43.57297], [4.4127999, 43.572977], [4.4152343, 43.5726587], [4.4153435, 43.5726221], [4.4153895, 43.5725775], [4.4166376, 43.5706402], [4.4166923, 43.5705155], [4.4164001, 43.5678853], [4.4163229, 43.5677485], [4.4156549, 43.5667856], [4.4154035, 43.5663883], [4.4151304, 43.56604], [4.4116829, 43.5627839], [4.4113806, 43.5625246], [4.4091005, 43.5609853], [4.4088589, 43.5608589], [4.4057323, 43.5595398], [4.4056041, 43.5595082], [4.4021657, 43.559443], [4.4018135, 43.5594898], [4.3998492, 43.5599087], [4.3973832, 43.5607674], [4.3971562, 43.560816], [4.3944405, 43.5610241], [4.3942727, 43.561061], [4.3907241, 43.5623225], [4.390352, 43.5624664], [4.3901272, 43.5625236], [4.387868, 43.5625432], [4.3877541, 43.5624929], [4.3874734, 43.5622887], [4.3874292, 43.5621425], [4.3874203, 43.5619564], [4.3870359, 43.559164], [4.3869498, 43.5589352], [4.3855443, 43.5560994], [4.3854856, 43.5560178], [4.3828781, 43.5537322], [4.3824836, 43.553509], [4.3807318, 43.5526222], [4.3802253, 43.5524311], [4.3773461, 43.5514816], [4.3764092, 43.5511372], [4.3696197, 43.548355], [4.3693061, 43.5482466], [4.364837, 43.5472436], [4.3645462, 43.5471891], [4.3616101, 43.546948], [4.3612762, 43.5469537], [4.3606234, 43.5470118], [4.355266, 43.5474024], [4.353491, 43.5473576], [4.3527296, 43.5473165], [4.3522346, 43.547275], [4.3518498, 43.5472049], [4.3514162, 43.547113], [4.3511101, 43.5470438], [4.3508297, 43.5469366], [4.3504465, 43.5467975], [4.3501914, 43.5466543], [4.3500728, 43.5465765], [4.3500158, 43.5465237], [4.3500057, 43.5464752], [4.3499936, 43.546256], [4.34977, 43.5454849], [4.3496712, 43.5450299], [4.3491551, 43.5424936], [4.3487067, 43.5424321], [4.3485266, 43.5424043], [4.3474461, 43.5421536], [4.3472556, 43.5420111], [4.3450634, 43.5405284], [4.3436601, 43.5397324], [4.3425408, 43.5391066], [4.3422542, 43.5389579], [4.3382096, 43.5370293], [4.3359403, 43.5361391], [4.33551, 43.5364338], [4.3349286, 43.5360181], [4.3342317, 43.5354913], [4.3332737, 43.5354784], [4.332315, 43.5355631], [4.3319701, 43.5356372], [4.3316694, 43.5357478], [4.3293906, 43.536886], [4.3290791, 43.5370503], [4.3286645, 43.5372891], [4.3266105, 43.5385689], [4.3256812, 43.5390977], [4.3247823, 43.5395877], [4.3240933, 43.5399403], [4.3234035, 43.5402674], [4.3222401, 43.5407967], [4.3215628, 43.5411172], [4.3207156, 43.5415482], [4.3198878, 43.541997], [4.3191204, 43.5424366], [4.3185728, 43.5427705], [4.3180426, 43.5431169], [4.3175321, 43.5434801], [4.3172852, 43.5436701], [4.3167282, 43.5441285], [4.3165188, 43.5443192], [4.3163297, 43.5445181], [4.3161768, 43.5447262], [4.3160726, 43.5449411], [4.3157905, 43.5458142], [4.3157389, 43.5460275], [4.3157068, 43.5462426], [4.3157004, 43.5464639], [4.3157332, 43.5468538], [4.3157685, 43.5470501], [4.3158207, 43.547243], [4.3158933, 43.5474293], [4.3160539, 43.5477114], [4.3162573, 43.5479738], [4.3164944, 43.5482198], [4.3167561, 43.5484539], [4.3172053, 43.5488145], [4.3177474, 43.5491825], [4.3181271, 43.5494099], [4.318518, 43.5496297], [4.3212232, 43.5510954], [4.3214479, 43.5512268], [4.3216992, 43.5513929], [4.3219387, 43.5515699], [4.3221639, 43.5517565], [4.3223722, 43.5519529], [4.322561, 43.5521581], [4.3227282, 43.5523731], [4.3228711, 43.5525958], [4.322987, 43.5528262], [4.3230737, 43.5530645], [4.3231287, 43.5533105], [4.3231416, 43.5534656], [4.3231338, 43.5536156], [4.3231069, 43.5537627], [4.323063, 43.5539057], [4.3230037, 43.5540457], [4.3228469, 43.5543176], [4.3226511, 43.5545804], [4.3223549, 43.5549295], [4.3220203, 43.5552853], [4.3218723, 43.55542], [4.3215601, 43.5556703], [4.321225, 43.5559082], [4.3208734, 43.5561345], [4.3205119, 43.5563514], [4.3196074, 43.5568617], [4.319383, 43.5569749], [4.3187691, 43.5572394], [4.3186922, 43.5572605], [4.3186009, 43.5572661], [4.3185038, 43.5572649], [4.3181957, 43.5569715], [4.3179881, 43.5568783], [4.3141169, 43.5556683], [4.3140305, 43.5555629], [4.3140306, 43.5554505], [4.3142928, 43.5551717], [4.3155116, 43.5545198], [4.3170928, 43.5536299], [4.3172689, 43.5533691], [4.3173343, 43.5530663], [4.3173414, 43.5527125], [4.3172571, 43.5524425], [4.3169912, 43.5519262], [4.3165372, 43.5515339], [4.3161493, 43.5513185], [4.3157595, 43.5511581], [4.3154097, 43.5510655], [4.3147546, 43.5509783], [4.3142524, 43.5509514], [4.3137348, 43.5510317], [4.3132243, 43.5512134], [4.3127118, 43.551332], [4.3118309, 43.5513693], [4.3115545, 43.5513303], [4.3113375, 43.5512655], [4.3111872, 43.5511667], [4.3097167, 43.549783], [4.30795, 43.5478754], [4.3078205, 43.5476062], [4.307698, 43.5472053], [4.3076988, 43.5465418], [4.3078865, 43.5454884], [4.3082028, 43.5449044], [4.3093652, 43.5435763], [4.3100129, 43.5428713], [4.3115643, 43.5409963], [4.31323, 43.5389356], [4.31643, 43.5343804], [4.3170811, 43.5336698], [4.3180786, 43.5327229], [4.3183735, 43.5325231], [4.3217196, 43.5309208], [4.3224414, 43.530527], [4.3225996, 43.5304118], [4.3236954, 43.5289093], [4.3238953, 43.5286892], [4.3244736, 43.528287], [4.3223935, 43.5266948], [4.3218007, 43.5263159], [4.3211183, 43.525966], [4.3198175, 43.5253719], [4.3167905, 43.5247641], [4.3151428, 43.5246175], [4.3140888, 43.5246496], [4.3117335, 43.5250565], [4.3112899, 43.5251232], [4.310703, 43.5252115], [4.31016, 43.5251727], [4.3096651, 43.5250488], [4.3093025, 43.5248705], [4.3090367, 43.5247397], [4.3087493, 43.5245254], [4.3083999, 43.5241674], [4.3068094, 43.5222736], [4.3062122, 43.5217137], [4.3057722, 43.5213485], [4.3048604, 43.5207524], [4.3043046, 43.5203497], [4.3031345, 43.5194115], [4.3020774, 43.5184275], [4.3014977, 43.5179397], [4.297363, 43.5151929], [4.296836, 43.51493], [4.296048, 43.5146125], [4.2952354, 43.5143699], [4.2943924, 43.5142112], [4.293457, 43.514087], [4.2902571, 43.5137431], [4.2894401, 43.5136432], [4.2881245, 43.5134092], [4.2877163, 43.5132759], [4.2866894, 43.5128706], [4.285574, 43.5124303], [4.2818489, 43.5110423], [4.2798021, 43.5103508], [4.2783025, 43.5097978], [4.276133, 43.509063], [4.2737436, 43.5083976], [4.2720824, 43.5080732], [4.2711428, 43.5079612], [4.2688135, 43.507928], [4.266411, 43.5080006], [4.2635646, 43.5081535], [4.2635395, 43.5080933], [4.2625963, 43.5081087], [4.2607063, 43.5079983], [4.2602494, 43.5079424], [4.259649, 43.5078254], [4.2590959, 43.5076813], [4.2585313, 43.5074606], [4.2552607, 43.5054521], [4.2550127, 43.5053291], [4.2546681, 43.5052011], [4.2487969, 43.5028681], [4.2464688, 43.5020532], [4.2460059, 43.5019013], [4.2455906, 43.5018048], [4.2447395, 43.5016472], [4.2444184, 43.5015544], [4.2442867, 43.5015039], [4.2416407, 43.4999904], [4.2414544, 43.4998967], [4.2399099, 43.4992322], [4.2396057, 43.4990652], [4.2393683, 43.4989045], [4.2392864, 43.4988337], [4.2379694, 43.497494], [4.2378958, 43.4973967], [4.2378586, 43.4973045], [4.237815, 43.4971117], [4.2370213, 43.4972467], [4.236821, 43.4972243], [4.2366845, 43.4972595], [4.2365411, 43.4972604], [4.2359684, 43.4971162], [4.2356241, 43.4970769], [4.2354385, 43.4971122], [4.2352234, 43.4970865], [4.235132, 43.4971411], [4.2346094, 43.4971152], [4.231671, 43.4971942], [4.2270145, 43.497081], [4.2203696, 43.4964986], [4.2171105, 43.4959655], [4.2149972, 43.4960071], [4.2146089, 43.4958673], [4.2144428, 43.4958329], [4.2139023, 43.4958113], [4.2122675, 43.495904], [4.2110432, 43.4960793], [4.2080891, 43.4966073], [4.207282, 43.4967974], [4.2047317, 43.4977007], [4.2035548, 43.498205], [4.2027109, 43.4986039], [4.2024654, 43.4987881], [4.2019145, 43.4991206], [4.200839, 43.4998392], [4.2001763, 43.5003261], [4.1996855, 43.5007513], [4.1990462, 43.5014125], [4.1984252, 43.5021848], [4.1979585, 43.502839], [4.1979821, 43.5030097], [4.197619, 43.5035151], [4.1974065, 43.5036742], [4.1966338, 43.5041509], [4.1962634, 43.5046592], [4.195626, 43.5049873], [4.1955431, 43.5051196], [4.1954699, 43.5051754], [4.1952945, 43.5052285], [4.1951829, 43.5054007], [4.194647, 43.5057833], [4.194625, 43.5059354], [4.1946203, 43.5060553], [4.1946249, 43.506398], [4.1940667, 43.506584], [4.1931671, 43.5070814], [4.1927395, 43.5072238], [4.1925612, 43.507373], [4.1923968, 43.5076836], [4.1920465, 43.5077068], [4.1915012, 43.5081175], [4.1910384, 43.5087025], [4.1907778, 43.5091271], [4.1901838, 43.5099284], [4.1899972, 43.5100788], [4.1894036, 43.5104244], [4.188791, 43.5114947], [4.1887599, 43.5115756], [4.1887748, 43.5116322], [4.1888443, 43.5117724], [4.1887972, 43.5118402], [4.1885251, 43.5117418], [4.1881844, 43.5116937], [4.188086, 43.5116891], [4.1880141, 43.5117081], [4.1879439, 43.5117689], [4.1881252, 43.5120525], [4.1867603, 43.5140018], [4.1859465, 43.5147329], [4.1855133, 43.5152805], [4.1831524, 43.5177755], [4.1829175, 43.5179431], [4.1824634, 43.518177], [4.1799931, 43.5189515], [4.1795706, 43.5196053], [4.1788814, 43.52061], [4.1783398, 43.5215386], [4.1783183, 43.5230374], [4.1783338, 43.5239051], [4.1782754, 43.5246922], [4.1782455, 43.5259154], [4.1781864, 43.5263122], [4.177366, 43.5290331], [4.1772497, 43.5300094], [4.1772474, 43.5301787], [4.1765703, 43.5308502], [4.1762135, 43.5313282], [4.1759279, 43.5317995], [4.1752081, 43.5332824], [4.1748519, 43.5343881], [4.1744812, 43.5350247], [4.17416, 43.5354366], [4.1734714, 43.5362283], [4.1732169, 43.5366146], [4.1730315, 43.5370543], [4.1728321, 43.5374014], [4.1727133, 43.5375671], [4.1724387, 43.5377872], [4.1720882, 43.5379812], [4.1716808, 43.5382772], [4.1711685, 43.5387003], [4.1708409, 43.5390277], [4.1656139, 43.5460122], [4.1648144, 43.5478484], [4.1629932, 43.5492834], [4.1604926, 43.5482538], [4.1595481, 43.5491142], [4.1507389, 43.5571392], [4.1503876, 43.557314], [4.1440173, 43.5597522], [4.1398206, 43.5624884], [4.1391427, 43.5629368], [4.1351303, 43.5626737], [4.1308078, 43.5644451], [4.1242903, 43.5658036], [4.1184826, 43.5679185], [4.1132067, 43.5693131], [4.1090166, 43.5688569], [4.1087477, 43.5691744], [4.1081095, 43.5702187], [4.1056023, 43.5725575], [4.1033437, 43.5747574], [4.1009612, 43.5767907], [4.0975309, 43.5799846], [4.0956853, 43.5816581], [4.0924375, 43.583052], [4.0806437, 43.5904304], [4.0800844, 43.5901982], [4.0796308, 43.5901153], [4.0789845, 43.5898894], [4.0788503, 43.5897365], [4.0786774, 43.5896358], [4.0784293, 43.5896082], [4.0783624, 43.5895373], [4.0777127, 43.5894058], [4.0771616, 43.5892168], [4.0768517, 43.5892422], [4.0765183, 43.5891468], [4.076371, 43.5891325], [4.0760703, 43.5891496], [4.0767284, 43.589365], [4.0776041, 43.5896612], [4.0784679, 43.5899556], [4.0799806, 43.5904403], [4.080572, 43.5906685]]]}}]}